{
  "version": 0.6,
  "generator": "Overpass API",
  "osm3s": {
    "timestamp_osm_base": "2017-06-14T05:34:12Z",
    "timestamp_areas_base": "2017-06-14T04:17:12Z",
    "copyright": "The data included in this document is from www.openstreetmap.org. The data is made available under ODbL."
  },
  "elements": [

{
  "type": "node",
  "id": 33519409,
  "lat": 47.7945094,
  "lon": 15.5881451,
  "tags": {
    "addr:city": "St. Aegyd am Neuwalde",
    "addr:postcode": "3193",
    "ele": "1500",
    "name": "Gippelhütte",
    "note": "Mail: johannahickelsberger@yahoo.de, Bewirtschaftet während der Weidezeit ca. Mitte Juni bis Mitte September, Nächtigung möglich: (16 Personen Lager), Mittwoch Ruhetag",
    "operator": "Johanna Hickelsberger",
    "phone": "+43 664 5995 888",
    "source": "http://www.staegyd.at",
    "tourism": "alpine_hut"
  }
},
{
  "type": "node",
  "id": 60447994,
  "lat": 47.1767946,
  "lon": 11.2658006,
  "tags": {
    "addr:city": "Grinzens",
    "addr:housenumber": "110",
    "addr:postcode": "6095",
    "amenity": "restaurant",
    "contact:mobile": "+43 650 5703391",
    "ele": "1673",
    "name": "Kemater Alm",
    "tourism": "alpine_hut",
    "website": "http://kemateralm.at"
  }
},
{
  "type": "node",
  "id": 95823780,
  "lat": 47.5332655,
  "lon": 12.0188728,
  "tags": {
    "amenity": "restaurant",
    "ele": "1450",
    "name": "Almgasthof Buchacker",
    "opening_hours": "Fr-Su",
    "phone": "+4369912358598",
    "tourism": "alpine_hut"
  }
},
{
  "type": "node",
  "id": 240102879,
  "lat": 47.0792761,
  "lon": 13.5800300,
  "tags": {
    "is_in": "Muhr,Tamsweg,Salzburg,Österreich,Europe",
    "name": "Schellgaden",
    "openGeoDB:auto_update": "population,place,name,is_in",
    "openGeoDB:community_identification_number": "5050502",
    "openGeoDB:is_in": "Muhr,Tamsweg,Salzburg,Österreich,Europe",
    "openGeoDB:is_in_loc_id": "29813",
    "openGeoDB:layer": "7",
    "openGeoDB:loc_id": "74732",
    "openGeoDB:location": "locality",
    "openGeoDB:name": "Schellgaden",
    "openGeoDB:population": "77",
    "openGeoDB:postal_codes": "5583",
    "openGeoDB:sort_name": "SCHELLGADEN",
    "openGeoDB:type": "Ort",
    "openGeoDB:version": "0.2.6.11 / 2007-12-04 / http://fa-technik.adfc.de/code/opengeodb/dump/",
    "place": "locality",
    "population": "77",
    "tourism": "alpine_hut"
  }
},
{
  "type": "node",
  "id": 245374143,
  "lat": 47.2371846,
  "lon": 11.4992731,
  "tags": {
    "addr:housenumber": "1",
    "addr:street": "Rinnerberg",
    "amenity": "restaurant",
    "ele": "1394",
    "name": "Rinner Alm",
    "opening_hours": "Tu-Sa 09:00-22:00; Su 09:00-18:00",
    "phone": "+43 5223 78409",
    "tourism": "alpine_hut",
    "website": "http://rinner-alm.at"
  }
},
{
  "type": "node",
  "id": 250068427,
  "lat": 46.8699797,
  "lon": 10.7630781,
  "tags": {
    "ele": "2731",
    "name": "Rauhekopfhütte",
    "operator": "DAV Sektion Franfurt/Main",
    "phone": "+436642067006",
    "tourism": "alpine_hut",
    "wikidata": "Q2133181",
    "wikipedia": "de:Rauhekopfhütte"
  }
},
{
  "type": "node",
  "id": 252335888,
  "lat": 47.2236903,
  "lon": 11.7085181,
  "tags": {
    "ele": "1799",
    "name": "Weidener Hütte",
    "operator": "DAV Sektion Weiden",
    "phone": "+43 676 7395997",
    "tourism": "alpine_hut",
    "wikidata": "Q1471127",
    "wikipedia": "de:Weidener Hütte"
  }
},
{
  "type": "node",
  "id": 256057478,
  "lat": 46.9937503,
  "lon": 11.2178408,
  "tags": {
    "addr:city": "Neustift",
    "addr:country": "AT",
    "addr:housenumber": "28",
    "addr:postcode": "6167",
    "addr:street": "Schulweg",
    "amenity": "restaurant",
    "ele": "2280",
    "name": "Nürnberger Hütte",
    "operator": "Leonhard Siller",
    "phone": "+43-5226-2492",
    "tourism": "alpine_hut",
    "url": "http://www.nuernbergerhuette.at/",
    "website": "http://www.nuernbergerhuette.at/",
    "wikidata": "Q2007069",
    "wikipedia": "de:Nürnberger Hütte"
  }
},
{
  "type": "node",
  "id": 256057483,
  "lat": 47.1429936,
  "lon": 11.2087370,
  "tags": {
    "addr:city": "Axams",
    "addr:housenumber": "4",
    "addr:postcode": "6094",
    "addr:street": "Köhlgasse",
    "amenity": "restaurant",
    "cuisine": "alpine_hut",
    "ele": "2009",
    "name": "Potsdamer Hütte",
    "phone": "+43 650 4030822",
    "tourism": "alpine_hut",
    "website": "http://www.potsdamer.at/",
    "wikidata": "Q2106545",
    "wikipedia": "de:Potsdamer Hütte"
  }
},
{
  "type": "node",
  "id": 260133307,
  "lat": 46.7229985,
  "lon": 13.4039732,
  "tags": {
    "ele": "1573",
    "name": "Techendorfer Alm",
    "tourism": "alpine_hut"
  }
},
{
  "type": "node",
  "id": 260949814,
  "lat": 47.0753316,
  "lon": 11.4571455,
  "tags": {
    "amenity": "restaurant",
    "name": "Bergeralm",
    "tourism": "alpine_hut"
  }
},
{
  "type": "node",
  "id": 274356992,
  "lat": 47.3032730,
  "lon": 11.3877707,
  "tags": {
    "amenity": "restaurant",
    "cuisine": "regional",
    "ele": "1661",
    "name": "Bodenstein Alm",
    "tourism": "alpine_hut"
  }
},
{
  "type": "node",
  "id": 276593145,
  "lat": 47.8366199,
  "lon": 13.9915871,
  "tags": {
    "amenity": "restaurant",
    "building": "yes",
    "name": "Hochberghaus",
    "tourism": "alpine_hut"
  }
},
{
  "type": "node",
  "id": 277245993,
  "lat": 47.1242614,
  "lon": 12.1338967,
  "tags": {
    "created_by": "Potlatch 0.9c",
    "email": "richterhütte@gmx.at",
    "name": "Richterhütte",
    "name:de": "Richterhütte (2374 m)",
    "phone": "+43 6564 7328",
    "tourism": "alpine_hut"
  }
},
{
  "type": "node",
  "id": 277528308,
  "lat": 47.0678416,
  "lon": 12.9839400,
  "tags": {
    "description": "Sonnblickbasis",
    "ele": "1598",
    "name": "Naturfreundehaus Kolm-Saigurn",
    "operator": "Naturfreunde Rauris",
    "phone": "+43 6544 8103",
    "tourism": "alpine_hut",
    "website": "http://www.sonnblickbasis.at",
    "wikidata": "Q1733694",
    "wikipedia": "de:Naturfreundehaus Kolm-Saigurn"
  }
},
{
  "type": "node",
  "id": 278013256,
  "lat": 47.0517509,
  "lon": 12.8713768,
  "tags": {
    "name": "Ederkaser",
    "tourism": "alpine_hut"
  }
},
{
  "type": "node",
  "id": 278600997,
  "lat": 47.6376412,
  "lon": 14.3910895,
  "tags": {
    "name": "Rohrauer Haus",
    "tourism": "alpine_hut"
  }
},
{
  "type": "node",
  "id": 279584189,
  "lat": 47.2218812,
  "lon": 11.4669069,
  "tags": {
    "amenity": "restaurant",
    "ele": "1609",
    "name": "Sistranser Alm",
    "tourism": "alpine_hut",
    "website": "http://www.sistranseralm.at"
  }
},
{
  "type": "node",
  "id": 280889033,
  "lat": 47.3311234,
  "lon": 11.2676517,
  "tags": {
    "amenity": "restaurant",
    "cuisine": "regional",
    "ele": "1455",
    "name": "Eppzirler Alm",
    "phone": "+436644629211",
    "smoking": "no",
    "tourism": "alpine_hut",
    "wikidata": "Q1347674",
    "wikipedia": "de:Eppzirler Alm"
  }
},
{
  "type": "node",
  "id": 281022622,
  "lat": 48.0597290,
  "lon": 15.5402134,
  "tags": {
    "addr:housenumber": "25",
    "addr:street": "Windbichl",
    "amenity": "restaurant",
    "ele": "723",
    "name": "Kaiserkogelhütte",
    "operator": "Österreichischer Touristenclub",
    "tourism": "alpine_hut"
  }
},
{
  "type": "node",
  "id": 281811874,
  "lat": 47.1253893,
  "lon": 11.3572701,
  "tags": {
    "amenity": "restaurant",
    "name": "Wildeben",
    "tourism": "alpine_hut"
  }
},
{
  "type": "node",
  "id": 282961692,
  "lat": 47.3137396,
  "lon": 11.4517250,
  "tags": {
    "amenity": "restaurant",
    "cuisine": "regional",
    "ele": "1464",
    "name": "Thaurer Alm",
    "tourism": "alpine_hut",
    "website": "http://www.thaureralm.at/"
  }
},
{
  "type": "node",
  "id": 283306783,
  "lat": 47.3012754,
  "lon": 10.6678361,
  "tags": {
    "ele": "2038",
    "name": "Anhalter Hütte",
    "operator": "DAV Sektion Oberer Neckar",
    "shower": "no",
    "smoking": "no",
    "source": "survey(2008-07,garmin)",
    "tourism": "alpine_hut",
    "url:official": "http://www.anhalter-huette.gmxhome.de/",
    "wikidata": "Q545121",
    "wikipedia": "de:Anhalter Hütte"
  }
},
{
  "type": "node",
  "id": 287407124,
  "lat": 47.0747784,
  "lon": 12.9980508,
  "tags": {
    "ele": "1742",
    "name": "Durchgangalm",
    "tourism": "alpine_hut",
    "url": "http://www.ganzenhubhof.at/"
  }
},
{
  "type": "node",
  "id": 288134576,
  "lat": 46.8704092,
  "lon": 14.6166973,
  "tags": {
    "amenity": "restaurant",
    "ele": "1610",
    "name": "Weissbergerhütte",
    "tourism": "alpine_hut"
  }
},
{
  "type": "node",
  "id": 288134602,
  "lat": 46.8787071,
  "lon": 14.6088005,
  "tags": {
    "amenity": "restaurant",
    "ele": "1515",
    "name": "Breitofnerhütte",
    "tourism": "alpine_hut"
  }
},
{
  "type": "node",
  "id": 290233017,
  "lat": 47.4200057,
  "lon": 12.2375905,
  "tags": {
    "amenity": "restaurant",
    "internet_access": "wlan",
    "name": "Alpenrosenhütte",
    "old_name": "Alpenrose-Hütte",
    "operator": "DAV",
    "phone": "+4353346488",
    "ref": "68",
    "tourism": "alpine_hut",
    "website": "www.alpenrosenhuette.at"
  }
},
{
  "type": "node",
  "id": 290515818,
  "lat": 47.2404579,
  "lon": 11.1520401,
  "tags": {
    "name": "Inzinger Alm",
    "tourism": "alpine_hut"
  }
},
{
  "type": "node",
  "id": 291188569,
  "lat": 47.3920627,
  "lon": 12.6827748,
  "tags": {
    "amenity": "biergarten",
    "name": "Rachkuchl",
    "tourism": "alpine_hut"
  }
},
{
  "type": "node",
  "id": 292733252,
  "lat": 46.9612238,
  "lon": 10.8574487,
  "tags": {
    "ele": "2293",
    "name": "Riffelseehütte",
    "operator": "DAV Sektion Cottbus",
    "tourism": "alpine_hut",
    "wikidata": "Q15059357",
    "wikipedia": "de:Riffelseehütte"
  }
},
{
  "type": "node",
  "id": 292735615,
  "lat": 47.0211326,
  "lon": 10.7792430,
  "tags": {
    "ele": "2025",
    "name": "Verpeilhütte",
    "operator": "DAV Sektion Franfurt/Main",
    "tourism": "alpine_hut",
    "wikidata": "Q1331162",
    "wikipedia": "de:Verpeilhütte"
  }
},
{
  "type": "node",
  "id": 292735628,
  "lat": 47.1570626,
  "lon": 10.6948901,
  "tags": {
    "amenity": "restaurant",
    "ele": "1814",
    "name": "Larcheralm",
    "tourism": "alpine_hut"
  }
},
{
  "type": "node",
  "id": 292735632,
  "lat": 47.1491242,
  "lon": 10.6842738,
  "tags": {
    "amenity": "restaurant",
    "name": "Galflunalm",
    "tourism": "alpine_hut"
  }
},
{
  "type": "node",
  "id": 292919704,
  "lat": 47.4451229,
  "lon": 11.8208008,
  "tags": {
    "amenity": "restaurant",
    "name": "Bayreuther Hütte",
    "tourism": "alpine_hut",
    "wikidata": "Q812600",
    "wikipedia": "de:Bayreuther Hütte"
  }
},
{
  "type": "node",
  "id": 294758495,
  "lat": 47.1151963,
  "lon": 11.2101032,
  "tags": {
    "name": "Seducker Hochalm",
    "tourism": "alpine_hut"
  }
},
{
  "type": "node",
  "id": 295352733,
  "lat": 47.3599978,
  "lon": 10.9335782,
  "tags": {
    "addr:city": "Axams",
    "addr:country": "AT",
    "addr:postcode": "6094",
    "addr:street": "Köhlgasse",
    "amenity": "restaurant",
    "ele": "1927",
    "name": "Coburger Hütte",
    "note:de": "FIXME: Rauchverbot prüfen",
    "operator": "DAV Sektion Coburg",
    "operator:tenant": "Friedrich Schranz",
    "phone": "+436643254714",
    "smoking": "no",
    "tourism": "alpine_hut",
    "website": "http://www.coburgerhuette.at/de/Home_260",
    "wikidata": "Q1104821",
    "wikipedia": "de:Coburger Hütte"
  }
},
{
  "type": "node",
  "id": 296010554,
  "lat": 47.1512237,
  "lon": 11.5595653,
  "tags": {
    "addr:city": "Navis",
    "addr:country": "AT",
    "addr:housenumber": "174",
    "addr:postcode": "6145",
    "addr:street": "Klammerweg",
    "amenity": "restaurant",
    "name": "Peeralm",
    "tourism": "alpine_hut"
  }
},
{
  "type": "node",
  "id": 296240001,
  "lat": 46.9949024,
  "lon": 11.2633370,
  "tags": {
    "addr:country": "AT",
    "amenity": "restaurant",
    "cuisine": "alpine_hut",
    "ele": "2413",
    "name": "Bremer Hütte",
    "opening_hours": "Jun 30-Sep 30: open",
    "operator": "Raimund Pranger",
    "tourism": "alpine_hut",
    "url": "www.bremerhuette.at",
    "website": "www.bremerhuette.at",
    "wikidata": "Q907654",
    "wikipedia": "de:Bremer Hütte (Gschnitztal)"
  }
},
{
  "type": "node",
  "id": 297028008,
  "lat": 47.0945707,
  "lon": 11.1935574,
  "tags": {
    "ele": "1742",
    "name": "Oberissalm",
    "operator": "OeAV Sektion Innsbruck",
    "tourism": "alpine_hut"
  }
},
{
  "type": "node",
  "id": 297298270,
  "lat": 46.8818854,
  "lon": 12.8391279,
  "tags": {
    "amenity": "restaurant",
    "name": "Roana Alm",
    "tourism": "alpine_hut"
  }
},
{
  "type": "node",
  "id": 298231625,
  "lat": 47.2205343,
  "lon": 12.6985290,
  "tags": {
    "amenity": "restaurant",
    "name": "Häuslalm",
    "tourism": "alpine_hut"
  }
},
{
  "type": "node",
  "id": 298232764,
  "lat": 47.2528711,
  "lon": 12.7021482,
  "tags": {
    "amenity": "restaurant",
    "name": "Unterbergalm",
    "tourism": "alpine_hut"
  }
},
{
  "type": "node",
  "id": 298546933,
  "lat": 46.9553758,
  "lon": 12.9615148,
  "tags": {
    "name": "Peters Bruennl",
    "tourism": "alpine_hut"
  }
},
{
  "type": "node",
  "id": 298546972,
  "lat": 46.9549452,
  "lon": 12.9610190,
  "tags": {
    "amenity": "restaurant",
    "cuisine": "regional",
    "ele": "1880",
    "name": "Sadnighaus",
    "operator": "OeAV Sektion Großkirchheim-H.",
    "takeaway": "no",
    "tourism": "alpine_hut"
  }
},
{
  "type": "node",
  "id": 300038285,
  "lat": 47.1877034,
  "lon": 9.9624519,
  "tags": {
    "name": "Obere Laguzalpe",
    "tourism": "alpine_hut"
  }
},
{
  "type": "node",
  "id": 300118307,
  "lat": 47.3499021,
  "lon": 9.7306589,
  "tags": {
    "addr:city": "Dornbirn",
    "addr:housenumber": "500",
    "addr:postcode": "6850",
    "addr:village": "Ebnit",
    "amenity": "restaurant",
    "contact:email": "info@pfarrers-aelpele.at",
    "contact:phone": "+43 5576 42978",
    "cuisine": "regional",
    "ele": "1210",
    "name": "Pfarrers Älpele",
    "tourism": "alpine_hut",
    "website": "http://www.pfarrers-aelpele.at/"
  }
},
{
  "type": "node",
  "id": 301000243,
  "lat": 46.9348077,
  "lon": 12.7465478,
  "tags": {
    "name": "Lienzer Hütte",
    "tourism": "alpine_hut",
    "wikidata": "Q1746967",
    "wikipedia": "de:Lienzer Hütte"
  }
},
{
  "type": "node",
  "id": 301262877,
  "lat": 46.9778870,
  "lon": 12.7604244,
  "tags": {
    "ele": "2346",
    "name": "Elberfelder Hütte",
    "tourism": "alpine_hut"
  }
},
{
  "type": "node",
  "id": 305860388,
  "lat": 47.6404370,
  "lon": 12.4240651,
  "tags": {
    "addr:city": "Kössen",
    "addr:country": "AT",
    "addr:housename": "Scheibenwaldhütte",
    "addr:postcode": "6345",
    "addr:suburb": "Am Unterberg",
    "amenity": "restaurant",
    "name": "Scheibenwaldhütte",
    "phone": "+43 (5375) 6053",
    "tourism": "alpine_hut",
    "website": "http://www.scheibenwald.at/"
  }
},
{
  "type": "node",
  "id": 309548809,
  "lat": 47.1683330,
  "lon": 10.4032244,
  "tags": {
    "ele": "2376",
    "name": "Ansbacher Hütte",
    "operator": "DAV Sektion Ansbach",
    "tourism": "alpine_hut",
    "wikidata": "Q569046",
    "wikipedia": "de:Ansbacher Hütte"
  }
},
{
  "type": "node",
  "id": 309897705,
  "lat": 47.3417334,
  "lon": 10.8449330,
  "tags": {
    "alt_name": "Muthenaualm",
    "ele": "1735",
    "name": "Nassereither Alm (Muthenaualm)",
    "tourism": "alpine_hut",
    "website": "http://nassereither-alm.weebly.com/"
  }
},
{
  "type": "node",
  "id": 316564692,
  "lat": 47.1338257,
  "lon": 11.3022339,
  "tags": {
    "name": "Knappenhütte",
    "note": "geschlossen; wird nach Info Galtalmwirtin dem Verfall preisgegeben",
    "tourism": "alpine_hut"
  }
},
{
  "type": "node",
  "id": 316565247,
  "lat": 47.1452555,
  "lon": 11.2953676,
  "tags": {
    "ele": "1936",
    "name": "Zirmachalm",
    "tourism": "alpine_hut"
  }
},
{
  "type": "node",
  "id": 316565329,
  "lat": 47.1481603,
  "lon": 11.3215507,
  "tags": {
    "amenity": "restaurant",
    "ele": "1634",
    "name": "Galtalm",
    "tourism": "alpine_hut",
    "wikidata": "Q15111159",
    "wikipedia": "de:Galtalm (Stubaital)"
  }
},
{
  "type": "node",
  "id": 317066362,
  "lat": 47.0877559,
  "lon": 11.2567873,
  "tags": {
    "amenity": "restaurant",
    "name": "Milderauenalm",
    "tourism": "alpine_hut"
  }
},
{
  "type": "node",
  "id": 318171796,
  "lat": 47.0708495,
  "lon": 13.1150554,
  "tags": {
    "name": "ÖBB Schutzhütte",
    "tourism": "alpine_hut"
  }
},
{
  "type": "node",
  "id": 325196560,
  "lat": 47.1706692,
  "lon": 13.9689639,
  "tags": {
    "name": "Holzerhütte",
    "tourism": "alpine_hut"
  }
},
{
  "type": "node",
  "id": 325196820,
  "lat": 47.2270234,
  "lon": 13.8824397,
  "tags": {
    "name": "Moarhütte",
    "tourism": "alpine_hut"
  }
},
{
  "type": "node",
  "id": 325197136,
  "lat": 47.2197239,
  "lon": 13.9152719,
  "tags": {
    "fixme": "Position geraten. Da, wo sie vorher hingemappt war, ist jedenfalls auf dem GeoImage Bild keine Hütte zu sehen.",
    "name": "Ebenhandlhütte",
    "tourism": "alpine_hut"
  }
},
{
  "type": "node",
  "id": 330068507,
  "lat": 47.4018291,
  "lon": 13.4147012,
  "tags": {
    "amenity": "restaurant",
    "cuisine": "regional",
    "name": "Reitlehenalm",
    "tourism": "alpine_hut"
  }
},
{
  "type": "node",
  "id": 330073536,
  "lat": 47.4081122,
  "lon": 13.4126103,
  "tags": {
    "name": "Unterbuchstein",
    "tourism": "alpine_hut"
  }
},
{
  "type": "node",
  "id": 338818543,
  "lat": 47.4165518,
  "lon": 12.6199218,
  "tags": {
    "amenity": "restaurant",
    "name": "Spielberghaus",
    "tourism": "alpine_hut"
  }
},
{
  "type": "node",
  "id": 345627472,
  "lat": 47.1734327,
  "lon": 11.2174425,
  "tags": {
    "amenity": "restaurant",
    "ele": "1464",
    "name": "Bergheim",
    "opening_hours": "off",
    "tourism": "alpine_hut"
  }
},
{
  "type": "node",
  "id": 358528108,
  "lat": 47.4267901,
  "lon": 12.5524547,
  "tags": {
    "amenity": "restaurant",
    "name": "Hochhörndler Hütte",
    "tourism": "alpine_hut"
  }
},
{
  "type": "node",
  "id": 366885418,
  "lat": 47.5888446,
  "lon": 15.0686929,
  "tags": {
    "ele": "1450",
    "name": "Sackwiesenalm",
    "tourism": "alpine_hut"
  }
},
{
  "type": "node",
  "id": 389526819,
  "lat": 46.9178019,
  "lon": 10.5244088,
  "tags": {
    "amenity": "restaurant",
    "layer": "1",
    "name": "Labaunalm",
    "tourism": "alpine_hut"
  }
},
{
  "type": "node",
  "id": 389785638,
  "lat": 46.9303670,
  "lon": 12.8000830,
  "tags": {
    "created_by": "GPSBabel-1.3.6",
    "ele": "2508",
    "massif": "Schobergruppe",
    "name": "Wangenitzseehütte",
    "note": "Koordinaten vom ÖAV zur Verfügung gestellt",
    "tourism": "alpine_hut"
  }
},
{
  "type": "node",
  "id": 389785644,
  "lat": 47.5495480,
  "lon": 12.3495262,
  "tags": {
    "ele": "1465",
    "massif": "Kaisergebirge",
    "name": "Ackerlhütte",
    "note": "Koordinaten von wikipedia",
    "operator": "Sektion Kitzbühel",
    "tourism": "alpine_hut",
    "wikidata": "Q341773",
    "wikipedia": "de:Ackerlhütte"
  }
},
{
  "type": "node",
  "id": 389785661,
  "lat": 46.9540045,
  "lon": 12.7810076,
  "tags": {
    "ele": "2488",
    "massif": "Schobergruppe",
    "name": "Adolf-Nossberger-Hütte",
    "note": "Koordinaten vom ÖAV zur Verfügung gestellt",
    "operator": "Sektion Wiener Lehrer",
    "tourism": "alpine_hut"
  }
},
{
  "type": "node",
  "id": 389785677,
  "lat": 47.7548650,
  "lon": 14.0179264,
  "tags": {
    "amenity": "restaurant",
    "ele": "714",
    "massif": "Totes Gebirge",
    "name": "Almtalerhaus",
    "operator": "Sektion Wels",
    "tourism": "alpine_hut"
  }
},
{
  "type": "node",
  "id": 389785687,
  "lat": 47.8864023,
  "lon": 14.7707703,
  "tags": {
    "ele": "923",
    "massif": "Ybbstaler Alpen",
    "name": "Amstettner Hütte",
    "note": "Koordinaten vom ÖAV zur Verfügung gestellt",
    "operator": "OeAv Sektion Amstetten",
    "tourism": "alpine_hut"
  }
},
{
  "type": "node",
  "id": 389785691,
  "lat": 47.8735280,
  "lon": 15.4212710,
  "tags": {
    "amenity": "restaurant",
    "building": "yes",
    "ele": "1377",
    "massif": "Türnitzer Alpen",
    "name": "Annaberger Haus",
    "note": "Koordinaten vom ÖAV zur Verfügung gestellt",
    "operator": "Sektion Oesterr. Gebirgsverein",
    "tourism": "alpine_hut"
  }
},
{
  "type": "node",
  "id": 389785699,
  "lat": 47.9078096,
  "lon": 14.4046184,
  "tags": {
    "ele": "1157",
    "massif": "Oberösterreichische Voralpen",
    "name": "Anton-Schosser-Hütte",
    "note": "Koordinaten vom ÖAV zur Verfügung gestellt",
    "operator": "Sektion Steyr",
    "tourism": "alpine_hut"
  }
},
{
  "type": "node",
  "id": 389785715,
  "lat": 47.0661548,
  "lon": 14.1371632,
  "tags": {
    "ele": "1980",
    "massif": "Nockberge",
    "name": "Bernhard-Fest-Hütte",
    "note": "Koordinaten vom ÖAV zur Verfügung gestellt",
    "operator": "OeAV Sektion Murau",
    "tourism": "alpine_hut"
  }
},
{
  "type": "node",
  "id": 389785723,
  "lat": 46.8901109,
  "lon": 13.4663337,
  "tags": {
    "ele": "1800",
    "massif": "Ankogelgruppe",
    "name": "Bergfriedhütte",
    "operator": "Sektion Spittal an der Drau",
    "tourism": "alpine_hut"
  }
},
{
  "type": "node",
  "id": 389785744,
  "lat": 47.0389946,
  "lon": 12.4275225,
  "tags": {
    "ele": "2750",
    "image": "http://upload.wikimedia.org/wikipedia/commons/2/26/Bonn-Matreier-H%C3%BCtte.jpg",
    "massif": "Venedigergruppe",
    "name": "Bonn-Matreier-Hütte",
    "note": "Koordinaten vom ÖAV zur Verfügung gestellt",
    "operator": "Sektion Matrei in Osttirol",
    "tourism": "alpine_hut",
    "wikidata": "Q892673",
    "wikipedia": "de:Bonn-Matreier Hütte"
  }
},
{
  "type": "node",
  "id": 389785776,
  "lat": 46.9489952,
  "lon": 13.0275992,
  "tags": {
    "ele": "1765;1770",
    "massif": "Goldberggruppe",
    "name": "Dr. Widder-Jugendherberge",
    "note": "Koordinaten vom ÖAV zur Verfügung gestellt",
    "operator": "Alpenverein Klagenfurt",
    "tourism": "alpine_hut"
  }
},
{
  "type": "node",
  "id": 389785790,
  "lat": 46.6964170,
  "lon": 13.1572830,
  "tags": {
    "ele": "1585",
    "massif": "Gailtaler Alpen",
    "name": "E.T.-Compton-Hütte",
    "note": "Koordinaten vom ÖAV zur Verfügung gestellt",
    "operator": "OeAV Sektion Austria",
    "tourism": "alpine_hut"
  }
},
{
  "type": "node",
  "id": 389785802,
  "lat": 47.1060670,
  "lon": 10.3557330,
  "tags": {
    "ele": "2408",
    "massif": "Verwallgruppe",
    "name": "Edmund-Graf-Hütte",
    "note": "Koordinaten vom ÖAV zur Verfügung gestellt",
    "operator": "Sektion TK Innsbruck",
    "tourism": "alpine_hut",
    "wikidata": "Q1285900",
    "wikipedia": "de:Edmund-Graf-Hütte"
  }
},
{
  "type": "node",
  "id": 389785804,
  "lat": 47.4391404,
  "lon": 14.4328057,
  "tags": {
    "ele": "1725",
    "massif": "Rottenmanner und Wölzer Tauern",
    "name": "Edelrautehütte",
    "note": "Koordinaten vom ÖAV zur Verfügung gestellt",
    "operator": "Sektion Austria",
    "tourism": "alpine_hut"
  }
},
{
  "type": "node",
  "id": 389785832,
  "lat": 47.0788996,
  "lon": 14.0389825,
  "tags": {
    "ele": "1747",
    "massif": "Nockberge",
    "name": "Esebeckhütte",
    "note": "Koordinaten vom ÖAV zur Verfügung gestellt",
    "operator": "OeAv Sektion Murau",
    "tourism": "alpine_hut"
  }
},
{
  "type": "node",
  "id": 389785876,
  "lat": 46.9509306,
  "lon": 13.0277762,
  "tags": {
    "ele": "1810",
    "massif": "Goldberggruppe",
    "name": "Fraganter Schutzhaus",
    "note": "Koordinaten vom ÖAV zur Verfügung gestellt",
    "operator": "Alpenverein Klagenfurt",
    "tourism": "alpine_hut"
  }
},
{
  "type": "node",
  "id": 389785880,
  "lat": 46.6966011,
  "lon": 13.8941964,
  "tags": {
    "ele": "1580",
    "massif": "Nockberge",
    "name": "Gerlitzenhütte",
    "note": "Koordinaten vom ÖAV zur Verfügung gestellt",
    "operator": "Sektion Villach",
    "tourism": "alpine_hut"
  }
},
{
  "type": "node",
  "id": 389785888,
  "lat": 47.3516645,
  "lon": 15.4546038,
  "tags": {
    "ele": "1200",
    "massif": "Randgebirge östlich der Mur",
    "name": "Gaston-Lippitt-Hütte",
    "note": "Koordinaten vom ÖAV zur Verfügung gestellt",
    "operator": "Sektion Mixnitz",
    "tourism": "alpine_hut"
  }
},
{
  "type": "node",
  "id": 389785912,
  "lat": 46.7610785,
  "lon": 13.4693701,
  "tags": {
    "ele": "1945",
    "massif": "Gailtaler Alpen",
    "name": "Goldeckhütte",
    "note": "Koordinaten vom ÖAV zur Verfügung gestellt",
    "operator": "Sektion Spittal an der Drau",
    "tourism": "alpine_hut"
  }
},
{
  "type": "node",
  "id": 389785979,
  "lat": 47.4026622,
  "lon": 9.8126187,
  "tags": {
    "ele": "1460",
    "massif": "Bregenzerwaldgebirge",
    "name": "Hochälpelehütte",
    "note": "Koordinaten vom ÖAV zur Verfügung gestellt",
    "operator": "Sektion Vorarlberg",
    "tourism": "alpine_hut"
  }
},
{
  "type": "node",
  "id": 389785992,
  "lat": 47.0787418,
  "lon": 9.7837702,
  "tags": {
    "ele": "1766",
    "massif": "Rätikon",
    "name": "Heinrich-Hueter-Hütte",
    "note": "Koordinaten vom ÖAV zur Verfügung gestellt",
    "operator": "Sektion Vorarlberg",
    "tourism": "alpine_hut"
  }
},
{
  "type": "node",
  "id": 389786017,
  "lat": 47.0432317,
  "lon": 11.3108244,
  "tags": {
    "amenity": "restaurant",
    "ele": "2369",
    "massif": "Stubaier Alpen",
    "name": "Innsbrucker Hütte",
    "note": "Koordinaten vom ÖAV zur Verfügung gestellt",
    "operator": "Sektion TK Innsbruck",
    "phone": "+43-5276-295",
    "tourism": "alpine_hut",
    "website": "http://www.innsbrucker-huette.at",
    "wikidata": "Q1664229",
    "wikipedia": "de:Innsbrucker Hütte"
  }
},
{
  "type": "node",
  "id": 389786026,
  "lat": 46.9480797,
  "lon": 13.0202580,
  "tags": {
    "ele": "1765",
    "massif": "Goldberggruppe",
    "name": "Holler-Stöckl",
    "note": "Koordinaten vom ÖAV zur Verfügung gestellt",
    "operator": "Alpenverein Klagenfurt",
    "tourism": "alpine_hut"
  }
},
{
  "type": "node",
  "id": 389786039,
  "lat": 46.6416027,
  "lon": 15.2414221,
  "tags": {
    "ele": "1003",
    "massif": "Lavanttaler Alpen",
    "name": "Kapunerhütte",
    "operator": "ÖAV Sektion Graz",
    "tourism": "alpine_hut"
  }
},
{
  "type": "node",
  "id": 389786044,
  "lat": 47.5820228,
  "lon": 15.7982186,
  "tags": {
    "ele": "1450",
    "name": "Karl-Lechner-Haus",
    "note": "Koordinaten vom ÖAV zur Verfügung gestellt",
    "operator": "Sektion Stuhlecker",
    "tourism": "alpine_hut"
  }
},
{
  "type": "node",
  "id": 389786071,
  "lat": 47.1227377,
  "lon": 12.2999263,
  "tags": {
    "amenity": "restaurant",
    "cuisine": "regional",
    "ele": "2558",
    "massif": "Venedigergruppe",
    "name": "Kürsinger Hütte",
    "note": "Koordinaten vom ÖAV zur Verfügung gestellt",
    "operator": "Sektion Salzburg",
    "tourism": "alpine_hut",
    "wikidata": "Q1797295",
    "wikipedia": "de:Kürsingerhütte"
  }
},
{
  "type": "node",
  "id": 389786089,
  "lat": 46.4468626,
  "lon": 14.1830532,
  "tags": {
    "ele": "1664",
    "massif": "Karawanken u. Bachergebirge",
    "name": "Klagenfurter Hütte",
    "name:de": "Klagenfurter Hütte",
    "name:sl": "Celovška koča",
    "note": "Koordinaten vom ÖAV zur Verfügung gestellt",
    "operator": "Österreichischer Alpenverein - Sektion Klagenfurt",
    "tourism": "alpine_hut",
    "website": "http://www.klagenfurterhuette.at/"
  }
},
{
  "type": "node",
  "id": 389786096,
  "lat": 47.3947529,
  "lon": 9.8246741,
  "tags": {
    "ele": "1250",
    "massif": "Bregenzerwaldgebirge",
    "name": "Lustenauer Hütte",
    "note": "Koordinaten vom ÖAV zur Verfügung gestellt",
    "operator": "Vorarlberger Alpenverein",
    "tourism": "alpine_hut",
    "website": "http://vorarlberg.naturfreunde.at/UeberUns/detail/25681/"
  }
},
{
  "type": "node",
  "id": 389786124,
  "lat": 47.9895830,
  "lon": 15.5900483,
  "tags": {
    "ele": "956",
    "massif": "Gutensteiner Alpen",
    "name": "Lilienfelder Hütte",
    "note": "Koordinaten vom ÖAV zur Verfügung gestellt",
    "operator": "Sektion Oesterr. Gebirgsverein",
    "tourism": "alpine_hut"
  }
},
{
  "type": "node",
  "id": 389786149,
  "lat": 46.9444028,
  "lon": 13.3396982,
  "tags": {
    "ele": "2320",
    "massif": "Ankogelgruppe",
    "name": "Mooshütte",
    "note": "Koordinaten vom ÖAV zur Verfügung gestellt",
    "operator": "Sektion Spittal an der Drau",
    "tourism": "alpine_hut"
  }
},
{
  "type": "node",
  "id": 389786161,
  "lat": 46.8482170,
  "lon": 13.5940170,
  "tags": {
    "amenity": "restaurant",
    "ele": "1880",
    "massif": "Nockberge",
    "name": "Millstätter Hütte",
    "note": "Koordinaten vom ÖAV zur Verfügung gestellt",
    "operator": "ÖAV",
    "tourism": "alpine_hut"
  }
},
{
  "type": "node",
  "id": 389786192,
  "lat": 47.4636723,
  "lon": 12.8753428,
  "tags": {
    "addr:city": "Saalfelden",
    "addr:country": "AT",
    "addr:postcode": "5760",
    "amenity": "restaurant",
    "cuisine": "regional",
    "ele": "1752",
    "fax": "+43658273489",
    "name": "Peter-Wiechenthaler-Hütte",
    "operator": "ÖAV Sektion Saalfelden",
    "operator:tenant": "Herta Gfäller",
    "phone": "+43658273489",
    "ref:avf": "143",
    "source": "survey",
    "tourism": "alpine_hut"
  }
},
{
  "type": "node",
  "id": 389786196,
  "lat": 46.9092170,
  "lon": 13.1826670,
  "tags": {
    "created_by": "GPSBabel-1.3.6",
    "ele": "1873",
    "massif": "Kreuzeckgruppe",
    "name": "Polinikhütte",
    "note": "Koordinaten vom ÖAV zur Verfügung gestellt",
    "operator": "Sektion Mölltal",
    "tourism": "alpine_hut"
  }
},
{
  "type": "node",
  "id": 389786203,
  "lat": 48.6728567,
  "lon": 14.7786643,
  "tags": {
    "ele": "1000",
    "massif": "Ausseralpine Gebiete - Österr.",
    "name": "Nebelsteinhütte",
    "note": "Koordinaten vom ÖAV zur Verfügung gestellt",
    "operator": "Sektion Waldviertel",
    "tourism": "alpine_hut"
  }
},
{
  "type": "node",
  "id": 389786238,
  "lat": 47.5565559,
  "lon": 13.2902609,
  "tags": {
    "ele": "1000",
    "massif": "Tennengebirge",
    "name": "Rossberghütte",
    "note": "Koordinaten vom ÖAV zur Verfügung gestellt",
    "operator": "Sektion Salzburg",
    "tourism": "alpine_hut"
  }
},
{
  "type": "node",
  "id": 389786264,
  "lat": 46.6597212,
  "lon": 12.5822032,
  "tags": {
    "ele": "1942",
    "massif": "Karnischer Hauptkamm",
    "name": "Porzehütte",
    "note": "Koordinaten vom ÖAV zur Verfügung gestellt",
    "operator": "Sektion Austria",
    "tourism": "alpine_hut",
    "wikidata": "Q1632449",
    "wikipedia": "de:Porzehütte"
  }
},
{
  "type": "node",
  "id": 389786310,
  "lat": 47.4049352,
  "lon": 10.6910962,
  "tags": {
    "ele": "1740",
    "name": "Reuttener Hütte",
    "note": "Koordinaten vom ÖAV zur Verfügung gestellt",
    "operator": "Österreichischer Alpenverein, Sektion Reutte",
    "tourism": "alpine_hut",
    "website": "http://de.wikipedia.org/wiki/Reuttener_H%C3%BCtte",
    "wikidata": "Q1554792",
    "wikipedia": "de:Reuttener Hütte"
  }
},
{
  "type": "node",
  "id": 389786317,
  "lat": 47.2799770,
  "lon": 14.6145555,
  "tags": {
    "ele": "1215",
    "massif": "Seckauer Tauern",
    "name": "Sonnleitnerhütte",
    "note": "Koordinaten vom ÖAV zur Verfügung gestellt",
    "operator": "ÖAV Sektion Knittelfeld",
    "tourism": "alpine_hut"
  }
},
{
  "type": "node",
  "id": 389786350,
  "lat": 47.1574871,
  "lon": 12.4957933,
  "tags": {
    "beds": "67",
    "ele": "2481",
    "email": "st.poeltnerhuette.reinhold@gmail.com",
    "internet_access": "no",
    "massif": "Granatspitzgruppe",
    "name": "St. Pöltner Hütte",
    "note": "Koordinaten vom ÖAV zur Verfügung gestellt",
    "operator": "ÖAV Sektion Sankt Pölten",
    "phone": "+43 6562 6265",
    "shower": "no",
    "tourism": "alpine_hut",
    "website": "http://www.alpenverein.at/sankt-poelten/",
    "wikidata": "Q2322946",
    "wikipedia": "de:St. Pöltner Hütte"
  }
},
{
  "type": "node",
  "id": 389786366,
  "lat": 47.1040427,
  "lon": 9.7865450,
  "tags": {
    "ele": "1645",
    "massif": "Rätikon",
    "name": "Sarotlahütte",
    "note": "Koordinaten vom ÖAV zur Verfügung gestellt",
    "operator": "Sektion Vorarlberg",
    "tourism": "alpine_hut"
  }
},
{
  "type": "node",
  "id": 389786368,
  "lat": 47.0470489,
  "lon": 12.7206492,
  "tags": {
    "ele": "2644",
    "massif": "Glocknergruppe",
    "name": "Salmhütte",
    "note": "Koordinaten vom OeAV zur Verfügung gestellt",
    "operator": "Oesterreichischer Alpenverein Sektion Wien",
    "tourism": "alpine_hut"
  }
},
{
  "type": "node",
  "id": 389786371,
  "lat": 47.4735173,
  "lon": 13.6125112,
  "tags": {
    "addr:city": "Gemeinde Ramsau am Dachstein",
    "addr:housename": "Bergstation Hunerkogel",
    "addr:postcode": "8972",
    "ele": "2740",
    "massif": "Dachsteingebirge",
    "name": "Seethalerhütte",
    "note": "Koordinaten vom ÖAV zur Verfügung gestellt",
    "operator": "Sektion Austria",
    "phone": "+43/664/3240640",
    "source": "http://huetten.alpenverein.at/huettenHome/DE/Home/index.php?huetteNr",
    "tourism": "alpine_hut",
    "website": "http://huetten.alpenverein.at/huettenHome/DE/Home/index.php?huetteNr",
    "wikidata": "Q2265707",
    "wikipedia": "de:Seethalerhütte"
  }
},
{
  "type": "node",
  "id": 389786374,
  "lat": 47.1355400,
  "lon": 12.7642147,
  "tags": {
    "ele": "2267",
    "massif": "Glocknergruppe",
    "name": "Schwarzenberghütte",
    "note": "Koordinaten vom ÖAV zur Verfügung gestellt",
    "operator": "Sektion Oesterr. Gebirgsverein",
    "tourism": "alpine_hut"
  }
},
{
  "type": "node",
  "id": 389786397,
  "lat": 47.0526049,
  "lon": 9.7271947,
  "tags": {
    "ele": "2385",
    "massif": "Rätikon",
    "name": "Totalphütte",
    "note": "Koordinaten vom ÖAV zur Verfügung gestellt",
    "operator": "Österreichischer Alpenverein Sektion Vorarlberg",
    "tourism": "alpine_hut"
  }
},
{
  "type": "node",
  "id": 389786469,
  "lat": 47.0877670,
  "lon": 14.6003830,
  "tags": {
    "created_by": "GPSBabel-1.3.6",
    "ele": "1610",
    "massif": "Lavanttaler Alpen",
    "name": "Zirbenwaldhütte",
    "note": "Koordinaten vom ÖAV zur Verfügung gestellt",
    "operator": "OeAV Sektion Fohnsdorf",
    "tourism": "alpine_hut"
  }
},
{
  "type": "node",
  "id": 389786497,
  "lat": 46.8340639,
  "lon": 14.6592288,
  "tags": {
    "ele": "1850",
    "massif": "Lavanttaler Alpen",
    "name": "Wolfsberger Hütte",
    "note": "Koordinaten vom ÖAV zur Verfügung gestellt",
    "operator": "Sektion Wolfsberg",
    "tourism": "alpine_hut"
  }
},
{
  "type": "node",
  "id": 389786502,
  "lat": 47.2701670,
  "lon": 15.6556170,
  "tags": {
    "created_by": "GPSBabel-1.3.6",
    "ele": "904",
    "massif": "Randgebirge östlich der Mur",
    "name": "Wittgruberhof, Jugendh.",
    "note": "Koordinaten vom ÖAV zur Verfügung gestellt",
    "operator": "Sektion Weiz",
    "tourism": "alpine_hut"
  }
},
{
  "type": "node",
  "id": 389786524,
  "lat": 47.4317967,
  "lon": 12.5392215,
  "tags": {
    "ele": "1854",
    "massif": "Kitzbüheler Alpen",
    "name": "Wildseeloderhaus",
    "note": "Koordinaten vom ÖAV zur Verfügung gestellt",
    "operator": "Sektion Fieberbrunn",
    "tourism": "alpine_hut",
    "website": "http://www.wildseeloderhaus.at/index.php",
    "wikidata": "Q2570898",
    "wikipedia": "de:Wildseeloderhaus"
  }
},
{
  "type": "node",
  "id": 389786536,
  "lat": 47.2457830,
  "lon": 13.5674000,
  "tags": {
    "created_by": "GPSBabel-1.3.6",
    "ele": "1670",
    "massif": "Schladminger Tauern",
    "name": "Wismeyerhaus",
    "note": "Koordinaten vom ÖAV zur Verfügung gestellt",
    "operator": "Alpenverein Edelweiß",
    "tourism": "alpine_hut"
  }
},
{
  "type": "node",
  "id": 389786541,
  "lat": 46.8776199,
  "lon": 12.8438661,
  "tags": {
    "amenity": "restaurant",
    "ele": "1905",
    "massif": "Schobergruppe",
    "name": "Winklerner Hütte",
    "note": "Koordinaten vom ÖAV zur Verfügung gestellt",
    "operator": "Sektion Winklern",
    "tourism": "alpine_hut",
    "wikidata": "Q2584644",
    "wikipedia": "de:Winklerner Hütte"
  }
},
{
  "type": "node",
  "id": 389786547,
  "lat": 46.6906670,
  "lon": 13.2106330,
  "tags": {
    "ele": "1567",
    "massif": "Gailtaler Alpen",
    "name": "Weissbriacher Hütte",
    "note": "Koordinaten vom ÖAV zur Verfügung gestellt",
    "operator": "OeAV Sektion Hermagor",
    "tourism": "alpine_hut"
  }
},
{
  "type": "node",
  "id": 389786578,
  "lat": 47.7235453,
  "lon": 14.0493153,
  "tags": {
    "ele": "1725",
    "massif": "Totes Gebirge",
    "name": "Welser Hütte",
    "note": "Koordinaten vom ÖAV zur Verfügung gestellt",
    "operator": "OeAV Sektion Wels",
    "tourism": "alpine_hut"
  }
},
{
  "type": "node",
  "id": 390190224,
  "lat": 47.1105478,
  "lon": 14.9146383,
  "tags": {
    "ele": "1550",
    "name": "Dr.Otto-Koren-Hütte",
    "note": "Genaue Lage verifizieren",
    "operator": "OeAV Sektion Köflach",
    "tourism": "alpine_hut"
  }
},
{
  "type": "node",
  "id": 394568194,
  "lat": 47.2651040,
  "lon": 14.3786705,
  "tags": {
    "ele": "1902",
    "name": "Klosterneuburgerhütte",
    "operator": "OeAV Sektion Oesterr. Gebirgsverein",
    "tourism": "alpine_hut"
  }
},
{
  "type": "node",
  "id": 394569680,
  "lat": 47.4266298,
  "lon": 14.0510900,
  "tags": {
    "ele": "985",
    "name": "Berghaus i.d. Walchen",
    "operator": "OeAV Sektion Öblarn",
    "tourism": "alpine_hut"
  }
},
{
  "type": "node",
  "id": 395228513,
  "lat": 47.3547674,
  "lon": 11.4771775,
  "tags": {
    "addr:city": "Scharnitz",
    "addr:country": "AT",
    "addr:postcode": "6108",
    "alt_name": "Halleranger SV-Hütte",
    "amenity": "restaurant",
    "ele": "1768",
    "email": "info@hallerangerhaus.at",
    "name": "Hallerangerhaus",
    "operator": "DAV Sektion Schwaben",
    "operator:tenant": "Kerstin & Thomas Lehner",
    "phone": "+436648937583",
    "smoking": "no",
    "tourism": "alpine_hut",
    "website": "http://www.hallerangerhaus.at/",
    "wikidata": "Q1571597",
    "wikipedia": "de:Hallerangerhaus"
  }
},
{
  "type": "node",
  "id": 409497323,
  "lat": 47.3394613,
  "lon": 15.2805127,
  "tags": {
    "ele": "1025",
    "name": "Schutzhütte Wieseralm",
    "phone": "031263350",
    "tourism": "alpine_hut"
  }
},
{
  "type": "node",
  "id": 409768525,
  "lat": 47.0193263,
  "lon": 12.4395371,
  "tags": {
    "ele": "1945",
    "name": "Gotschaunalm",
    "tourism": "alpine_hut"
  }
},
{
  "type": "node",
  "id": 410315437,
  "lat": 47.1640546,
  "lon": 11.2213109,
  "tags": {
    "amenity": "restaurant",
    "cuisine": "alpine_hut",
    "ele": "1940",
    "name": "Furgges Alm",
    "tourism": "alpine_hut"
  }
},
{
  "type": "node",
  "id": 410366178,
  "lat": 47.3384070,
  "lon": 11.5832113,
  "tags": {
    "amenity": "restaurant",
    "cuisine": "regional",
    "name": "Walder Alm",
    "natural": "alp",
    "tourism": "alpine_hut"
  }
},
{
  "type": "node",
  "id": 410366179,
  "lat": 47.3433836,
  "lon": 11.6027471,
  "tags": {
    "amenity": "restaurant",
    "cuisine": "regional",
    "name": "Ganalm",
    "tourism": "alpine_hut"
  }
},
{
  "type": "node",
  "id": 410575233,
  "lat": 47.1684302,
  "lon": 11.2023284,
  "tags": {
    "amenity": "restaurant",
    "cuisine": "alpine_hut",
    "ele": "1755",
    "name": "Almind-Alm",
    "tourism": "alpine_hut"
  }
},
{
  "type": "node",
  "id": 411330221,
  "lat": 47.3386096,
  "lon": 11.5074800,
  "tags": {
    "addr:city": "Absam",
    "addr:country": "AT",
    "addr:housenumber": "30",
    "addr:postcode": "6067",
    "addr:street": "Halltal",
    "amenity": "restaurant",
    "ele": "2077",
    "name": "Bettelwurfhütte",
    "note": "Koordinaten vom ÖAV zur Verfügung gestellt",
    "operator": "Österreichischer Alpenverein, Sektion Innsbruck",
    "operator:tenant": "Gabi Lukasser",
    "phone": "+43522353353",
    "tourism": "alpine_hut",
    "website": "http://www.bettelwurfhuette.at/",
    "wikidata": "Q832325",
    "wikipedia": "de:Bettelwurf Hütte"
  }
},
{
  "type": "node",
  "id": 416556393,
  "lat": 47.2996175,
  "lon": 13.6914908,
  "tags": {
    "cuisine": "regional",
    "ele": "1648",
    "name": "Fahrlechhütte",
    "tourism": "alpine_hut"
  }
},
{
  "type": "node",
  "id": 416625495,
  "lat": 46.8846380,
  "lon": 12.9518460,
  "tags": {
    "ele": "2000",
    "name": "Augustinalm",
    "source": "knowledge",
    "tourism": "alpine_hut"
  }
},
{
  "type": "node",
  "id": 417326835,
  "lat": 47.2795539,
  "lon": 13.6381195,
  "tags": {
    "ele": "1950",
    "name": "Giglachseehütte",
    "tourism": "alpine_hut"
  }
},
{
  "type": "node",
  "id": 417326836,
  "lat": 47.2848356,
  "lon": 13.6485881,
  "tags": {
    "ele": "1986",
    "name": "Ignaz-Mattis-Hütte",
    "operator": "OeAV Wien",
    "tourism": "alpine_hut"
  }
},
{
  "type": "node",
  "id": 418165901,
  "lat": 46.7030020,
  "lon": 13.7648900,
  "tags": {
    "name": "Schwarzseehütte",
    "tourism": "alpine_hut"
  }
},
{
  "type": "node",
  "id": 426722522,
  "lat": 47.2888742,
  "lon": 9.8851243,
  "tags": {
    "ele": "1500",
    "name": "Schihütte Bischof",
    "tourism": "alpine_hut"
  }
},
{
  "type": "node",
  "id": 426944246,
  "lat": 48.0778309,
  "lon": 13.6102077,
  "tags": {
    "name": "Pettenfirsthütte",
    "tourism": "alpine_hut"
  }
},
{
  "type": "node",
  "id": 430122613,
  "lat": 47.1727531,
  "lon": 12.3832205,
  "tags": {
    "beds": "80",
    "ele": "2212",
    "email": "kontakt@nth-huette.de",
    "name": "Neue Thüringer Hütte",
    "operator": "Neue Thüringer Hütte Verein (Alpenvereinshütte)",
    "phone": "+43 664 4273214",
    "tourism": "alpine_hut",
    "website": "http://nth-huette.de/",
    "wikidata": "Q2430794",
    "wikipedia": "de:Neue Thüringer Hütte"
  }
},
{
  "type": "node",
  "id": 431577534,
  "lat": 47.4694328,
  "lon": 13.2914957,
  "tags": {
    "alt_name": "Strussinghaus",
    "amenity": "restaurant",
    "ele": "1524",
    "name": "Strussingalm",
    "tourism": "alpine_hut",
    "website": "http://www.strussing.at/"
  }
},
{
  "type": "node",
  "id": 434142044,
  "lat": 47.2305866,
  "lon": 11.4877948,
  "tags": {
    "amenity": "restaurant",
    "cuisine": "regional",
    "ele": "1511",
    "name": "Aldranser Alm",
    "tourism": "alpine_hut"
  }
},
{
  "type": "node",
  "id": 435351250,
  "lat": 47.7855692,
  "lon": 13.3702408,
  "tags": {
    "tourism": "alpine_hut"
  }
},
{
  "type": "node",
  "id": 437814695,
  "lat": 47.2095281,
  "lon": 11.1016140,
  "tags": {
    "name": "Sonnberg Alm",
    "tourism": "alpine_hut"
  }
},
{
  "type": "node",
  "id": 437814698,
  "lat": 47.2200830,
  "lon": 11.0688343,
  "tags": {
    "name": "Zirmbach Alm",
    "tourism": "alpine_hut"
  }
},
{
  "type": "node",
  "id": 440712913,
  "lat": 47.3220467,
  "lon": 12.7448188,
  "tags": {
    "cuisine": "regional",
    "name": "Breiteckalm",
    "tourism": "alpine_hut"
  }
},
{
  "type": "node",
  "id": 440752209,
  "lat": 47.2495326,
  "lon": 9.8459146,
  "tags": {
    "ele": "1511",
    "name": "Hinterkammalpe",
    "tourism": "alpine_hut"
  }
},
{
  "type": "node",
  "id": 440866822,
  "lat": 47.6983432,
  "lon": 13.4365258,
  "tags": {
    "ele": "1340",
    "name": "Bleckwand Hütte",
    "tourism": "alpine_hut"
  }
},
{
  "type": "node",
  "id": 440887572,
  "lat": 46.8168877,
  "lon": 14.9972681,
  "tags": {
    "name": "Bärentalhütte",
    "tourism": "alpine_hut"
  }
},
{
  "type": "node",
  "id": 442056972,
  "lat": 47.3358261,
  "lon": 11.0387352,
  "tags": {
    "addr:city": "Wildermieming",
    "addr:country": "AT",
    "addr:housenumber": "302",
    "addr:postcode": "6414",
    "addr:street": "Wildermieming",
    "amenity": "restaurant",
    "ele": "1191",
    "name": "Straßberghaus",
    "note:de": "FIXME: Rauchverbot prüfen",
    "operator": "DAV",
    "smoking": "no",
    "tourism": "alpine_hut"
  }
},
{
  "type": "node",
  "id": 442513994,
  "lat": 47.3910402,
  "lon": 10.8487435,
  "tags": {
    "ele": "1751",
    "name": "Wolfratshauser Hütte",
    "operator": "DAV Sektion Wolfratshausen",
    "tourism": "alpine_hut",
    "wikidata": "Q2592243",
    "wikipedia": "de:Wolfratshauser Hütte"
  }
},
{
  "type": "node",
  "id": 445346519,
  "lat": 47.2072679,
  "lon": 10.9329561,
  "tags": {
    "amenity": "restaurant",
    "ele": "2112",
    "name": "Neue Bielefelder Hütte",
    "tourism": "alpine_hut",
    "wikidata": "Q1442947",
    "wikipedia": "de:Neue Bielefelder Hütte"
  }
},
{
  "type": "node",
  "id": 448222118,
  "lat": 47.0693239,
  "lon": 10.1890447,
  "tags": {
    "ele": "1688",
    "name": "Konstanzer Hütte",
    "tourism": "alpine_hut",
    "wikipedia:de": "Konstanzer Hütte"
  }
},
{
  "type": "node",
  "id": 455249505,
  "lat": 46.8106811,
  "lon": 14.9668956,
  "tags": {
    "ele": "1790",
    "name": "Großhöllerhütte",
    "tourism": "alpine_hut"
  }
},
{
  "type": "node",
  "id": 455564096,
  "lat": 47.2954934,
  "lon": 9.9870805,
  "tags": {
    "name": "Bergkristallhütte",
    "tourism": "alpine_hut"
  }
},
{
  "type": "node",
  "id": 456199276,
  "lat": 47.0080364,
  "lon": 12.3347125,
  "tags": {
    "ele": "1726",
    "name": "Stockachalm",
    "tourism": "alpine_hut"
  }
},
{
  "type": "node",
  "id": 456332347,
  "lat": 47.5198960,
  "lon": 12.5391292,
  "tags": {
    "amenity": "restaurant",
    "ele": "1423",
    "name": "Winterstelleralm",
    "tourism": "alpine_hut"
  }
},
{
  "type": "node",
  "id": 456691075,
  "lat": 47.3517423,
  "lon": 9.7216722,
  "tags": {
    "ele": "1298",
    "name": "Emser Hütte",
    "operator": "Naturfreunde Vorarlberg",
    "tourism": "alpine_hut",
    "website": "http://vorarlberg.naturfreunde.at/UeberUns/detail/25682/"
  }
},
{
  "type": "node",
  "id": 458773699,
  "lat": 47.0675912,
  "lon": 11.7020494,
  "tags": {
    "drinking_water": "yes",
    "ele": "2498",
    "electricity": "yes",
    "mattress": "yes",
    "name": "Friesenberghaus",
    "restaurant": "yes",
    "shower": "yes",
    "tourism": "alpine_hut",
    "wikidata": "Q1464680",
    "wikipedia": "de:Friesenberghaus"
  }
},
{
  "type": "node",
  "id": 458774067,
  "lat": 47.0009350,
  "lon": 11.7474200,
  "tags": {
    "ele": "2295",
    "electricity": "yes",
    "name": "Furtschaglhaus",
    "restaurant": "yes",
    "shower": "yes",
    "tourism": "alpine_hut",
    "wikidata": "Q1475177",
    "wikipedia": "de:Furtschaglhaus"
  }
},
{
  "type": "node",
  "id": 458799908,
  "lat": 47.1667124,
  "lon": 11.2679435,
  "tags": {
    "amenity": "restaurant",
    "ele": "1977",
    "name": "Adolf-Pichler-Hütte",
    "name:etymology:wikidata": "Q88910",
    "phone": "+43 720 702724",
    "tourism": "alpine_hut",
    "wikidata": "Q360611",
    "wikipedia": "de:Adolf-Pichler-Hütte"
  }
},
{
  "type": "node",
  "id": 458807132,
  "lat": 47.0245410,
  "lon": 11.8126233,
  "tags": {
    "drinking_water": "yes",
    "ele": "2042",
    "electricity": "yes",
    "mattress": "yes",
    "name": "Berliner Hütte",
    "restaurant": "yes",
    "shower": "yes",
    "tourism": "alpine_hut",
    "wikidata": "Q821559",
    "wikipedia": "de:Berliner Hütte"
  }
},
{
  "type": "node",
  "id": 459501841,
  "lat": 47.2286234,
  "lon": 9.7885362,
  "tags": {
    "ele": "1562",
    "name": "Tschöppajagdhütte",
    "tourism": "alpine_hut"
  }
},
{
  "type": "node",
  "id": 460355329,
  "lat": 47.3131012,
  "lon": 13.8132502,
  "tags": {
    "addr:city": "Schladming",
    "addr:housename": "Preintalerhütte",
    "addr:housenumber": "67",
    "addr:postcode": "8971",
    "addr:street": "Untertalstraße",
    "drinking_water": "yes",
    "ele": "1656",
    "name": "Preintalerhütte",
    "operator": "Alpine Gesellschaft Preintaler",
    "shower": "yes",
    "toilets": "yes",
    "tourism": "alpine_hut",
    "wikidata": "Q1410481",
    "wikipedia": "de:Preintalerhütte"
  }
},
{
  "type": "node",
  "id": 460361180,
  "lat": 47.2864733,
  "lon": 13.7693946,
  "tags": {
    "ele": "1642",
    "name": "Gollinghütte",
    "operator": "Alpine Gesellschaft Preintaler",
    "tourism": "alpine_hut"
  }
},
{
  "type": "node",
  "id": 462401906,
  "lat": 47.3426743,
  "lon": 10.5591936,
  "tags": {
    "name": "Stablalpe",
    "tourism": "alpine_hut"
  }
},
{
  "type": "node",
  "id": 462401912,
  "lat": 47.3450454,
  "lon": 10.5562621,
  "tags": {
    "name": "Stablalm",
    "tourism": "alpine_hut"
  }
},
{
  "type": "node",
  "id": 467922266,
  "lat": 46.7294706,
  "lon": 13.3284809,
  "tags": {
    "cuisine": "regional",
    "ele": "1290",
    "name": "Alm Hinterm Brunn",
    "tourism": "alpine_hut"
  }
},
{
  "type": "node",
  "id": 470067586,
  "lat": 47.2656881,
  "lon": 10.4710454,
  "tags": {
    "ele": "1475",
    "name": "Grießbachalm",
    "tourism": "alpine_hut"
  }
},
{
  "type": "node",
  "id": 472328770,
  "lat": 47.5303102,
  "lon": 13.6120966,
  "tags": {
    "name": "Tiergartenhütte",
    "tourism": "alpine_hut"
  }
},
{
  "type": "node",
  "id": 472353192,
  "lat": 47.1072609,
  "lon": 9.9051265,
  "tags": {
    "name": "Jagdhütte",
    "tourism": "alpine_hut"
  }
},
{
  "type": "node",
  "id": 472639251,
  "lat": 47.0302827,
  "lon": 13.5251344,
  "tags": {
    "ele": "1865",
    "name": "Lasörnhütte",
    "tourism": "alpine_hut"
  }
},
{
  "type": "node",
  "id": 472640322,
  "lat": 47.0685576,
  "lon": 13.4535000,
  "tags": {
    "ele": "1948",
    "name": "Ochsenhütte",
    "phone": "+43 676 460 40 43",
    "tourism": "alpine_hut"
  }
},
{
  "type": "node",
  "id": 472641454,
  "lat": 47.0216698,
  "lon": 13.6827363,
  "tags": {
    "addr:city": "Rennweg",
    "addr:country": "AT",
    "addr:housenumber": "20",
    "addr:postcode": "9863",
    "addr:street": "Frankenberg",
    "ele": "1836",
    "name": "Laußnitzeralm",
    "tourism": "alpine_hut"
  }
},
{
  "type": "node",
  "id": 473175003,
  "lat": 47.6976457,
  "lon": 13.4272188,
  "tags": {
    "ele": "1140",
    "name": "Schwarzeneck Alm",
    "tourism": "alpine_hut"
  }
},
{
  "type": "node",
  "id": 473175007,
  "lat": 47.6882100,
  "lon": 13.4388183,
  "tags": {
    "ele": "1200",
    "name": "Niedergaden Alm",
    "tourism": "alpine_hut"
  }
},
{
  "type": "node",
  "id": 474595022,
  "lat": 46.5231548,
  "lon": 14.7242242,
  "tags": {
    "ele": "1576.676",
    "name": "Wackendorfer Alm",
    "operator": "private",
    "tourism": "alpine_hut"
  }
},
{
  "type": "node",
  "id": 474598531,
  "lat": 47.3564703,
  "lon": 11.4797967,
  "tags": {
    "addr:city": "Scharnitz",
    "addr:country": "AT",
    "addr:housenumber": "390",
    "addr:postcode": "6108",
    "ele": "1774",
    "name": "Hallerangeralm",
    "note:de": "FIXME: Rauchverbot prüfen",
    "operator:tenant": "Horst Schallhart",
    "phone": "+436641055955",
    "smoking": "no",
    "tourism": "alpine_hut"
  }
},
{
  "type": "node",
  "id": 474655946,
  "lat": 47.2262032,
  "lon": 10.5871684,
  "tags": {
    "designation": "Alpenvereinshütte",
    "ele": "2061",
    "name": "Steinseehütte",
    "operator": "Österreichischer Alpenverein, Sektion Landeck",
    "tourism": "alpine_hut",
    "wikidata": "Q2341643",
    "wikipedia": "de:Steinseehütte"
  }
},
{
  "type": "node",
  "id": 475333230,
  "lat": 47.6203609,
  "lon": 12.4993972,
  "tags": {
    "addr:city": "Kössen",
    "addr:country": "AT",
    "addr:housenumber": "1",
    "addr:postcode": "6345",
    "addr:street": "Eggenalm",
    "amenity": "restaurant",
    "ele": "1558 m",
    "name": "Straubinger Haus",
    "note:de": "FIXME: Rauchverbot prüfen",
    "operator": "DAV Sektion Straubing",
    "operator:tenant": "Friedrich Warolly",
    "phone": "+4353756429",
    "smoking": "no",
    "tourism": "alpine_hut",
    "website": "http://www.alpenverein-straubing.de/index.php?id=9",
    "wikidata": "Q2353988",
    "wikipedia": "de:Straubinger Haus"
  }
},
{
  "type": "node",
  "id": 475537079,
  "lat": 47.2888483,
  "lon": 12.2799017,
  "tags": {
    "ele": "1845",
    "name": "Schutzhütte rettenstein",
    "tourism": "alpine_hut"
  }
},
{
  "type": "node",
  "id": 476485073,
  "lat": 47.4124062,
  "lon": 11.1290906,
  "tags": {
    "addr:city": "Garmisch-Partenkirchen",
    "addr:country": "DE",
    "addr:housenumber": "1",
    "addr:postcode": "82467",
    "addr:street": "Meilerhütte",
    "contact:phone": "+49 171 5227897",
    "cuisine": "regional",
    "ele": "2366",
    "name": "Meilerhütte",
    "operator": "DAV Sektion Garmisch-Partenkirchen",
    "operator:tenant": "Marisa Sattlegger",
    "phone": "+49 171 5227897",
    "reservation": "recommended",
    "shower": "no",
    "showers": "no",
    "smoking": "no",
    "tourism": "alpine_hut",
    "website": "http://www.meilerhuette.de/",
    "wikidata": "Q1917816",
    "wikipedia": "de:Meilerhütte"
  }
},
{
  "type": "node",
  "id": 476680904,
  "lat": 47.2202754,
  "lon": 12.9570983,
  "tags": {
    "name": "Hochalm",
    "tourism": "alpine_hut"
  }
},
{
  "type": "node",
  "id": 477249041,
  "lat": 46.8776527,
  "lon": 13.7495326,
  "tags": {
    "cuisine": "regional",
    "ele": "1938",
    "name": "Erlacher Bockhütte",
    "tourism": "alpine_hut"
  }
},
{
  "type": "node",
  "id": 477359854,
  "lat": 46.8689960,
  "lon": 13.7487117,
  "tags": {
    "addr:city": "Radenthein",
    "addr:country": "AT",
    "addr:housename": "Erlacherhaus",
    "addr:housenumber": "68",
    "addr:postcode": "9545",
    "addr:street": "Kaning",
    "amenity": "restaurant",
    "cuisine": "regional",
    "ele": "1636",
    "name": "Erlacherhaus",
    "tourism": "alpine_hut"
  }
},
{
  "type": "node",
  "id": 477363912,
  "lat": 46.8643854,
  "lon": 13.7905359,
  "tags": {
    "addr:city": "Bad Kleinkirchheim",
    "addr:country": "AT",
    "addr:housenumber": "30",
    "addr:postcode": "9546",
    "addr:street": "Falkertweg",
    "amenity": "restaurant",
    "cuisine": "regional",
    "ele": "1670",
    "email": "laerchenhuette@aon.at",
    "name": "Lärchenhütte",
    "phone": "+43 (0) 676 62291",
    "tourism": "alpine_hut",
    "website": "www.lärchenhütte.com"
  }
},
{
  "type": "node",
  "id": 477402214,
  "lat": 47.2882784,
  "lon": 9.9000607,
  "tags": {
    "name": "Böhmert Alpe",
    "tourism": "alpine_hut"
  }
},
{
  "type": "node",
  "id": 477681872,
  "lat": 47.4623093,
  "lon": 10.0267365,
  "tags": {
    "ele": "1282",
    "name": "Ochsenlageralpe",
    "tourism": "alpine_hut"
  }
},
{
  "type": "node",
  "id": 477681954,
  "lat": 47.4604234,
  "lon": 10.0042918,
  "tags": {
    "ele": "924",
    "name": "Dreißiggschwendenalpen",
    "tourism": "alpine_hut"
  }
},
{
  "type": "node",
  "id": 477681983,
  "lat": 47.4789400,
  "lon": 10.0082715,
  "tags": {
    "ele": "1296",
    "name": "Urschlabodenalpe",
    "tourism": "alpine_hut"
  }
},
{
  "type": "node",
  "id": 477682012,
  "lat": 47.4738165,
  "lon": 10.0078382,
  "tags": {
    "ele": "1125",
    "name": "Schmalzbergalpe",
    "tourism": "alpine_hut"
  }
},
{
  "type": "node",
  "id": 477710673,
  "lat": 47.4773401,
  "lon": 10.0407097,
  "tags": {
    "ele": "1013",
    "name": "Schneidenbachalpe",
    "tourism": "alpine_hut"
  }
},
{
  "type": "node",
  "id": 477710735,
  "lat": 47.4843612,
  "lon": 10.0363918,
  "tags": {
    "ele": "1394",
    "name": "Rohnealpe",
    "tourism": "alpine_hut"
  }
},
{
  "type": "node",
  "id": 477710762,
  "lat": 47.4834215,
  "lon": 10.0240843,
  "tags": {
    "ele": "1474",
    "name": "Plattentischalpe",
    "tourism": "alpine_hut"
  }
},
{
  "type": "node",
  "id": 477726059,
  "lat": 47.4807487,
  "lon": 9.9846433,
  "tags": {
    "ele": "1354",
    "name": "Gehrenalpe",
    "tourism": "alpine_hut"
  }
},
{
  "type": "node",
  "id": 477726092,
  "lat": 47.4804414,
  "lon": 9.9713801,
  "tags": {
    "ele": "1119",
    "name": "Altgschwendalpen",
    "tourism": "alpine_hut"
  }
},
{
  "type": "node",
  "id": 477726165,
  "lat": 47.4623861,
  "lon": 10.0535960,
  "tags": {
    "ele": "1398",
    "name": "Hochleckachalpe",
    "source": "Orthophoto: www.geoimage.at (c)",
    "tourism": "alpine_hut"
  }
},
{
  "type": "node",
  "id": 477726196,
  "lat": 47.4887129,
  "lon": 9.9894394,
  "tags": {
    "ele": "1226",
    "name": "Gschlötteralpe",
    "tourism": "alpine_hut"
  }
},
{
  "type": "node",
  "id": 477726223,
  "lat": 47.4839377,
  "lon": 9.9850056,
  "tags": {
    "ele": "1328",
    "name": "Ghf.Hennenmoosalpe",
    "tourism": "alpine_hut"
  }
},
{
  "type": "node",
  "id": 477726301,
  "lat": 47.4748890,
  "lon": 9.9908635,
  "tags": {
    "ele": "1231",
    "name": "Lochalpe",
    "tourism": "alpine_hut"
  }
},
{
  "type": "node",
  "id": 477726320,
  "lat": 47.4690866,
  "lon": 9.9730752,
  "tags": {
    "ele": "1043",
    "name": "Ladalpen",
    "tourism": "alpine_hut"
  }
},
{
  "type": "node",
  "id": 477726439,
  "lat": 47.4576147,
  "lon": 10.0287364,
  "tags": {
    "ele": "1310",
    "name": "Schrofenalpe",
    "tourism": "alpine_hut"
  }
},
{
  "type": "node",
  "id": 477733066,
  "lat": 47.4725085,
  "lon": 9.9682305,
  "tags": {
    "ele": "1121",
    "name": "Gschwendalpe",
    "tourism": "alpine_hut"
  }
},
{
  "type": "node",
  "id": 480771333,
  "lat": 47.5311295,
  "lon": 13.6851026,
  "tags": {
    "ele": "1552",
    "name": "Olympiahütte",
    "tourism": "alpine_hut"
  }
},
{
  "type": "node",
  "id": 480889449,
  "lat": 47.4969870,
  "lon": 10.5835386,
  "tags": {
    "addr:city": "Nesselwängle",
    "addr:housenumber": "13",
    "addr:postcode": "6672",
    "addr:street": "Haller",
    "amenity": "restaurant",
    "name": "Adlerhorst",
    "opening_hours": "We off",
    "phone": "+43 5675 8224",
    "tourism": "alpine_hut",
    "website": "http://www.adlerhorst-haldensee.at/"
  }
},
{
  "type": "node",
  "id": 481260102,
  "lat": 47.1580986,
  "lon": 13.0011717,
  "tags": {
    "name": "Lercheggalm",
    "tourism": "alpine_hut"
  }
},
{
  "type": "node",
  "id": 481339299,
  "lat": 47.0761416,
  "lon": 10.7568715,
  "tags": {
    "amenity": "alp",
    "ele": "1963",
    "name": "Falkaunsalm",
    "tourism": "alpine_hut"
  }
},
{
  "type": "node",
  "id": 481369667,
  "lat": 47.0606822,
  "lon": 10.7759596,
  "tags": {
    "amenity": "alp",
    "ele": "1980",
    "name": "Gallrutt Alm",
    "tourism": "alpine_hut"
  }
},
{
  "type": "node",
  "id": 482074401,
  "lat": 47.1040092,
  "lon": 10.7062266,
  "tags": {
    "amenity": "alp",
    "ele": "1974",
    "name": "Aifner Alm",
    "tourism": "alpine_hut",
    "url": "www.aifneralm.at"
  }
},
{
  "type": "node",
  "id": 487527844,
  "lat": 47.1681881,
  "lon": 10.0917444,
  "tags": {
    "ele": "1948",
    "ele:müa": "1948",
    "ele:source": "Wikipedia",
    "name": "Ravensburger Hütte",
    "operator": "DAV Sektion Ravensburg",
    "phone": "+43(0)6645005526",
    "tourism": "alpine_hut",
    "website": "www.ravensburgerhuette.at"
  }
},
{
  "type": "node",
  "id": 488396381,
  "lat": 47.1918216,
  "lon": 11.4763107,
  "tags": {
    "amenity": "restaurant",
    "name": "Profegl-Alm",
    "tourism": "alpine_hut"
  }
},
{
  "type": "node",
  "id": 494054604,
  "lat": 47.1626593,
  "lon": 12.7388572,
  "tags": {
    "amenity": "restaurant",
    "ele": "2802",
    "name": "Heinrich Schwaiger Haus",
    "operator": "D.A.V. Sektion München",
    "shower": "yes",
    "tourism": "alpine_hut",
    "winter_room": "yes"
  }
},
{
  "type": "node",
  "id": 494782696,
  "lat": 47.0253560,
  "lon": 11.8016123,
  "tags": {
    "ele": "1878",
    "name": "Alpenrose",
    "tourism": "alpine_hut",
    "wikidata": "Q1560779",
    "wikipedia": "de:Alpenrosenhütte"
  }
},
{
  "type": "node",
  "id": 496001581,
  "lat": 47.0241113,
  "lon": 12.4754676,
  "tags": {
    "ele": "1746",
    "name": "Lahntaler Alm",
    "tourism": "alpine_hut"
  }
},
{
  "type": "node",
  "id": 502400037,
  "lat": 47.2839188,
  "lon": 9.9852951,
  "tags": {
    "building": "yes",
    "ele": "1365",
    "name": "Annalperaualpe",
    "tourism": "alpine_hut"
  }
},
{
  "type": "node",
  "id": 505825814,
  "lat": 47.1923276,
  "lon": 11.3478640,
  "tags": {
    "amenity": "restaurant",
    "name": "Kreither Alm",
    "tourism": "alpine_hut"
  }
},
{
  "type": "node",
  "id": 512287285,
  "lat": 47.2692772,
  "lon": 9.8909314,
  "tags": {
    "name": "Franz-Josef-Hütte",
    "tourism": "alpine_hut"
  }
},
{
  "type": "node",
  "id": 512558013,
  "lat": 47.1447351,
  "lon": 10.8472838,
  "tags": {
    "ele": "2550",
    "name": "Erlanger Hütte",
    "operator": "DAV Sektion Erlangen",
    "tourism": "alpine_hut",
    "wikidata": "Q1355281",
    "wikipedia": "de:Erlanger Hütte"
  }
},
{
  "type": "node",
  "id": 512618893,
  "lat": 47.0112221,
  "lon": 10.6988204,
  "tags": {
    "ele": "2261",
    "name": "Anton-Renk-Hütte",
    "note": "Selbstversorger",
    "operator": "DAV Sektion Aachen",
    "tourism": "alpine_hut",
    "wikidata": "Q1253367",
    "wikipedia": "de:Anton-Renk-Hütte"
  }
},
{
  "type": "node",
  "id": 512622097,
  "lat": 46.9020017,
  "lon": 10.6347837,
  "tags": {
    "ele": "2123",
    "name": "Hohenzollernhaus",
    "operator": "DAV Sektion Hohenzollern",
    "tourism": "alpine_hut",
    "wikidata": "Q1408189",
    "wikipedia": "de:Hohenzollernhaus"
  }
},
{
  "type": "node",
  "id": 513528691,
  "lat": 47.0746826,
  "lon": 10.8194609,
  "tags": {
    "amenity": "restaurant",
    "cuisine": "regional",
    "ele": "1889",
    "name": "Neubergalm",
    "tourism": "alpine_hut"
  }
},
{
  "type": "node",
  "id": 524217582,
  "lat": 47.2984932,
  "lon": 11.3668698,
  "tags": {
    "amenity": "restaurant",
    "cuisine": "regional",
    "ele": "1487",
    "name": "Höttinger Alm",
    "tourism": "alpine_hut",
    "website": "http://www.hoettingeralm.at/"
  }
},
{
  "type": "node",
  "id": 528882177,
  "lat": 47.5873314,
  "lon": 11.7369609,
  "tags": {
    "addr:city": "Vomp",
    "addr:country": "AT",
    "addr:housenumber": "50",
    "addr:postcode": "6134",
    "addr:street": "Vomperberg",
    "amenity": "restaurant",
    "capacity": "15",
    "cuisine": "regional",
    "ele": "1540",
    "name": "Jausenstation Blaubergalm",
    "phone": "+43 6642 306719",
    "smoking": "no",
    "tourism": "alpine_hut"
  }
},
{
  "type": "node",
  "id": 528943964,
  "lat": 47.4503336,
  "lon": 10.0623816,
  "tags": {
    "ele": "969.6015625",
    "name": "Bibersteinalpe",
    "tourism": "alpine_hut",
    "wpt_description": "Bibersteinalpe"
  }
},
{
  "type": "node",
  "id": 528943966,
  "lat": 47.4287721,
  "lon": 10.0845655,
  "tags": {
    "ele": "1510.4960938",
    "name": "Bereuters Neualpe",
    "tourism": "alpine_hut",
    "wpt_description": "Bereuters Neualpe"
  }
},
{
  "type": "node",
  "id": 528943968,
  "lat": 47.4345092,
  "lon": 10.0522879,
  "tags": {
    "ele": "1383.2121582",
    "tourism": "alpine_hut"
  }
},
{
  "type": "node",
  "id": 528943971,
  "lat": 47.4323026,
  "lon": 10.0556326,
  "tags": {
    "ele": "1293.0891113",
    "tourism": "alpine_hut"
  }
},
{
  "type": "node",
  "id": 528943997,
  "lat": 47.4468800,
  "lon": 10.0569914,
  "tags": {
    "ele": "1074",
    "name": "Eugsteralpe",
    "tourism": "alpine_hut",
    "wpt_description": "Eugsteralpe (1074m)"
  }
},
{
  "type": "node",
  "id": 528944184,
  "lat": 47.4364076,
  "lon": 10.0752562,
  "tags": {
    "ele": "1430.3906250",
    "name": "Gmeiners Burstalpe",
    "tourism": "alpine_hut",
    "wpt_description": "Gmeiners Burstalpe"
  }
},
{
  "type": "node",
  "id": 528944229,
  "lat": 47.4428210,
  "lon": 10.0580080,
  "tags": {
    "ele": "1273.1367188",
    "name": "Güggeralpe",
    "tourism": "alpine_hut",
    "wpt_description": "Güggeralpe"
  }
},
{
  "type": "node",
  "id": 528944385,
  "lat": 47.4422652,
  "lon": 10.0493954,
  "tags": {
    "ele": "1236",
    "name": "Hinterriesalpe",
    "tourism": "alpine_hut"
  }
},
{
  "type": "node",
  "id": 528944471,
  "lat": 47.4248631,
  "lon": 10.0670777,
  "tags": {
    "ele": "1244.5078125",
    "name": "Lustenauer Riesalpe",
    "tourism": "alpine_hut",
    "wpt_description": "Lustenauer Riesalpe"
  }
},
{
  "type": "node",
  "id": 528944479,
  "lat": 47.4430199,
  "lon": 10.0767754,
  "tags": {
    "ele": "1435",
    "name": "Obere Galtburstalpe",
    "tourism": "alpine_hut",
    "wpt_description": "Obere Galtburstalpe"
  }
},
{
  "type": "node",
  "id": 528944600,
  "lat": 47.4480409,
  "lon": 10.0805519,
  "tags": {
    "ele": "1268",
    "name": "Untere Galtburstalpe",
    "tourism": "alpine_hut",
    "wpt_description": "Untere Galtburstalpe (1268m)"
  }
},
{
  "type": "node",
  "id": 529095394,
  "lat": 47.4861365,
  "lon": 10.5994581,
  "tags": {
    "addr:city": "Nesselwängle",
    "addr:country": "AT",
    "addr:housenumber": "64",
    "addr:postcode": "6672",
    "addr:street": "Schmitte",
    "amenity": "restaurant",
    "ele": "1150",
    "email": "haldenseehaus@dav-goeppingen.de",
    "fax": "+43 5675 81354",
    "fixme": "Rauchverbot prüfen",
    "name": "Haldenseehaus",
    "operator": "DAV Sektion Hohenstaufen Göppingen",
    "operator:tenant": "Edmund Zimmermann",
    "phone": "+43 5675 8135",
    "smoking": "no",
    "source": "http://www.dav-hohenstaufen.de/haldenseehaus",
    "tourism": "alpine_hut",
    "website": "http://www.dav-hohenstaufen.de/haldenseehaus",
    "wikidata": "Q1570762",
    "wikipedia": "de:Haldenseehaus"
  }
},
{
  "type": "node",
  "id": 529099342,
  "lat": 47.5141248,
  "lon": 10.4652899,
  "tags": {
    "addr:city": "Schattwald",
    "addr:country": "AT",
    "addr:postcode": "6677",
    "ele": "1100",
    "name": "Haus Schattwald",
    "note": "Selbstversorgerhütte",
    "note:de": "FIXME: Rauchverbot prüfen",
    "operator": "DAV Sektion Geislingen/Steige",
    "operator:tenant": "Margret und Walter Pompe",
    "phone": "+4973177884",
    "smoking": "no",
    "tourism": "alpine_hut",
    "website": "http://www.alpenverein-geislingen.de/"
  }
},
{
  "type": "node",
  "id": 529269467,
  "lat": 47.3226844,
  "lon": 10.0523705,
  "tags": {
    "addr:city": "Schoppernau",
    "addr:country": "AT",
    "addr:housenumber": "258",
    "addr:postcode": "6886",
    "addr:street": "Schoppernau",
    "amenity": "restaurant",
    "ele": "1700",
    "name": "Neuhornbachhaus",
    "operator": "Rüf Gebhard",
    "phone": "+436645367595",
    "smoking": "no",
    "tourism": "alpine_hut",
    "website": "http://neuhornbachhaus.com"
  }
},
{
  "type": "node",
  "id": 529383642,
  "lat": 47.2624562,
  "lon": 10.6697590,
  "tags": {
    "addr:city": "Wenns",
    "addr:country": "AT",
    "addr:housenumber": "240",
    "addr:postcode": "6473",
    "addr:street": "Oberdorf",
    "amenity": "restaurant",
    "ele": "1934",
    "name": "Muttekopfhütte",
    "operator": "Österreichischer Alpenverein, Sektion Imst",
    "operator:tenant": "Familie Andreas Riml",
    "overnight_stay": "yes",
    "phone": "+436641236928",
    "shower": "yes",
    "source": "survey(2008-07,garmin)",
    "tourism": "alpine_hut",
    "website": "http://www.muttekopf.at/",
    "wikidata": "Q1955919",
    "wikipedia": "de:Muttekopfhütte"
  }
},
{
  "type": "node",
  "id": 529491450,
  "lat": 47.2780990,
  "lon": 12.2534461,
  "tags": {
    "amenity": "restaurant",
    "cuisine": "regional",
    "ele": "1559",
    "name": "Steineralm",
    "tourism": "alpine_hut"
  }
},
{
  "type": "node",
  "id": 529651297,
  "lat": 47.3300215,
  "lon": 11.4255879,
  "tags": {
    "amenity": "restaurant",
    "ele": "1950",
    "name": "Pfeishütte",
    "operator": "Sektion Innsbruck",
    "operator:tenant": "Simon Bock",
    "phone": "+43 720 316596",
    "tourism": "alpine_hut",
    "website": "http://www.pfeishuette.at/",
    "wikidata": "Q1516644",
    "wikipedia": "de:Pfeishütte"
  }
},
{
  "type": "node",
  "id": 530190485,
  "lat": 47.3456189,
  "lon": 11.1049387,
  "tags": {
    "addr:city": "Leutasch",
    "addr:country": "AT",
    "addr:housenumber": "7",
    "addr:postcode": "6105",
    "addr:street": "Leutasch",
    "amenity": "restaurant",
    "ele": "1600",
    "name": "Rauthhütte",
    "note:de": "FIXME: Rauchverbot prüfen",
    "operator:tenant": "Fam. Rauth",
    "smoking": "no",
    "tourism": "alpine_hut",
    "website": "http://www.rauthhuette.at/rauthhuette/f_start.html"
  }
},
{
  "type": "node",
  "id": 530197659,
  "lat": 47.3802301,
  "lon": 11.1082014,
  "tags": {
    "ele": "1751",
    "name": "Wetterstein Hütte",
    "operator": "Leutascher Bergwacht",
    "phone": "+436644153747",
    "source": "survey(2008-07,garmin)",
    "tourism": "alpine_hut",
    "website": "http://www.wettersteinhuette.com/",
    "wikidata": "Q722514",
    "wikipedia": "de:Ascher Hütte"
  }
},
{
  "type": "node",
  "id": 534414045,
  "lat": 47.1775607,
  "lon": 10.6989695,
  "tags": {
    "amenity": "restaurant",
    "name": "Venetalm",
    "tourism": "alpine_hut"
  }
},
{
  "type": "node",
  "id": 534873881,
  "lat": 47.9346725,
  "lon": 15.8209224,
  "tags": {
    "name": "Unterberg Schutzhaus",
    "phone": "0043263274190",
    "tourism": "alpine_hut",
    "website": "www.unterberg-schutzhaus.at"
  }
},
{
  "type": "node",
  "id": 539660905,
  "lat": 46.9826622,
  "lon": 11.4067339,
  "tags": {
    "addr:city": "Obernberg am Brenner",
    "addr:country": "AT",
    "addr:housenumber": "88",
    "addr:postcode": "6157",
    "addr:street": "Obernbergersee",
    "alt_name": "Steineralm",
    "ele": "1735",
    "fixme": "bitte checken, ob das Gebäude stimmt, dann könnte man die Tags auf das Gebäude geben /al",
    "name": "Steiner Alm",
    "tourism": "alpine_hut"
  }
},
{
  "type": "node",
  "id": 541000558,
  "lat": 47.9446412,
  "lon": 15.6098505,
  "tags": {
    "ele": "939",
    "name": "Thalerhütte",
    "tourism": "alpine_hut"
  }
},
{
  "type": "node",
  "id": 544192169,
  "lat": 47.3563310,
  "lon": 12.5758028,
  "tags": {
    "name": "Breitfußalm",
    "tourism": "alpine_hut"
  }
},
{
  "type": "node",
  "id": 552391496,
  "lat": 47.3658485,
  "lon": 12.5079120,
  "tags": {
    "addr:city": "Hinterglemm",
    "addr:housenumber": "376",
    "addr:postcode": "5754",
    "addr:street": "Talschlussweg",
    "amenity": "restaurant",
    "ele": "1370",
    "name": "Lindlingalm",
    "phone": "+43 6541 71900",
    "tourism": "alpine_hut",
    "website": "http://www.lindlingalm.at/"
  }
},
{
  "type": "node",
  "id": 558698347,
  "lat": 47.2084713,
  "lon": 11.4409409,
  "tags": {
    "amenity": "restaurant",
    "ele": "1698",
    "name": "Patscher Alm",
    "phone": "+43 664 4053026",
    "tourism": "alpine_hut"
  }
},
{
  "type": "node",
  "id": 567526187,
  "lat": 47.0587959,
  "lon": 14.7933823,
  "tags": {
    "beds": "0",
    "building": "cabin",
    "building:levels": "2",
    "contact:phone": "+43 664 21 21 596",
    "ele": "1702",
    "name": "Weißensteinhütte",
    "note": "No overnight accommodation. Food: try the very good Bratenfettbrot.",
    "opening_hours": "Jun-Sep We,Th,Fr,Sa,Su 08:00-20:00",
    "rooms": "0",
    "tourism": "alpine_hut"
  }
},
{
  "type": "node",
  "id": 572653560,
  "lat": 47.8967034,
  "lon": 15.5722027,
  "tags": {
    "ele": "1072",
    "name": "Gschwendt Hütte",
    "tourism": "alpine_hut"
  }
},
{
  "type": "node",
  "id": 575025891,
  "lat": 47.5457992,
  "lon": 15.7397083,
  "tags": {
    "amenity": "restaurant",
    "name": "Rosseggerschutzhaus",
    "tourism": "alpine_hut"
  }
},
{
  "type": "node",
  "id": 575025927,
  "lat": 47.5190490,
  "lon": 15.6932815,
  "tags": {
    "name": "Hauereckschutzhütte",
    "tourism": "alpine_hut"
  }
},
{
  "type": "node",
  "id": 598180619,
  "lat": 47.6606653,
  "lon": 13.7431481,
  "tags": {
    "name": "Geiger Alm",
    "tourism": "alpine_hut"
  }
},
{
  "type": "node",
  "id": 603472038,
  "lat": 47.0694971,
  "lon": 13.5618542,
  "tags": {
    "name": "Wengeralm",
    "place": "locality",
    "tourism": "alpine_hut"
  }
},
{
  "type": "node",
  "id": 603472082,
  "lat": 47.0702499,
  "lon": 13.5676755,
  "tags": {
    "name": "Doktoralm",
    "place": "locality",
    "tourism": "alpine_hut"
  }
},
{
  "type": "node",
  "id": 604981073,
  "lat": 46.7128703,
  "lon": 12.7899256,
  "tags": {
    "ele": "1610",
    "name": "Lackenalm",
    "tourism": "alpine_hut"
  }
},
{
  "type": "node",
  "id": 615069368,
  "lat": 47.5823029,
  "lon": 10.4680073,
  "tags": {
    "ele": "1284",
    "name": "Stubental-Alpe",
    "tourism": "alpine_hut"
  }
},
{
  "type": "node",
  "id": 649092419,
  "lat": 47.9815614,
  "lon": 15.6002944,
  "tags": {
    "ele": "1067",
    "name": "Klosteralm",
    "tourism": "alpine_hut",
    "wpt_symbol": "Restaurant"
  }
},
{
  "type": "node",
  "id": 661044755,
  "lat": 47.3439224,
  "lon": 12.7552646,
  "tags": {
    "name": "Sonnkogel Alm",
    "tourism": "alpine_hut"
  }
},
{
  "type": "node",
  "id": 662483755,
  "lat": 47.4621236,
  "lon": 12.4083886,
  "tags": {
    "name": "Adlerhütte",
    "tourism": "alpine_hut"
  }
},
{
  "type": "node",
  "id": 665449658,
  "lat": 47.9895739,
  "lon": 15.8921381,
  "tags": {
    "name": "Forsthaus Harras",
    "tourism": "alpine_hut"
  }
},
{
  "type": "node",
  "id": 665550669,
  "lat": 47.0535117,
  "lon": 10.8409852,
  "tags": {
    "amenity": "restaurant",
    "ele": "1900",
    "name": "Arzler Alm",
    "tourism": "alpine_hut"
  }
},
{
  "type": "node",
  "id": 665552042,
  "lat": 47.0618186,
  "lon": 10.8307807,
  "tags": {
    "amenity": "restaurant",
    "name": "Tiefentalalm",
    "tourism": "alpine_hut"
  }
},
{
  "type": "node",
  "id": 670664834,
  "lat": 47.9271374,
  "lon": 15.9879150,
  "tags": {
    "description": "Stützpunkt der Niederösterreichische Berg- und Naturwacht",
    "name": "Schneerosenhaus",
    "operator": "Niederösterreichische Berg- und Naturwacht",
    "tourism": "alpine_hut"
  }
},
{
  "type": "node",
  "id": 670813537,
  "lat": 46.7203983,
  "lon": 12.4131064,
  "tags": {
    "amenity": "restaurant",
    "ele": "1900",
    "name": "Leckfeldalm",
    "phone": "+43 664 3412813",
    "tourism": "alpine_hut",
    "website": "http://www.leckfeldalm.at"
  }
},
{
  "type": "node",
  "id": 673514679,
  "lat": 47.0502046,
  "lon": 12.8712414,
  "tags": {
    "amenity": "restaurant",
    "name": "Blacky",
    "tourism": "alpine_hut"
  }
},
{
  "type": "node",
  "id": 675628658,
  "lat": 47.4786371,
  "lon": 12.5989383,
  "tags": {
    "tourism": "alpine_hut"
  }
},
{
  "type": "node",
  "id": 675628886,
  "lat": 47.4774339,
  "lon": 12.6117579,
  "tags": {
    "tourism": "alpine_hut"
  }
},
{
  "type": "node",
  "id": 701639897,
  "lat": 47.3448758,
  "lon": 10.1530608,
  "tags": {
    "tourism": "alpine_hut"
  }
},
{
  "type": "node",
  "id": 715763185,
  "lat": 47.4382134,
  "lon": 11.7894138,
  "tags": {
    "name": "Alpbühelalm",
    "tourism": "alpine_hut"
  }
},
{
  "type": "node",
  "id": 734536909,
  "lat": 47.6914021,
  "lon": 13.6612230,
  "tags": {
    "ele": "969 m",
    "name": "Hoisenradalm",
    "tourism": "alpine_hut"
  }
},
{
  "type": "node",
  "id": 736728733,
  "lat": 46.9512788,
  "lon": 9.9109048,
  "tags": {
    "ele": "1675",
    "name": "Madrisahütte",
    "tourism": "alpine_hut"
  }
},
{
  "type": "node",
  "id": 742432571,
  "lat": 48.0346185,
  "lon": 15.6600339,
  "tags": {
    "ele": "596",
    "name": "Staffhütte",
    "tourism": "alpine_hut"
  }
},
{
  "type": "node",
  "id": 747134371,
  "lat": 47.6053813,
  "lon": 15.8573849,
  "tags": {
    "ele": "1314",
    "name": "Alpkogelhütte",
    "tourism": "alpine_hut"
  }
},
{
  "type": "node",
  "id": 747140633,
  "lat": 47.5597496,
  "lon": 15.9994157,
  "tags": {
    "addr:city": "Aspang",
    "addr:housename": "Herrgottschnitzer Haus am Kampstein",
    "addr:housenumber": "86",
    "addr:postcode": "2970",
    "addr:suburb": "St. Peter",
    "alt_name": "Franz Kaupe Hütte",
    "ele": "1318",
    "name": "Herrgottschnitzerhütte",
    "phone": "+43 (2642) 7290",
    "tourism": "alpine_hut",
    "website": "http://members.aon.at/herrgottschnitzer/"
  }
},
{
  "type": "node",
  "id": 747148944,
  "lat": 47.5377073,
  "lon": 15.9297949,
  "tags": {
    "name": "Marienseer Schwaig 1478 m",
    "tourism": "alpine_hut"
  }
},
{
  "type": "node",
  "id": 753197970,
  "lat": 47.0437903,
  "lon": 10.6947943,
  "tags": {
    "name": "Sattelklause",
    "tourism": "alpine_hut"
  }
},
{
  "type": "node",
  "id": 755780513,
  "lat": 47.0152919,
  "lon": 10.6794352,
  "tags": {
    "name": "Stalanzer Alm",
    "tourism": "alpine_hut"
  }
},
{
  "type": "node",
  "id": 767071230,
  "lat": 47.2040753,
  "lon": 11.3079304,
  "tags": {
    "ele": "1808",
    "name": "Birgitzer Alm",
    "phone": "+43 664 5970026",
    "tourism": "alpine_hut",
    "website": "https://www.birgitzer-alm.at/",
    "wikidata": "Q865406",
    "wikipedia": "de:Birgitzer Alm"
  }
},
{
  "type": "node",
  "id": 769315324,
  "lat": 47.5448073,
  "lon": 13.8819051,
  "tags": {
    "addr:city": "Bad Mitterndorf",
    "addr:postcode": "8983",
    "amenity": "restaurant",
    "capacity": "6",
    "cuisine": "regional",
    "delivery": "no",
    "name": "Steinitzenalm",
    "opening_hours": "May-Oct: \"Sommer\"",
    "tourism": "alpine_hut",
    "website": "http://www.salzkammergut.at/startseite/oesterreich/gastronomie/100815/steinitzenalm.html"
  }
},
{
  "type": "node",
  "id": 778081399,
  "lat": 47.6527345,
  "lon": 13.6266660,
  "tags": {
    "name": "Rathlucken hütte",
    "tourism": "alpine_hut"
  }
},
{
  "type": "node",
  "id": 799311224,
  "lat": 47.6152427,
  "lon": 15.2101300,
  "tags": {
    "ele": "1284",
    "name": "Florlhütte",
    "tourism": "alpine_hut"
  }
},
{
  "type": "node",
  "id": 799349752,
  "lat": 48.0074725,
  "lon": 16.1350045,
  "tags": {
    "amenity": "restaurant",
    "cuisine": "regional",
    "ele": "847",
    "name": "Schutzhaus Eisernes Tor",
    "tourism": "alpine_hut"
  }
},
{
  "type": "node",
  "id": 801934572,
  "lat": 47.0773070,
  "lon": 13.0052815,
  "tags": {
    "ele": "1784",
    "name": "Filzenalm",
    "tourism": "alpine_hut"
  }
},
{
  "type": "node",
  "id": 807115509,
  "lat": 47.1297221,
  "lon": 14.0074851,
  "tags": {
    "ele": "1755",
    "name": "Jogaushütte",
    "tourism": "alpine_hut"
  }
},
{
  "type": "node",
  "id": 810573823,
  "lat": 47.3595853,
  "lon": 9.9742748,
  "tags": {
    "name": "Stökler Alpe",
    "place": "hamlet",
    "tourism": "alpine_hut"
  }
},
{
  "type": "node",
  "id": 811696089,
  "lat": 46.9505037,
  "lon": 14.6874552,
  "tags": {
    "capacity": "0",
    "ele": "1720",
    "name": "Hohenwarthütte",
    "tourism": "alpine_hut"
  }
},
{
  "type": "node",
  "id": 813721042,
  "lat": 46.6809565,
  "lon": 13.3288538,
  "tags": {
    "name": "Jadersdorfer Ochsenalm",
    "tourism": "alpine_hut"
  }
},
{
  "type": "node",
  "id": 822165134,
  "lat": 47.1646740,
  "lon": 11.7243163,
  "tags": {
    "amenity": "restaurant",
    "cuisine": "regional",
    "name": "Lattenalm",
    "outdoor_area": "yes",
    "terrace": "partial_roofed",
    "tourism": "alpine_hut",
    "website": "https://m.christler-tux.at/de/lattenalm/"
  }
},
{
  "type": "node",
  "id": 822539413,
  "lat": 47.0582054,
  "lon": 13.3912119,
  "tags": {
    "ele": "2320",
    "name": "Kattowitzer Hütte",
    "operator": "DAV Sektion Kattowitz",
    "tourism": "alpine_hut"
  }
},
{
  "type": "node",
  "id": 822581994,
  "lat": 47.1446600,
  "lon": 11.6734379,
  "tags": {
    "name": "Stoankasern",
    "operator": "Fam. Silvia & Ali Erler",
    "tourism": "alpine_hut"
  }
},
{
  "type": "node",
  "id": 829910023,
  "lat": 47.1188844,
  "lon": 11.6789053,
  "tags": {
    "name": "Bichlalm",
    "tourism": "alpine_hut"
  }
},
{
  "type": "node",
  "id": 830677564,
  "lat": 46.9924695,
  "lon": 13.3288755,
  "tags": {
    "ele": "2215",
    "massif": "Ankogelgruppe",
    "mattress": "yes",
    "name": "Gießener Hütte",
    "operator": "DAV Sektion Gießen-Oberhessen",
    "shower": "no",
    "toilets": "yes",
    "tourism": "alpine_hut"
  }
},
{
  "type": "node",
  "id": 834394753,
  "lat": 46.8708937,
  "lon": 13.9920305,
  "tags": {
    "addr:housenumber": "1",
    "addr:postcode": "9571",
    "addr:street": "Stoichartweg",
    "ele": "1517",
    "email": "stoichart-huette@utanet.at",
    "name": "Stoicharthütte",
    "phone": "+43 (0)4279 7361",
    "tourism": "alpine_hut",
    "website": "www.stoichart-huette.at"
  }
},
{
  "type": "node",
  "id": 837805909,
  "lat": 46.8530210,
  "lon": 13.3002863,
  "tags": {
    "amenity": "restaurant",
    "ele": "1489",
    "name": "Poldis Jausenstation",
    "tourism": "alpine_hut"
  }
},
{
  "type": "node",
  "id": 837805915,
  "lat": 46.8468122,
  "lon": 13.3034210,
  "tags": {
    "amenity": "restaurant",
    "name": "Klinghütte",
    "tourism": "alpine_hut"
  }
},
{
  "type": "node",
  "id": 843873440,
  "lat": 47.3608141,
  "lon": 13.8168991,
  "tags": {
    "ele": "1533",
    "name": "Hans-Wödl Hütte",
    "tourism": "alpine_hut"
  }
},
{
  "type": "node",
  "id": 843873464,
  "lat": 47.3130115,
  "lon": 13.8136831,
  "tags": {
    "addr:city": "Schladming",
    "addr:housenumber": "115 u. 116",
    "addr:postcode": "8971",
    "addr:street": "Untertalstraße",
    "name": "Waldhornalm",
    "tourism": "alpine_hut"
  }
},
{
  "type": "node",
  "id": 849780915,
  "lat": 46.7569415,
  "lon": 13.7327488,
  "tags": {
    "ele": "1600",
    "name": "Melzerhütte",
    "tourism": "alpine_hut"
  }
},
{
  "type": "node",
  "id": 849781015,
  "lat": 46.7691971,
  "lon": 13.7075094,
  "tags": {
    "ele": "1795",
    "name": "Hochalmhütte",
    "tourism": "alpine_hut"
  }
},
{
  "type": "node",
  "id": 849922963,
  "lat": 47.6794623,
  "lon": 13.5220406,
  "tags": {
    "amenity": "restaurant",
    "ele": "1307",
    "name": "Laufenbergalm",
    "tourism": "alpine_hut"
  }
},
{
  "type": "node",
  "id": 858377222,
  "lat": 47.3979104,
  "lon": 10.6957806,
  "tags": {
    "building": "yes",
    "ele": "1690",
    "name": "Ehenbichler Alm",
    "tourism": "alpine_hut"
  }
},
{
  "type": "node",
  "id": 865407999,
  "lat": 46.9948455,
  "lon": 10.2155843,
  "tags": {
    "name": "Friedrichshafener Hütte (DAV)",
    "tourism": "alpine_hut",
    "wikidata": "Q1464263",
    "wikipedia": "de:Friedrichshafener Hütte"
  }
},
{
  "type": "node",
  "id": 879378123,
  "lat": 47.3997351,
  "lon": 13.7757839,
  "tags": {
    "name": "Scharlingerhütte",
    "note": "Selbstversorger",
    "tourism": "alpine_hut"
  }
},
{
  "type": "node",
  "id": 879788827,
  "lat": 47.4466787,
  "lon": 13.5309415,
  "tags": {
    "name": "Rettensteinhütte",
    "tourism": "alpine_hut"
  }
},
{
  "type": "node",
  "id": 886688657,
  "lat": 47.5114208,
  "lon": 15.9568641,
  "tags": {
    "name": "Vorauer Schwaig",
    "tourism": "alpine_hut"
  }
},
{
  "type": "node",
  "id": 892471147,
  "lat": 47.3605800,
  "lon": 9.9123501,
  "tags": {
    "ele": "884",
    "name": "Gopfvorsäß",
    "tourism": "alpine_hut"
  }
},
{
  "type": "node",
  "id": 892479907,
  "lat": 47.3612667,
  "lon": 9.8980807,
  "tags": {
    "ele": "1118",
    "name": "Gopfalp",
    "tourism": "alpine_hut"
  }
},
{
  "type": "node",
  "id": 892487106,
  "lat": 47.3608467,
  "lon": 9.9169455,
  "tags": {
    "tourism": "alpine_hut"
  }
},
{
  "type": "node",
  "id": 892487115,
  "lat": 47.3621717,
  "lon": 9.9102452,
  "tags": {
    "tourism": "alpine_hut"
  }
},
{
  "type": "node",
  "id": 895663517,
  "lat": 46.8708546,
  "lon": 13.7974595,
  "tags": {
    "access": "private",
    "building": "yes",
    "name": "Steinalmhütte",
    "name:de": "Steinalmhütte",
    "tourism": "alpine_hut"
  }
},
{
  "type": "node",
  "id": 898073192,
  "lat": 47.7837957,
  "lon": 15.5419056,
  "tags": {
    "ele": "1483",
    "name": "Kohlröserl-Hütte (Hofalm)",
    "tourism": "alpine_hut"
  }
},
{
  "type": "node",
  "id": 901547089,
  "lat": 47.2929063,
  "lon": 12.6785804,
  "tags": {
    "addr:city": "Piesendorf / Walchen",
    "addr:country": "AT",
    "addr:housenumber": "151",
    "addr:postcode": "5721",
    "addr:street": "Walchen",
    "ele": "950",
    "name": "Bubenreuther Hütte",
    "phone": "+43 (0043)6549 7855",
    "tourism": "alpine_hut",
    "website": "http://www.dav-bubenreuth.de/Huetten/Hu_bubenr.html"
  }
},
{
  "type": "node",
  "id": 902505469,
  "lat": 47.2815298,
  "lon": 15.6502969,
  "tags": {
    "name": "Zetzschachtel",
    "tourism": "alpine_hut"
  }
},
{
  "type": "node",
  "id": 907902063,
  "lat": 47.5553583,
  "lon": 15.4776315,
  "tags": {
    "name": "Hundskopfhütte",
    "tourism": "alpine_hut"
  }
},
{
  "type": "node",
  "id": 908564979,
  "lat": 47.4757455,
  "lon": 10.4882247,
  "tags": {
    "addr:city": "Tannheim",
    "addr:country": "AT",
    "addr:postcode": "6675",
    "ele": "1685",
    "name": "Obere Roßalpe",
    "tourism": "alpine_hut"
  }
},
{
  "type": "node",
  "id": 911631138,
  "lat": 47.0682337,
  "lon": 9.7849536,
  "tags": {
    "name": "Alpe Lün",
    "tourism": "alpine_hut"
  }
},
{
  "type": "node",
  "id": 917753307,
  "lat": 47.2298822,
  "lon": 12.9812478,
  "tags": {
    "ele": "1272",
    "name": "Kreuzboden-Hütte",
    "tourism": "alpine_hut"
  }
},
{
  "type": "node",
  "id": 917959691,
  "lat": 47.4361904,
  "lon": 12.4805331,
  "tags": {
    "ele": "1400",
    "name": "Lämmerbichl-Alm",
    "tourism": "alpine_hut"
  }
},
{
  "type": "node",
  "id": 918808570,
  "lat": 47.4737100,
  "lon": 13.3013952,
  "tags": {
    "building": "yes",
    "ele": "1640",
    "name": "Moosalm",
    "tourism": "alpine_hut"
  }
},
{
  "type": "node",
  "id": 919481465,
  "lat": 46.9822567,
  "lon": 10.9992513,
  "tags": {
    "amenity": "restaurant",
    "name": "Leiterbergalm",
    "tourism": "alpine_hut",
    "uploaded_by": "stevens_oli"
  }
},
{
  "type": "node",
  "id": 921223990,
  "lat": 47.5747301,
  "lon": 15.0807543,
  "tags": {
    "fixme": "check & resolve",
    "name": "Hainzleralm",
    "tourism": "alpine_hut"
  }
},
{
  "type": "node",
  "id": 921225376,
  "lat": 47.5384461,
  "lon": 15.1259681,
  "tags": {
    "name": "Lengger Alm",
    "tourism": "alpine_hut"
  }
},
{
  "type": "node",
  "id": 925181227,
  "lat": 47.3867376,
  "lon": 9.8285093,
  "tags": {
    "name": "Bregenzer Huette",
    "operator": "Naturfreunde Vorarlberg",
    "tourism": "alpine_hut",
    "website": "http://vorarlberg.naturfreunde.at/UeberUns/detail/25681/",
    "wpt_description": "Koordinaten",
    "wpt_symbol": "Lodge"
  }
},
{
  "type": "node",
  "id": 925385358,
  "lat": 47.2245649,
  "lon": 11.5510562,
  "tags": {
    "amenity": "restaurant",
    "ele": "1380",
    "email": "office@voldertalhuette.at",
    "name": "Voldertalhütte",
    "operator": "Naturfreunde",
    "phone": "++43 (0) 664/97 57 447",
    "tourism": "alpine_hut",
    "website": "http://www.voldertalhuette.at/",
    "wikidata": "Q2530719",
    "wikipedia": "de:Voldertalhütte"
  }
},
{
  "type": "node",
  "id": 925572227,
  "lat": 47.2576487,
  "lon": 10.0285062,
  "tags": {
    "addr:city": "Schröcken",
    "addr:country": "AT",
    "addr:housenumber": "27",
    "addr:street": "Schmitte",
    "ele": "1846",
    "email": "rehm.harald@aon.at",
    "name": "Biberacher Hütte",
    "operator": "DAV Sektion Biberach",
    "operator:tenant": "Harald und Anita Rehm",
    "phone": "+43 5519 257",
    "tourism": "alpine_hut"
  }
},
{
  "type": "node",
  "id": 925572258,
  "lat": 47.2545349,
  "lon": 10.0298704,
  "tags": {
    "name": "Schadonaalpe",
    "tourism": "alpine_hut"
  }
},
{
  "type": "node",
  "id": 926192922,
  "lat": 47.2547791,
  "lon": 10.0065384,
  "tags": {
    "name": "Ischgarneialpe",
    "tourism": "alpine_hut"
  }
},
{
  "type": "node",
  "id": 926192973,
  "lat": 47.2616469,
  "lon": 10.0696495,
  "tags": {
    "name": "Treualpe",
    "tourism": "alpine_hut"
  }
},
{
  "type": "node",
  "id": 926193033,
  "lat": 47.2498055,
  "lon": 10.0131122,
  "tags": {
    "name": "Heimenwaldalpe",
    "tourism": "alpine_hut"
  }
},
{
  "type": "node",
  "id": 933862520,
  "lat": 47.3333390,
  "lon": 11.0274810,
  "tags": {
    "ele": "1404",
    "name": "Schäferhütte",
    "tourism": "alpine_hut"
  }
},
{
  "type": "node",
  "id": 934825972,
  "lat": 47.2458887,
  "lon": 9.6809292,
  "tags": {
    "ele": "989",
    "name": "Brosihof",
    "tourism": "alpine_hut"
  }
},
{
  "type": "node",
  "id": 936300145,
  "lat": 47.1933519,
  "lon": 10.7249950,
  "tags": {
    "name": "Hochastneralm",
    "tourism": "alpine_hut"
  }
},
{
  "type": "node",
  "id": 936367075,
  "lat": 47.1294967,
  "lon": 10.7188914,
  "tags": {
    "ele": "1761",
    "name": "Kielebergalm",
    "tourism": "alpine_hut"
  }
},
{
  "type": "node",
  "id": 937157802,
  "lat": 47.8815171,
  "lon": 15.5719726,
  "tags": {
    "ele": "1100",
    "name": "Grabenalm Hütte",
    "tourism": "alpine_hut"
  }
},
{
  "type": "node",
  "id": 946045507,
  "lat": 47.6050640,
  "lon": 14.5933244,
  "tags": {
    "ele": "1571",
    "name": "Buchsteinhaus",
    "tourism": "alpine_hut"
  }
},
{
  "type": "node",
  "id": 946186220,
  "lat": 47.5612867,
  "lon": 15.9750388,
  "tags": {
    "name": "Kampsteiner Schwaig",
    "tourism": "alpine_hut"
  }
},
{
  "type": "node",
  "id": 946946379,
  "lat": 47.4214927,
  "lon": 14.4788630,
  "tags": {
    "alt_name": "Wichtlhütte",
    "comment": "winter only",
    "name": "Winter Bergbuffet",
    "tourism": "alpine_hut"
  }
},
{
  "type": "node",
  "id": 952182404,
  "lat": 46.9471671,
  "lon": 10.8904734,
  "tags": {
    "ele": "1891",
    "name": "Gletscher-Stüberl",
    "note": "I measured an elevation of 1934m by GPS. Please confirm and update elevation value.",
    "tourism": "alpine_hut"
  }
},
{
  "type": "node",
  "id": 960531683,
  "lat": 47.2746236,
  "lon": 13.6931161,
  "tags": {
    "ele": "1872",
    "massif": "Schladminger Tauern",
    "name": "Keinprechthütte",
    "note": "Koordinaten vom ÖAV zur Verfügung gestellt",
    "operator": "Alpenverein Wien",
    "tourism": "alpine_hut"
  }
},
{
  "type": "node",
  "id": 972621619,
  "lat": 47.6512936,
  "lon": 14.1199961,
  "tags": {
    "addr:city": "Hinterstoder",
    "addr:country": "AT",
    "addr:housenumber": "1",
    "addr:postcode": "4573",
    "addr:street": "Schafferreith",
    "name": "Almhütte Schafferreith",
    "tourism": "alpine_hut"
  }
},
{
  "type": "node",
  "id": 983089611,
  "lat": 47.3612373,
  "lon": 10.8668823,
  "tags": {
    "name": "Praxmarer Hütte",
    "tourism": "alpine_hut"
  }
},
{
  "type": "node",
  "id": 986879866,
  "lat": 47.0517919,
  "lon": 10.2905138,
  "tags": {
    "designation": "Kieler Wetterhütte",
    "name": "Kieler Wetter Hütte 2800m",
    "source": "www.dav-kiel.de",
    "tourism": "alpine_hut"
  }
},
{
  "type": "node",
  "id": 995837959,
  "lat": 47.4793962,
  "lon": 10.7957795,
  "tags": {
    "name": "Hölltalhütte",
    "tourism": "alpine_hut"
  }
},
{
  "type": "node",
  "id": 995944308,
  "lat": 47.4179900,
  "lon": 10.7074092,
  "tags": {
    "name": "Jagthütte",
    "tourism": "alpine_hut"
  }
},
{
  "type": "node",
  "id": 995944333,
  "lat": 47.4252193,
  "lon": 10.6969632,
  "tags": {
    "name": "Jagthütte",
    "tourism": "alpine_hut"
  }
},
{
  "type": "node",
  "id": 1068288580,
  "lat": 47.6153194,
  "lon": 15.6284700,
  "tags": {
    "ele": "1314",
    "name": "Kaarlhütte",
    "tourism": "alpine_hut"
  }
},
{
  "type": "node",
  "id": 1069150055,
  "lat": 47.2642983,
  "lon": 14.3910674,
  "tags": {
    "name": "Haingartner Hütte",
    "tourism": "alpine_hut"
  }
},
{
  "type": "node",
  "id": 1085248357,
  "lat": 47.7854551,
  "lon": 14.8296358,
  "tags": {
    "name": "Kitzhütte",
    "source": "geoimage.at",
    "tourism": "alpine_hut"
  }
},
{
  "type": "node",
  "id": 1098572394,
  "lat": 47.4598626,
  "lon": 16.2146072,
  "tags": {
    "name": "Reimeckhütte",
    "tourism": "alpine_hut"
  }
},
{
  "type": "node",
  "id": 1103447018,
  "lat": 46.8962833,
  "lon": 10.7350495,
  "tags": {
    "ele": "1903",
    "name": "Gepatsch Alm",
    "tourism": "alpine_hut"
  }
},
{
  "type": "node",
  "id": 1103476189,
  "lat": 46.9305351,
  "lon": 10.7297905,
  "tags": {
    "amenity": "restaurant",
    "name": "Nassereiner Alm",
    "tourism": "alpine_hut"
  }
},
{
  "type": "node",
  "id": 1103489456,
  "lat": 46.8927114,
  "lon": 10.7206064,
  "tags": {
    "name": "See'le Hütte (verfallen)",
    "ruins": "yes",
    "tourism": "alpine_hut"
  }
},
{
  "type": "node",
  "id": 1123122832,
  "lat": 47.0528273,
  "lon": 12.8822313,
  "tags": {
    "amenity": "restaurant",
    "tourism": "alpine_hut"
  }
},
{
  "type": "node",
  "id": 1123125641,
  "lat": 47.0595642,
  "lon": 12.8500485,
  "tags": {
    "amenity": "restaurant",
    "cuisine": "regional",
    "name": "Spatzl Alm",
    "tourism": "alpine_hut"
  }
},
{
  "type": "node",
  "id": 1144448944,
  "lat": 47.7192342,
  "lon": 15.3720563,
  "tags": {
    "name": "Tonionhütte",
    "operator": "Naturfreunde Gußwerk",
    "tourism": "alpine_hut"
  }
},
{
  "type": "node",
  "id": 1154378824,
  "lat": 47.2227018,
  "lon": 12.9756538,
  "tags": {
    "ele": "1480",
    "email": "http://www.heimalm-rauris.at",
    "name": "Heimalm",
    "tourism": "alpine_hut"
  }
},
{
  "type": "node",
  "id": 1155018774,
  "lat": 46.8389201,
  "lon": 14.6930550,
  "tags": {
    "cuisine": "regional",
    "ele": "1551",
    "name": "Zechhütte",
    "tourism": "alpine_hut"
  }
},
{
  "type": "node",
  "id": 1155101935,
  "lat": 46.8416681,
  "lon": 14.6762186,
  "tags": {
    "ele": "1668",
    "name": "Offnerhütte",
    "tourism": "alpine_hut"
  }
},
{
  "type": "node",
  "id": 1189048626,
  "lat": 47.2670814,
  "lon": 15.2262586,
  "tags": {
    "access": "public",
    "ele": "1238",
    "heating": "no",
    "name": "Gmoa Alm",
    "tourism": "alpine_hut"
  }
},
{
  "type": "node",
  "id": 1189766694,
  "lat": 46.8668208,
  "lon": 12.7933915,
  "tags": {
    "ele": "1899",
    "name": "AV Jugendheim",
    "tourism": "alpine_hut"
  }
},
{
  "type": "node",
  "id": 1208640448,
  "lat": 47.1830909,
  "lon": 10.6692518,
  "tags": {
    "name": "Langesbergalm",
    "tourism": "alpine_hut"
  }
},
{
  "type": "node",
  "id": 1209817466,
  "lat": 47.2582595,
  "lon": 12.7148808,
  "tags": {
    "amenity": "restaurant",
    "name": "Saulochalm",
    "tourism": "alpine_hut",
    "website": "http://www.sauloch-alm.at/"
  }
},
{
  "type": "node",
  "id": 1217589518,
  "lat": 47.3455239,
  "lon": 10.8123814,
  "tags": {
    "name": "Brandhütte",
    "tourism": "alpine_hut"
  }
},
{
  "type": "node",
  "id": 1254557277,
  "lat": 47.5838687,
  "lon": 14.9751476,
  "tags": {
    "name": "Pfaffingalm",
    "tourism": "alpine_hut"
  }
},
{
  "type": "node",
  "id": 1286795477,
  "lat": 47.7435457,
  "lon": 14.3460581,
  "tags": {
    "access": "private",
    "name": "Schürhütte",
    "tourism": "alpine_hut"
  }
},
{
  "type": "node",
  "id": 1287979819,
  "lat": 47.9464037,
  "lon": 14.5823017,
  "tags": {
    "name": "Glasnerhütte",
    "tourism": "alpine_hut",
    "website": "www.glasenberg.at/glasnerhuette/"
  }
},
{
  "type": "node",
  "id": 1288225258,
  "lat": 47.6511817,
  "lon": 15.2688053,
  "tags": {
    "ele": "1502",
    "name": "Graualm",
    "tourism": "alpine_hut"
  }
},
{
  "type": "node",
  "id": 1309465574,
  "lat": 47.2625484,
  "lon": 10.0521973,
  "tags": {
    "ele": "1581",
    "name": "Gemsalpe",
    "tourism": "alpine_hut"
  }
},
{
  "type": "node",
  "id": 1313054431,
  "lat": 47.4411323,
  "lon": 10.5924582,
  "tags": {
    "name": "Führenberghütte",
    "tourism": "alpine_hut"
  }
},
{
  "type": "node",
  "id": 1313054432,
  "lat": 47.4125604,
  "lon": 10.6001608,
  "tags": {
    "name": "Hüttenhof",
    "tourism": "alpine_hut"
  }
},
{
  "type": "node",
  "id": 1313054442,
  "lat": 47.3946590,
  "lon": 10.5354663,
  "tags": {
    "name": "Jöchlehütte",
    "tourism": "alpine_hut"
  }
},
{
  "type": "node",
  "id": 1313054448,
  "lat": 47.4143419,
  "lon": 10.5483008,
  "tags": {
    "name": "Krottenwaldhütte",
    "tourism": "alpine_hut"
  }
},
{
  "type": "node",
  "id": 1313054687,
  "lat": 47.4318921,
  "lon": 10.5888611,
  "tags": {
    "name": "Stuibenhütte",
    "tourism": "alpine_hut"
  }
},
{
  "type": "node",
  "id": 1313409869,
  "lat": 47.3619013,
  "lon": 10.0021374,
  "tags": {
    "name": "Wölflersguntenalpe",
    "tourism": "alpine_hut"
  }
},
{
  "type": "node",
  "id": 1313484502,
  "lat": 47.3539203,
  "lon": 10.0109680,
  "tags": {
    "name": "Ostergundenalpe",
    "tourism": "alpine_hut"
  }
},
{
  "type": "node",
  "id": 1313484689,
  "lat": 47.3564922,
  "lon": 10.0267921,
  "tags": {
    "name": "Almisguntenalpe",
    "tourism": "alpine_hut"
  }
},
{
  "type": "node",
  "id": 1313484784,
  "lat": 47.3518524,
  "lon": 10.0165384,
  "tags": {
    "name": "Stoggertennalpe",
    "tourism": "alpine_hut"
  }
},
{
  "type": "node",
  "id": 1313497174,
  "lat": 47.3675514,
  "lon": 10.0248910,
  "tags": {
    "name": "Unterspitzalpe",
    "tourism": "alpine_hut"
  }
},
{
  "type": "node",
  "id": 1315996744,
  "lat": 47.8119010,
  "lon": 13.7233381,
  "tags": {
    "ele": "1543",
    "name": "Kranabeth Hütte",
    "tourism": "alpine_hut"
  }
},
{
  "type": "node",
  "id": 1321748923,
  "lat": 46.5016398,
  "lon": 14.5102265,
  "tags": {
    "designation": "Eisenkappeler Hütte",
    "ele": "1555",
    "name": "Eisenkappler Hütte",
    "source": "Local Knowledge",
    "tourism": "alpine_hut"
  }
},
{
  "type": "node",
  "id": 1331424460,
  "lat": 47.4548415,
  "lon": 13.2982395,
  "tags": {
    "amenity": "restaurant",
    "ele": "1565",
    "name": "Bischlingalm",
    "tourism": "alpine_hut"
  }
},
{
  "type": "node",
  "id": 1339441796,
  "lat": 47.6358555,
  "lon": 14.5392580,
  "tags": {
    "amenity": "restaurant",
    "cuisine": "alpine_hut",
    "name": "Lahnalm",
    "tourism": "alpine_hut"
  }
},
{
  "type": "node",
  "id": 1340474535,
  "lat": 47.3249682,
  "lon": 11.3137948,
  "tags": {
    "name": "Kristenalm",
    "tourism": "alpine_hut"
  }
},
{
  "type": "node",
  "id": 1342611573,
  "lat": 46.4519700,
  "lon": 14.3871133,
  "tags": {
    "ele": "1280",
    "name": "Koschutahaus",
    "operator": "Naturfreunde",
    "shower": "yes",
    "tourism": "alpine_hut"
  }
},
{
  "type": "node",
  "id": 1348444866,
  "lat": 47.3999785,
  "lon": 10.7252540,
  "tags": {
    "amenity": "restaurant",
    "ele": "1510",
    "name": "Kögelehütte",
    "tourism": "alpine_hut"
  }
},
{
  "type": "node",
  "id": 1351477428,
  "lat": 47.6400300,
  "lon": 15.3960702,
  "tags": {
    "name": "Baerntalalm",
    "tourism": "alpine_hut"
  }
},
{
  "type": "node",
  "id": 1351497872,
  "lat": 47.6926960,
  "lon": 15.3794320,
  "tags": {
    "name": "Weißalm",
    "tourism": "alpine_hut"
  }
},
{
  "type": "node",
  "id": 1351497873,
  "lat": 47.7000304,
  "lon": 15.4033900,
  "tags": {
    "ele": "1402",
    "name": "Herrenboden",
    "tourism": "alpine_hut"
  }
},
{
  "type": "node",
  "id": 1360238632,
  "lat": 46.9761271,
  "lon": 13.5113497,
  "tags": {
    "name": "Kramerhütte",
    "tourism": "alpine_hut"
  }
},
{
  "type": "node",
  "id": 1364814845,
  "lat": 46.9448907,
  "lon": 13.9960187,
  "tags": {
    "access": "private",
    "name": "Fürstenhütte",
    "tourism": "alpine_hut"
  }
},
{
  "type": "node",
  "id": 1382048204,
  "lat": 46.9660831,
  "lon": 10.9577546,
  "tags": {
    "tourism": "alpine_hut"
  }
},
{
  "type": "node",
  "id": 1382307865,
  "lat": 46.9461046,
  "lon": 9.9518031,
  "tags": {
    "ele": "1820",
    "name": "Alp Vergalden",
    "tourism": "alpine_hut"
  }
},
{
  "type": "node",
  "id": 1389642935,
  "lat": 47.2753384,
  "lon": 9.9898337,
  "tags": {
    "ele": "1626",
    "name": "Töbelealpe",
    "tourism": "alpine_hut"
  }
},
{
  "type": "node",
  "id": 1393990546,
  "lat": 47.3385395,
  "lon": 9.9899250,
  "tags": {
    "ele": "1529",
    "name": "Obersattelalpe",
    "tourism": "alpine_hut"
  }
},
{
  "type": "node",
  "id": 1393990593,
  "lat": 47.3415041,
  "lon": 9.9961852,
  "tags": {
    "ele": "1460",
    "name": "Untersattelalpe",
    "tourism": "alpine_hut"
  }
},
{
  "type": "node",
  "id": 1396118507,
  "lat": 47.3464526,
  "lon": 10.7913422,
  "tags": {
    "ele": "2022",
    "name": "Loreahütte",
    "note": "Unbewirtschaftet, AV-Schlüssel",
    "operator": "DAV Sektion Isartal",
    "tourism": "alpine_hut",
    "wikidata": "Q1755491",
    "wikipedia": "de:Loreahütte"
  }
},
{
  "type": "node",
  "id": 1396763486,
  "lat": 47.3610309,
  "lon": 10.9811803,
  "tags": {
    "ele": "2017",
    "internet_access": "no",
    "internet_access:fee": "no",
    "name": "Breitenkopfhütte",
    "note": "Selbstversorger Hütte, Schlüssel beim Alpenverein. Hütte ist im Fels, siehe: http://mieminger.at/breitenkopfhuette.html",
    "operator": "DAV Sektion Coburg",
    "tourism": "alpine_hut",
    "wheelchair": "no",
    "wikidata": "Q17412560",
    "wikipedia": "de:Breitenkopfhütte"
  }
},
{
  "type": "node",
  "id": 1401212410,
  "lat": 46.8892257,
  "lon": 13.7716807,
  "tags": {
    "amenity": "restaurant",
    "contact:phone": "+43 4240 858521",
    "ele": "1777",
    "name": "Wolitzen Alm",
    "tourism": "alpine_hut"
  }
},
{
  "type": "node",
  "id": 1407686251,
  "lat": 46.9832325,
  "lon": 10.4737807,
  "tags": {
    "access": "private",
    "ele": "2021m",
    "name": "Ochsenberg-Alm",
    "tourism": "alpine_hut"
  }
},
{
  "type": "node",
  "id": 1410323342,
  "lat": 47.3019525,
  "lon": 15.6151648,
  "tags": {
    "name": "Schutzhütte",
    "tourism": "alpine_hut"
  }
},
{
  "type": "node",
  "id": 1419889047,
  "lat": 47.3001443,
  "lon": 13.6918487,
  "tags": {
    "alt_name": "Duisitzkarhütte",
    "cuisine": "regional",
    "ele": "1660",
    "name": "Duisitzkarseehütte",
    "tourism": "alpine_hut"
  }
},
{
  "type": "node",
  "id": 1421910083,
  "lat": 47.2965040,
  "lon": 11.4030789,
  "tags": {
    "addr:city": "Innsbruck",
    "addr:housenumber": "113",
    "addr:postcode": "6020",
    "addr:street": "Rosnerweg",
    "amenity": "restaurant",
    "cuisine": "regional",
    "delivery": "no",
    "ele": "1067",
    "name": "Arzler Alm",
    "operator": "Fam. Anzengruber",
    "outdoor_seating": "yes",
    "tourism": "alpine_hut",
    "website": "http://www.arzleralm.at/"
  }
},
{
  "type": "node",
  "id": 1423031202,
  "lat": 46.7755711,
  "lon": 15.0885189,
  "tags": {
    "name": "Schirchleralm",
    "source": "survey",
    "tourism": "alpine_hut"
  }
},
{
  "type": "node",
  "id": 1426828784,
  "lat": 47.7109369,
  "lon": 15.6366237,
  "tags": {
    "ele": "1764",
    "email": "bayer-lurgbauer@aon.at",
    "name": "Lurgbauerhütte",
    "phone": "+43/3857/2237",
    "tourism": "alpine_hut"
  }
},
{
  "type": "node",
  "id": 1430590863,
  "lat": 47.4190200,
  "lon": 14.5843499,
  "tags": {
    "name": "Moaralm",
    "tourism": "alpine_hut"
  }
},
{
  "type": "node",
  "id": 1434737943,
  "lat": 47.2029502,
  "lon": 11.4513919,
  "tags": {
    "amenity": "restaurant",
    "ele": "1907",
    "name": "Hochmahdalm",
    "tourism": "alpine_hut"
  }
},
{
  "type": "node",
  "id": 1446890939,
  "lat": 47.1575637,
  "lon": 9.6318237,
  "tags": {
    "ele": "1566",
    "name": "Galinaalpe",
    "tourism": "alpine_hut"
  }
},
{
  "type": "node",
  "id": 1447832801,
  "lat": 47.4600293,
  "lon": 15.6210232,
  "tags": {
    "name": "Halterhütte",
    "tourism": "alpine_hut"
  }
},
{
  "type": "node",
  "id": 1448650916,
  "lat": 47.2898938,
  "lon": 15.6024324,
  "tags": {
    "designation": "Schihütte",
    "name": "Schihütte, Steinbauer",
    "source": "local_knowledge",
    "tourism": "alpine_hut"
  }
},
{
  "type": "node",
  "id": 1453561181,
  "lat": 47.5177155,
  "lon": 15.6921451,
  "tags": {
    "name": "Sonnenhütte",
    "tourism": "alpine_hut"
  }
},
{
  "type": "node",
  "id": 1453631950,
  "lat": 47.5116863,
  "lon": 15.6423236,
  "tags": {
    "name": "Kressbachalmhütte",
    "tourism": "alpine_hut"
  }
},
{
  "type": "node",
  "id": 1459656318,
  "lat": 47.2178993,
  "lon": 11.4559488,
  "tags": {
    "amenity": "restaurant",
    "ele": "1735",
    "name": "Lanser Alm",
    "tourism": "alpine_hut"
  }
},
{
  "type": "node",
  "id": 1460112525,
  "lat": 47.1035037,
  "lon": 10.7981711,
  "tags": {
    "amenity": "alp",
    "ele": "1840",
    "name": "Mauchelealm",
    "tourism": "alpine_hut"
  }
},
{
  "type": "node",
  "id": 1460112858,
  "lat": 47.1089809,
  "lon": 10.7839787,
  "tags": {
    "amenity": "alp",
    "ele": "1849",
    "name": "Söllbergalm",
    "tourism": "alpine_hut"
  }
},
{
  "type": "node",
  "id": 1460275537,
  "lat": 47.3696534,
  "lon": 11.0493942,
  "tags": {
    "ele": "1369",
    "name": "Gaistalalm",
    "tourism": "alpine_hut",
    "website": "http://members.aon.at/gaistalalm.at/"
  }
},
{
  "type": "node",
  "id": 1480453873,
  "lat": 47.3996629,
  "lon": 9.8194792,
  "tags": {
    "ele": "1250",
    "name": "Älpele",
    "tourism": "alpine_hut"
  }
},
{
  "type": "node",
  "id": 1496710565,
  "lat": 46.9239776,
  "lon": 10.1756739,
  "tags": {
    "name": "Scheiben-Alm",
    "phone": "06649244508",
    "tourism": "alpine_hut"
  }
},
{
  "type": "node",
  "id": 1502007002,
  "lat": 47.7889502,
  "lon": 13.4673093,
  "tags": {
    "tourism": "alpine_hut"
  }
},
{
  "type": "node",
  "id": 1507068518,
  "lat": 47.7010697,
  "lon": 12.1879436,
  "tags": {
    "addr:city": "Erl",
    "addr:country": "AT",
    "addr:housenumber": "9",
    "addr:postcode": "6343",
    "addr:street": "Alm",
    "ele": "1230",
    "fax": "+43 5373 8137",
    "name": "Kranzhorn Alm",
    "opening_hours": "May 1-Sep 15: open",
    "phone": "+43 5373 8137",
    "source": "local_knowledge",
    "source:ele": "label on hut",
    "tourism": "alpine_hut",
    "website": "http://www.kranzhorn.at/"
  }
},
{
  "type": "node",
  "id": 1511793907,
  "lat": 47.7518935,
  "lon": 13.5382522,
  "tags": {
    "name": "Stücklalm",
    "tourism": "alpine_hut"
  }
},
{
  "type": "node",
  "id": 1511793910,
  "lat": 47.7523263,
  "lon": 13.5387564,
  "tags": {
    "tourism": "alpine_hut"
  }
},
{
  "type": "node",
  "id": 1522699773,
  "lat": 47.5670454,
  "lon": 12.0913205,
  "tags": {
    "amenity": "restaurant",
    "contact:email": "info@kala-alm.at",
    "contact:fax": "+43 5376 52884",
    "contact:mobile": "43 664 3944284",
    "contact:website": "www.kala-alm.at",
    "cuisine": "regional",
    "name": "Kala Alm",
    "source": "geoimage.at",
    "tourism": "alpine_hut"
  }
},
{
  "type": "node",
  "id": 1537321603,
  "lat": 46.8214697,
  "lon": 12.7001819,
  "tags": {
    "amenity": "restaurant",
    "ele": "2025",
    "name": "Hochsteinhütte",
    "tourism": "alpine_hut",
    "wikidata": "Q1622351",
    "wikipedia": "de:Hochsteinhütte"
  }
},
{
  "type": "node",
  "id": 1559102082,
  "lat": 47.6135436,
  "lon": 12.0384223,
  "tags": {
    "alt_name": "Trockenbachalm",
    "amenity": "restaurant",
    "cuisine": "regional",
    "ele": "1250",
    "name": "Mariandlalm",
    "phone": "0043 / 664 / 350 44 17",
    "tourism": "alpine_hut",
    "website": "http://www.mariandlalm.at/"
  }
},
{
  "type": "node",
  "id": 1567364312,
  "lat": 46.9781563,
  "lon": 12.4592740,
  "tags": {
    "amenity": "restaurant",
    "beds": "23",
    "cuisine": "regional",
    "ele": "2106",
    "email": "tschoner@aon.at",
    "name": "Wetterkreuzhütte",
    "operator": "Familie Tschoner",
    "outdoor_seating": "yes",
    "phone": "+43 650 5457402",
    "tourism": "alpine_hut",
    "website": "http://www.alm-ferienhaus.com/wetterkreuzhuette-3/"
  }
},
{
  "type": "node",
  "id": 1567490026,
  "lat": 47.0493723,
  "lon": 12.5762715,
  "tags": {
    "ele": "2650",
    "name": "Sudetendeutsche Hütte",
    "tourism": "alpine_hut",
    "wikidata": "Q2363199",
    "wikipedia": "de:Sudetendeutsche Hütte"
  }
},
{
  "type": "node",
  "id": 1595075474,
  "lat": 46.8224284,
  "lon": 13.7501504,
  "tags": {
    "name": "Brentlerhütte",
    "tourism": "alpine_hut"
  }
},
{
  "type": "node",
  "id": 1607527933,
  "lat": 47.1510754,
  "lon": 11.5961086,
  "tags": {
    "addr:city": "Navis",
    "addr:country": "AT",
    "addr:housenumber": "185",
    "addr:postcode": "6145",
    "addr:street": "Klammerweg",
    "amenity": "restaurant",
    "name": "Klammalm",
    "tourism": "alpine_hut"
  }
},
{
  "type": "node",
  "id": 1619954017,
  "lat": 47.5344065,
  "lon": 10.5627062,
  "tags": {
    "addr:city": "Vils",
    "addr:country": "AT",
    "addr:housenumber": "71",
    "addr:postcode": "6682",
    "addr:street": "Gemeinde",
    "name": "Bad Kissinger Hütte",
    "tourism": "alpine_hut",
    "wikidata": "Q798718",
    "wikipedia": "de:Bad Kissinger Hütte"
  }
},
{
  "type": "node",
  "id": 1627269874,
  "lat": 47.3029035,
  "lon": 11.4213432,
  "tags": {
    "addr:city": "Rum",
    "addr:housenumber": "7",
    "addr:postcode": "6063",
    "addr:street": "Garneid",
    "amenity": "restaurant",
    "cuisine": "regional",
    "ele": "1243",
    "name": "Rumer Alm",
    "opening_hours": "Mo-Tu,Th-Su 10:00-21:00",
    "outdoor_seating": "yes",
    "tourism": "alpine_hut",
    "website": "http://www.rumeralm.at/"
  }
},
{
  "type": "node",
  "id": 1632744583,
  "lat": 47.0408861,
  "lon": 10.9444301,
  "tags": {
    "ele": "1874m",
    "name": "Breitlehnalm",
    "tourism": "alpine_hut"
  }
},
{
  "type": "node",
  "id": 1635114705,
  "lat": 46.8691446,
  "lon": 12.4389208,
  "tags": {
    "ele": "1884",
    "name": "Volkzeiner Hütte",
    "tourism": "alpine_hut"
  }
},
{
  "type": "node",
  "id": 1636573842,
  "lat": 47.0203869,
  "lon": 11.4932708,
  "tags": {
    "amenity": "restaurant",
    "ele": "1637",
    "name": "Sattelbergalm",
    "tourism": "alpine_hut"
  }
},
{
  "type": "node",
  "id": 1639183811,
  "lat": 47.0193381,
  "lon": 11.4034240,
  "tags": {
    "name": "Kastnerbergalm",
    "tourism": "alpine_hut"
  }
},
{
  "type": "node",
  "id": 1640473352,
  "lat": 47.0128479,
  "lon": 11.3026658,
  "tags": {
    "amenity": "restaurant",
    "cuisine": "regional",
    "name": "Laponesalm",
    "opening_hours": "May-Oct: Mo-Su 09:00-18:00",
    "operator": "Familie Josef Pranger",
    "outdoor_seating": "yes",
    "phone": "+43 664 1634190",
    "tourism": "alpine_hut",
    "website": "https://www.laponesalm.at/"
  }
},
{
  "type": "node",
  "id": 1640844437,
  "lat": 47.1082499,
  "lon": 11.2656031,
  "tags": {
    "amenity": "restaurant",
    "ele": "1559.141",
    "name": "Auffangalm",
    "tourism": "alpine_hut",
    "website": "http://www.auffangalm.at/"
  }
},
{
  "type": "node",
  "id": 1642945247,
  "lat": 47.0676526,
  "lon": 11.4317177,
  "tags": {
    "amenity": "restaurant",
    "name": "Gerichtsherrenalm",
    "tourism": "alpine_hut"
  }
},
{
  "type": "node",
  "id": 1643742560,
  "lat": 47.0515926,
  "lon": 11.4045042,
  "tags": {
    "amenity": "restaurant",
    "name": "Trunahütte",
    "note": "hat Zimmer und Lager",
    "tourism": "alpine_hut"
  }
},
{
  "type": "node",
  "id": 1648619778,
  "lat": 47.0499511,
  "lon": 11.4645929,
  "tags": {
    "amenity": "restaurant",
    "name": "Nösslachhütte",
    "source": "GeoImage.at",
    "tourism": "alpine_hut",
    "website": "http://www.noesslachhuette.at"
  }
},
{
  "type": "node",
  "id": 1660382625,
  "lat": 47.0640676,
  "lon": 11.4485065,
  "tags": {
    "name": "Nösslachjochhütte [geschlossen]",
    "tourism": "alpine_hut"
  }
},
{
  "type": "node",
  "id": 1665715476,
  "lat": 47.2105420,
  "lon": 11.3197904,
  "tags": {
    "amenity": "restaurant",
    "ele": "1560",
    "name": "Götzner Alm",
    "source": "GeoImage.at",
    "tourism": "alpine_hut",
    "wikidata": "Q1112626",
    "wikipedia": "de:Götzner Alm"
  }
},
{
  "type": "node",
  "id": 1666028438,
  "lat": 47.1073360,
  "lon": 11.2582594,
  "tags": {
    "amenity": "restaurant",
    "name": "Brandstatt-Alm",
    "phone": "+43 664 3715044",
    "source": "GeoImage.at",
    "tourism": "alpine_hut",
    "website": "http://www.brandstatt-alm.at/"
  }
},
{
  "type": "node",
  "id": 1666084376,
  "lat": 47.1569269,
  "lon": 11.3317128,
  "tags": {
    "amenity": "restaurant",
    "ele": "1350",
    "name": "Brugger Alm",
    "source": "GeoImage.at",
    "tourism": "alpine_hut"
  }
},
{
  "type": "node",
  "id": 1682142510,
  "lat": 46.8634152,
  "lon": 13.7859804,
  "tags": {
    "amenity": "restaurant",
    "name": "Falkerthaus",
    "tourism": "alpine_hut"
  }
},
{
  "type": "node",
  "id": 1684035637,
  "lat": 47.1146804,
  "lon": 10.8235876,
  "tags": {
    "ele": "1935",
    "name": "Ludwigsburger Hütte",
    "operator": "DAV Sektion Ludwigsburg",
    "source": "GeoImage.at",
    "tourism": "alpine_hut",
    "wikidata": "Q1875396",
    "wikipedia": "de:Ludwigsburger Hütte"
  }
},
{
  "type": "node",
  "id": 1692552899,
  "lat": 47.3865515,
  "lon": 12.4646680,
  "tags": {
    "alt_name": "Bochumer Hütte",
    "name": "Kelchalm",
    "tourism": "alpine_hut",
    "wikidata": "Q889089",
    "wikipedia": "de:Bochumer Hütte"
  }
},
{
  "type": "node",
  "id": 1693267583,
  "lat": 47.5167232,
  "lon": 12.5549569,
  "tags": {
    "addr:city": "St. Ulrich",
    "addr:country": "AT",
    "amenity": "restaurant",
    "ele": "1090",
    "name": "Lindtalalm",
    "note": "No Adress",
    "tourism": "alpine_hut",
    "website": "http://www.bergfex.at/sommer/tirol/touren/wanderung/4379,lindtalalm-winterstelleralm/"
  }
},
{
  "type": "node",
  "id": 1694952569,
  "lat": 46.9052626,
  "lon": 13.8868042,
  "tags": {
    "access": "private",
    "ele": "1799",
    "name": "Katscherhütte",
    "source": "local_knowledge",
    "tourism": "alpine_hut"
  }
},
{
  "type": "node",
  "id": 1695274305,
  "lat": 46.8910431,
  "lon": 13.8952572,
  "tags": {
    "name": "Vastlhütte am Sam",
    "source": "local_knowledge",
    "tourism": "alpine_hut"
  }
},
{
  "type": "node",
  "id": 1704341525,
  "lat": 46.7594324,
  "lon": 12.7665605,
  "tags": {
    "amenity": "restaurant",
    "ele": "1902",
    "name": "Kerschbaumer Alm",
    "tourism": "alpine_hut",
    "wikidata": "Q1306028",
    "wikipedia": "de:Kerschbaumeralm Schutzhaus"
  }
},
{
  "type": "node",
  "id": 1726564778,
  "lat": 46.7985228,
  "lon": 12.6136299,
  "tags": {
    "name": "Skihütte Compedal",
    "tourism": "alpine_hut"
  }
},
{
  "type": "node",
  "id": 1727003721,
  "lat": 46.9034023,
  "lon": 13.8845512,
  "tags": {
    "access": "private",
    "building": "yes",
    "ele": "1716",
    "name": "Schmiedhütte",
    "source": "GPS Track",
    "tourism": "alpine_hut"
  }
},
{
  "type": "node",
  "id": 1779769997,
  "lat": 47.1667129,
  "lon": 11.6404192,
  "tags": {
    "amenity": "restaurant",
    "ele": "2019",
    "email": "info@lizumerhuette.at",
    "name": "Lizumer Hütte",
    "operator": "Anton Nigg",
    "phone": "+43-664-647-5353",
    "tourism": "alpine_hut",
    "website": "http://www.lizumerhuette.at",
    "wikidata": "Q1601307",
    "wikipedia": "de:Lizumer Hütte"
  }
},
{
  "type": "node",
  "id": 1785972339,
  "lat": 47.7112976,
  "lon": 15.4347040,
  "tags": {
    "name": "Königsalm",
    "tourism": "alpine_hut"
  }
},
{
  "type": "node",
  "id": 1785972343,
  "lat": 47.7116525,
  "lon": 15.4208522,
  "tags": {
    "name": "Dürrieglalm",
    "tourism": "alpine_hut"
  }
},
{
  "type": "node",
  "id": 1801854051,
  "lat": 46.5081621,
  "lon": 14.4685056,
  "tags": {
    "name": "Jagdhütte",
    "tourism": "alpine_hut"
  }
},
{
  "type": "node",
  "id": 1809101111,
  "lat": 46.9200830,
  "lon": 13.7842547,
  "tags": {
    "name": "Stangalm",
    "tourism": "alpine_hut"
  }
},
{
  "type": "node",
  "id": 1809101112,
  "lat": 46.9204998,
  "lon": 13.7790678,
  "tags": {
    "ele": "1715",
    "name": "Tangernerhütte",
    "tourism": "alpine_hut"
  }
},
{
  "type": "node",
  "id": 1818302634,
  "lat": 47.0736195,
  "lon": 12.9931574,
  "tags": {
    "name": "Gainschniggalm",
    "source": "geoimage.at hires",
    "tourism": "alpine_hut",
    "url": "http://www.gainschniggalm.at/"
  }
},
{
  "type": "node",
  "id": 1833369013,
  "lat": 47.4790681,
  "lon": 10.7497905,
  "tags": {
    "tourism": "alpine_hut"
  }
},
{
  "type": "node",
  "id": 1836518335,
  "lat": 47.1763487,
  "lon": 11.3358370,
  "tags": {
    "addr:city": "Telfes im Stubai",
    "addr:country": "AT",
    "addr:housenumber": "200",
    "addr:postcode": "6165",
    "addr:street": "Pfarrach",
    "amenity": "restaurant",
    "name": "Pfarrachalm",
    "tourism": "alpine_hut",
    "wikidata": "Q15058714",
    "wikipedia": "de:Pfarrachalm"
  }
},
{
  "type": "node",
  "id": 1837710838,
  "lat": 47.5697267,
  "lon": 15.7740887,
  "tags": {
    "name": "Steinbachalm Sennerhütte",
    "tourism": "alpine_hut"
  }
},
{
  "type": "node",
  "id": 1839842096,
  "lat": 47.4316349,
  "lon": 12.7733889,
  "tags": {
    "amenity": "restaurant",
    "cuisine": "alpine_hut",
    "name": "Sinnlehen Alm",
    "phone": "+43 664 5278927",
    "tourism": "alpine_hut",
    "website": "http://www.sinnlehen.at/sinnlehenalm"
  }
},
{
  "type": "node",
  "id": 1839849831,
  "lat": 47.4252802,
  "lon": 12.6796692,
  "tags": {
    "alt_name": "Unterberghaus",
    "amenity": "restaurant",
    "cuisine": "alpine_hut",
    "name": "Knappenstube",
    "tourism": "alpine_hut"
  }
},
{
  "type": "node",
  "id": 1850633174,
  "lat": 47.7967474,
  "lon": 13.3806351,
  "tags": {
    "access": "private",
    "name": "Eibenberg Alm",
    "tourism": "alpine_hut"
  }
},
{
  "type": "node",
  "id": 1850633175,
  "lat": 47.7968702,
  "lon": 13.3766270,
  "tags": {
    "access": "private",
    "name": "Jagdhütte",
    "tourism": "alpine_hut"
  }
},
{
  "type": "node",
  "id": 1865613709,
  "lat": 46.7719128,
  "lon": 13.1204252,
  "tags": {
    "name": "Tristenhaus",
    "tourism": "alpine_hut"
  }
},
{
  "type": "node",
  "id": 1871503411,
  "lat": 46.7894677,
  "lon": 13.7942269,
  "tags": {
    "name": "Maibrunnhütte",
    "tourism": "alpine_hut"
  }
},
{
  "type": "node",
  "id": 1871503422,
  "lat": 46.7868329,
  "lon": 13.8166929,
  "tags": {
    "ele": "1915",
    "name": "Rossalmhütte",
    "tourism": "alpine_hut"
  }
},
{
  "type": "node",
  "id": 1871503433,
  "lat": 46.8002731,
  "lon": 13.7884191,
  "tags": {
    "name": "Unterwirthüttn",
    "tourism": "alpine_hut"
  }
},
{
  "type": "node",
  "id": 1873005261,
  "lat": 46.7906488,
  "lon": 13.0198675,
  "tags": {
    "name": "Unteralm",
    "operator": "Privat",
    "tourism": "alpine_hut"
  }
},
{
  "type": "node",
  "id": 1883991593,
  "lat": 46.7700838,
  "lon": 12.7402660,
  "tags": {
    "ele": "2683",
    "name": "Linderhütte",
    "tourism": "alpine_hut",
    "wikidata": "Q1826168",
    "wikipedia": "de:Linderhütte"
  }
},
{
  "type": "node",
  "id": 1909606632,
  "lat": 46.3938233,
  "lon": 14.5521778,
  "tags": {
    "name:de": "Jenk Alm",
    "name:sl": "Jenkova planina",
    "tourism": "alpine_hut"
  }
},
{
  "type": "node",
  "id": 1921758987,
  "lat": 47.3751440,
  "lon": 11.9511031,
  "tags": {
    "name": "Böglalm",
    "source": "geoimage.at MaxRes",
    "tourism": "alpine_hut"
  }
},
{
  "type": "node",
  "id": 1927243833,
  "lat": 46.9184377,
  "lon": 13.3142761,
  "tags": {
    "name": "Zandlacher Huette",
    "tourism": "alpine_hut"
  }
},
{
  "type": "node",
  "id": 1931896019,
  "lat": 47.3990483,
  "lon": 10.0484840,
  "tags": {
    "name": "Ifer Krähenbergalpe",
    "tourism": "alpine_hut"
  }
},
{
  "type": "node",
  "id": 1932329012,
  "lat": 46.9685913,
  "lon": 10.6459729,
  "tags": {
    "name": "Platzeralm",
    "tourism": "alpine_hut"
  }
},
{
  "type": "node",
  "id": 1938396259,
  "lat": 47.3916196,
  "lon": 9.9586862,
  "tags": {
    "ele": "1400",
    "ele:source": "Tafel bei Alpe",
    "name": "Alpe Wildmoos",
    "tourism": "alpine_hut"
  }
},
{
  "type": "node",
  "id": 1943456368,
  "lat": 47.0109404,
  "lon": 10.6993917,
  "tags": {
    "tourism": "alpine_hut"
  }
},
{
  "type": "node",
  "id": 1976227414,
  "lat": 47.3017890,
  "lon": 15.5753127,
  "tags": {
    "tourism": "alpine_hut"
  }
},
{
  "type": "node",
  "id": 2026173768,
  "lat": 47.4005502,
  "lon": 12.6646926,
  "tags": {
    "amenity": "restaurant",
    "name": "Bergeralm",
    "tourism": "alpine_hut"
  }
},
{
  "type": "node",
  "id": 2057297966,
  "lat": 47.8002157,
  "lon": 14.4219134,
  "tags": {
    "name": "Ebenforstalm",
    "tourism": "alpine_hut"
  }
},
{
  "type": "node",
  "id": 2072610428,
  "lat": 47.0624777,
  "lon": 10.3159885,
  "tags": {
    "addr:city": "Kappl",
    "addr:country": "AT",
    "addr:housenumber": "241",
    "addr:postcode": "6555",
    "addr:street": "Niederelbehütte",
    "ele": "2310",
    "email": "info@niederelbehuette.at",
    "name": "Niederelbehütte",
    "phone": "+43 676 41 52 355",
    "tourism": "alpine_hut",
    "website": "http://www.niederelbehuette.at/"
  }
},
{
  "type": "node",
  "id": 2085795791,
  "lat": 47.4840675,
  "lon": 15.9630702,
  "tags": {
    "name": "Glatzl Trahütten",
    "tourism": "alpine_hut"
  }
},
{
  "type": "node",
  "id": 2086164207,
  "lat": 46.8119986,
  "lon": 14.6918756,
  "tags": {
    "cuisine": "pizza",
    "name": "Lamminger Halt",
    "tourism": "alpine_hut"
  }
},
{
  "type": "node",
  "id": 2090263931,
  "lat": 46.9603056,
  "lon": 14.6917893,
  "tags": {
    "name": "Steinkellnerhütte",
    "tourism": "alpine_hut"
  }
},
{
  "type": "node",
  "id": 2090263992,
  "lat": 46.9635717,
  "lon": 14.6798280,
  "tags": {
    "name": "Grünhütte",
    "tourism": "alpine_hut"
  }
},
{
  "type": "node",
  "id": 2090264015,
  "lat": 46.9610873,
  "lon": 14.6943293,
  "tags": {
    "name": "Karner Hütte",
    "tourism": "alpine_hut"
  }
},
{
  "type": "node",
  "id": 2101840819,
  "lat": 47.7485060,
  "lon": 13.4959614,
  "tags": {
    "addr:city": "St. Wolfgang im Salzkammergut",
    "addr:country": "AT",
    "addr:housenumber": "36",
    "addr:postcode": "5360",
    "addr:street": "Schwarzenbach",
    "amenity": "restaurant",
    "cuisine": "regional",
    "name": "Seegasthaus Alm-Stadl",
    "tourism": "alpine_hut"
  }
},
{
  "type": "node",
  "id": 2107102492,
  "lat": 47.6608354,
  "lon": 13.4208248,
  "tags": {
    "addr:city": "Abtenau",
    "addr:country": "AT",
    "addr:housenumber": "70",
    "addr:postcode": "5441",
    "addr:street": "Seydegg",
    "ele": "1340",
    "name": "Huber Hütte",
    "tourism": "alpine_hut"
  }
},
{
  "type": "node",
  "id": 2130786629,
  "lat": 46.9542948,
  "lon": 14.6911338,
  "tags": {
    "name": "Moselebauerhütte",
    "source": "survey",
    "tourism": "alpine_hut"
  }
},
{
  "type": "node",
  "id": 2140473120,
  "lat": 47.4123031,
  "lon": 9.9794624,
  "tags": {
    "name": "Alpe Brongen",
    "tourism": "alpine_hut"
  }
},
{
  "type": "node",
  "id": 2150565802,
  "lat": 47.0327018,
  "lon": 10.9490318,
  "tags": {
    "addr:city": "Längenfeld",
    "addr:country": "AT",
    "addr:housenumber": "242",
    "addr:postcode": "6444",
    "addr:street": "Huben",
    "ele": "1840",
    "name": "Polltalalm",
    "tourism": "alpine_hut"
  }
},
{
  "type": "node",
  "id": 2181388142,
  "lat": 48.5340701,
  "lon": 13.4527729,
  "tags": {
    "access": "yes",
    "capacity": "6",
    "ele": "400",
    "name": "Schärdinger Hütte",
    "opening_hours": "Apr - Oct",
    "operator": "Naturfreunde Österreich TVN",
    "reservation": "required",
    "shower": "yes",
    "source": "survey",
    "tourism": "alpine_hut",
    "winter_room": "no"
  }
},
{
  "type": "node",
  "id": 2197339141,
  "lat": 47.0605782,
  "lon": 13.1300324,
  "tags": {
    "name": "Patschgenalm",
    "tourism": "alpine_hut"
  }
},
{
  "type": "node",
  "id": 2325711984,
  "lat": 46.8679048,
  "lon": 13.9855220,
  "tags": {
    "addr:city": "Hochrindl",
    "addr:housenumber": "10",
    "addr:postcode": "9571",
    "addr:street": "Zirbenweg",
    "ele": "1604",
    "email": "zirbenhuette@a1.net",
    "name": "Hiaslalm",
    "phone": "+43 (0)664 4032556",
    "tourism": "alpine_hut",
    "website": "www.biohiasl.at"
  }
},
{
  "type": "node",
  "id": 2325719711,
  "lat": 46.8575221,
  "lon": 13.9684357,
  "tags": {
    "name": "Wugganighütte",
    "tourism": "alpine_hut"
  }
},
{
  "type": "node",
  "id": 2327488827,
  "lat": 46.6969324,
  "lon": 13.0403069,
  "tags": {
    "ele": "1625",
    "name": "Ploneralm",
    "tourism": "alpine_hut"
  }
},
{
  "type": "node",
  "id": 2343610856,
  "lat": 47.8180272,
  "lon": 13.4097584,
  "tags": {
    "name": "Pichl Auhof Hütte",
    "tourism": "alpine_hut"
  }
},
{
  "type": "node",
  "id": 2348260405,
  "lat": 47.4977722,
  "lon": 9.9788439,
  "tags": {
    "name": "Nollenalpe",
    "tourism": "alpine_hut"
  }
},
{
  "type": "node",
  "id": 2368392910,
  "lat": 47.3086047,
  "lon": 12.2010209,
  "tags": {
    "addr:city": "Westendorf",
    "addr:country": "AT",
    "addr:housenumber": "109",
    "addr:postcode": "6363",
    "addr:street": "Hinterwindau",
    "name": "Rotwand Grundalm",
    "tourism": "alpine_hut"
  }
},
{
  "type": "node",
  "id": 2378274100,
  "lat": 47.4623061,
  "lon": 14.4458608,
  "tags": {
    "name": "Hölleralm",
    "tourism": "alpine_hut"
  }
},
{
  "type": "node",
  "id": 2382631604,
  "lat": 46.9575689,
  "lon": 12.4367165,
  "tags": {
    "amenity": "restaurant",
    "beds": "30",
    "cuisine": "regional",
    "ele": "2350",
    "email": "tschoner@aon.at",
    "internet_access": "no",
    "name": "Zupalseehütte",
    "operator": "Familie Tschoner",
    "outdoor_seating": "yes",
    "phone": "+43 4874 5227",
    "shower": "yes",
    "tourism": "alpine_hut",
    "website": "http://www.alm-ferienhaus.com/zupalseehuette/",
    "wikidata": "Q230219",
    "wikipedia": "de:Zupalseehütte"
  }
},
{
  "type": "node",
  "id": 2405555422,
  "lat": 47.0695619,
  "lon": 12.9897155,
  "tags": {
    "name": "Erlehenalm",
    "tourism": "alpine_hut"
  }
},
{
  "type": "node",
  "id": 2405555438,
  "lat": 47.0605289,
  "lon": 13.0101971,
  "tags": {
    "tourism": "alpine_hut"
  }
},
{
  "type": "node",
  "id": 2415975822,
  "lat": 47.5742617,
  "lon": 12.1963548,
  "tags": {
    "addr:city": "Kufstein",
    "addr:country": "AT",
    "addr:housenumber": "14",
    "addr:postcode": "6330",
    "addr:street": "Stadtberg",
    "ele": "1135",
    "fax": "+43 5372 63963",
    "name": "Aschenbrenner",
    "phone": "+43 5372 62220",
    "source": "geoimage.at MaxRes",
    "tourism": "alpine_hut",
    "website": "http://www.berghaus-aschenbrenner.com/"
  }
},
{
  "type": "node",
  "id": 2415975826,
  "lat": 47.5778028,
  "lon": 12.2095745,
  "tags": {
    "addr:city": "Kufstein",
    "addr:country": "AT",
    "addr:housenumber": "8",
    "addr:postcode": "6330",
    "addr:street": "Stadtberg",
    "alt_name": "Brentenjochhütte",
    "ele": "1272",
    "name": "Weinbergerhaus",
    "phone": "+43 5372 65148",
    "source": "knowledge",
    "tourism": "alpine_hut",
    "website": "http://www.weinbergerhaus.at/",
    "wikidata": "Q1772467",
    "wikipedia": "de:Weinbergerhaus"
  }
},
{
  "type": "node",
  "id": 2418595620,
  "lat": 47.5956165,
  "lon": 12.2358256,
  "tags": {
    "addr:city": "Ebbs",
    "addr:country": "AT",
    "addr:housenumber": "10",
    "addr:postcode": "6330",
    "addr:street": "Kaisertal",
    "name": "Hinterkaiserhof",
    "phone": "+43 5372 62574",
    "source": "local_knowledge",
    "tourism": "alpine_hut"
  }
},
{
  "type": "node",
  "id": 2421666145,
  "lat": 47.1950417,
  "lon": 11.3161279,
  "tags": {
    "ele": "2098",
    "email": "birgitzkoepflhaus@aon.at",
    "name": "Birgitzerköpflhaus",
    "phone": "+43 5234 68100",
    "tourism": "alpine_hut",
    "website": "http://www.wildlife.at/",
    "wikidata": "Q865405",
    "wikipedia": "de:Birgitzköpflhütte"
  }
},
{
  "type": "node",
  "id": 2422234374,
  "lat": 47.7513277,
  "lon": 14.5843833,
  "tags": {
    "name": "Schüttbauernalm",
    "tourism": "alpine_hut"
  }
},
{
  "type": "node",
  "id": 2429255620,
  "lat": 47.0450062,
  "lon": 12.9035317,
  "tags": {
    "ele": "1807",
    "name": "Alter Pocher",
    "service": "closed",
    "tourism": "alpine_hut"
  }
},
{
  "type": "node",
  "id": 2429474625,
  "lat": 46.8750750,
  "lon": 13.4215797,
  "tags": {
    "ele": "1512",
    "name": "Kohlmaier Hütte",
    "tourism": "alpine_hut"
  }
},
{
  "type": "node",
  "id": 2429502367,
  "lat": 47.0193385,
  "lon": 13.2689101,
  "tags": {
    "ele": "2240",
    "name": "Celler Hütte",
    "operator": "DAV Sektion Celle",
    "service": "Selbstversorger",
    "tourism": "alpine_hut"
  }
},
{
  "type": "node",
  "id": 2431129061,
  "lat": 47.3721894,
  "lon": 11.0388537,
  "tags": {
    "amenity": "biergarten",
    "cuisine": "regional",
    "name": "Tillfussalm",
    "reservation": "recommended",
    "shower": "yes",
    "tourism": "alpine_hut",
    "website": "http://www.tillfussalm.at"
  }
},
{
  "type": "node",
  "id": 2432652089,
  "lat": 46.7765495,
  "lon": 13.8338544,
  "tags": {
    "access": "yes",
    "addr:postcode": "9563",
    "ele": "1960",
    "name": "Walderhütte",
    "operator": "privat",
    "tourism": "alpine_hut"
  }
},
{
  "type": "node",
  "id": 2432680995,
  "lat": 46.7710603,
  "lon": 13.8494323,
  "tags": {
    "alt_name": "Wöllaner Nock-Haus",
    "ele": "1656",
    "name": "Geigerhütte",
    "tourism": "alpine_hut"
  }
},
{
  "type": "node",
  "id": 2432690397,
  "lat": 46.7703520,
  "lon": 13.8125627,
  "tags": {
    "addr:city": "Afritz",
    "addr:postcode": "9542",
    "addr:street": "Tassach",
    "capacity": "40",
    "ele": "1667",
    "name": "Trangonihütte",
    "opening_hours": "\"Juni bis Mitte November\"",
    "operator": "TVN",
    "tourism": "alpine_hut"
  }
},
{
  "type": "node",
  "id": 2432850115,
  "lat": 47.4395644,
  "lon": 14.4349812,
  "tags": {
    "name": "Scheiblalm",
    "tourism": "alpine_hut"
  }
},
{
  "type": "node",
  "id": 2440740638,
  "lat": 47.5506238,
  "lon": 12.6463207,
  "tags": {
    "information": "guidepost",
    "name": "Schmidt-Zabierow Hütte",
    "operator": "DAV Sektion Passau",
    "tourism": "alpine_hut"
  }
},
{
  "type": "node",
  "id": 2447536598,
  "lat": 46.8441514,
  "lon": 13.7362028,
  "tags": {
    "name": "Winklerhütte",
    "tourism": "alpine_hut"
  }
},
{
  "type": "node",
  "id": 2447543431,
  "lat": 46.8508989,
  "lon": 13.7280507,
  "tags": {
    "name": "Veidlhütte",
    "tourism": "alpine_hut"
  }
},
{
  "type": "node",
  "id": 2454073214,
  "lat": 46.6575538,
  "lon": 12.7798536,
  "tags": {
    "name": "Enderberghütte",
    "tourism": "alpine_hut"
  }
},
{
  "type": "node",
  "id": 2459765690,
  "lat": 47.0071877,
  "lon": 10.1388654,
  "tags": {
    "ele": "2308",
    "massif": "Verwallgruppe",
    "name": "Neue Heilbronner Hütte",
    "operator": "Sektion Heilbronn",
    "tourism": "alpine_hut"
  }
},
{
  "type": "node",
  "id": 2495609781,
  "lat": 47.2065231,
  "lon": 15.1319010,
  "tags": {
    "name": "Walzkogelhütte",
    "opening_hours": "May-Oct",
    "tourism": "alpine_hut"
  }
},
{
  "type": "node",
  "id": 2537772970,
  "lat": 46.9683971,
  "lon": 13.5465560,
  "tags": {
    "ele": "1700",
    "name": "Wölflbauerhütte",
    "tourism": "alpine_hut"
  }
},
{
  "type": "node",
  "id": 2661066008,
  "lat": 47.5240319,
  "lon": 10.5808832,
  "tags": {
    "name": "Seebenalpe",
    "tourism": "alpine_hut"
  }
},
{
  "type": "node",
  "id": 2725160694,
  "lat": 47.0691953,
  "lon": 12.9854152,
  "tags": {
    "name": "Ammererhof",
    "phone": "+4365448112",
    "tourism": "alpine_hut",
    "website": "http://www.ammererhof.at"
  }
},
{
  "type": "node",
  "id": 2839958962,
  "lat": 46.9954919,
  "lon": 14.6242633,
  "tags": {
    "name": "Feldalmhütte",
    "tourism": "alpine_hut"
  }
},
{
  "type": "node",
  "id": 2839982071,
  "lat": 47.0009545,
  "lon": 14.5887281,
  "tags": {
    "name": "St. Martiner Hütte",
    "tourism": "alpine_hut"
  }
},
{
  "type": "node",
  "id": 2870159370,
  "lat": 47.2104956,
  "lon": 15.2122017,
  "tags": {
    "name": "Taschlerhütte",
    "tourism": "alpine_hut"
  }
},
{
  "type": "node",
  "id": 2926459419,
  "lat": 46.4930525,
  "lon": 14.3724974,
  "tags": {
    "tourism": "alpine_hut"
  }
},
{
  "type": "node",
  "id": 2952466275,
  "lat": 47.4071320,
  "lon": 12.0085877,
  "tags": {
    "addr:city": "Wildschönau",
    "addr:housenumber": "140",
    "addr:postcode": "6313",
    "addr:street": "Hohlriedweg, Auffach",
    "addr:suburb": "Auffach",
    "name": "Hohlriederalm",
    "tourism": "alpine_hut"
  }
},
{
  "type": "node",
  "id": 2974698169,
  "lat": 47.5572821,
  "lon": 15.0516680,
  "tags": {
    "building": "yes",
    "name": "Pribitzalm",
    "tourism": "alpine_hut"
  }
},
{
  "type": "node",
  "id": 2975285763,
  "lat": 47.1716550,
  "lon": 13.3508621,
  "tags": {
    "addr:city": "Zederhaus",
    "addr:housenumber": "17",
    "addr:postcode": "5584",
    "addr:street": "Dorf",
    "ele": "1733",
    "name": "Zauneralm",
    "tourism": "alpine_hut"
  }
},
{
  "type": "node",
  "id": 2987728768,
  "lat": 47.0816192,
  "lon": 13.5160991,
  "tags": {
    "name": "Maierhofalm",
    "place": "locality",
    "tourism": "alpine_hut"
  }
},
{
  "type": "node",
  "id": 2987728769,
  "lat": 47.0788319,
  "lon": 13.5208341,
  "tags": {
    "name": "Ochsenalm",
    "place": "locality",
    "tourism": "alpine_hut"
  }
},
{
  "type": "node",
  "id": 2989698725,
  "lat": 46.7861676,
  "lon": 13.7867786,
  "tags": {
    "amenity": "restaurant",
    "cuisine": "regional",
    "name": "Rieserhütte",
    "tourism": "alpine_hut"
  }
},
{
  "type": "node",
  "id": 2996090213,
  "lat": 46.6513856,
  "lon": 12.9614630,
  "tags": {
    "name": "Enzianhütte",
    "tourism": "alpine_hut"
  }
},
{
  "type": "node",
  "id": 3025268068,
  "lat": 47.1122597,
  "lon": 13.0113047,
  "tags": {
    "ele": "1860",
    "name": "Panorama-Alm Mitterasten",
    "phone": "+43-664-2026286",
    "tourism": "alpine_hut",
    "url": "http://www.panoramaalm-rauris.at"
  }
},
{
  "type": "node",
  "id": 3027180001,
  "lat": 46.7866548,
  "lon": 14.9429078,
  "tags": {
    "ele": "1650",
    "name": "Godinger Hütte",
    "tourism": "alpine_hut"
  }
},
{
  "type": "node",
  "id": 3038776470,
  "lat": 47.2280400,
  "lon": 12.1231258,
  "tags": {
    "name": "Gletscherblickalm",
    "source": "survey",
    "tourism": "alpine_hut"
  }
},
{
  "type": "node",
  "id": 3063751728,
  "lat": 46.9612184,
  "lon": 13.5417704,
  "tags": {
    "ele": "1649",
    "name": "Frido-Kordon-Hütte",
    "operator": "OeAV Sektion Gmünd",
    "tourism": "alpine_hut"
  }
},
{
  "type": "node",
  "id": 3075534776,
  "lat": 47.5728640,
  "lon": 12.1121261,
  "tags": {
    "addr:city": "Langkampfen",
    "addr:country": "AT",
    "addr:housenumber": "1",
    "addr:postcode": "6336",
    "addr:street": "Pendling",
    "alt_name": "Kufsteinerhaus am Pendling",
    "capacity": "70",
    "contact:fax": "+43 5376 4333",
    "contact:mobile": "+43 664 2140710",
    "contact:phone": "+43 5376 5374",
    "contact:website": "www.pendlinghaus.at",
    "ele": "1537",
    "name": "Pendlinghaus",
    "shower": "no",
    "source": "knowledge",
    "tourism": "alpine_hut",
    "wikidata": "Q23689394",
    "wikipedia": "de:Pendlinghaus"
  }
},
{
  "type": "node",
  "id": 3163319535,
  "lat": 47.4248966,
  "lon": 10.0653408,
  "tags": {
    "name": "Jausenstation Wildries",
    "tourism": "alpine_hut",
    "wpt_description": "Jausenstation Wildries"
  }
},
{
  "type": "node",
  "id": 3256756018,
  "lat": 46.8234271,
  "lon": 14.6696520,
  "tags": {
    "ele": "1641",
    "name": "Pöllinger Hütte",
    "tourism": "alpine_hut"
  }
},
{
  "type": "node",
  "id": 3323456751,
  "lat": 47.2940751,
  "lon": 10.0047129,
  "tags": {
    "ele": "1752",
    "name": "Hochalpe",
    "tourism": "alpine_hut"
  }
},
{
  "type": "node",
  "id": 3333016626,
  "lat": 47.1229005,
  "lon": 12.7965147,
  "tags": {
    "amenity": "biergarten",
    "ele": "1522",
    "name": "Trauneralm",
    "note": "von Anfang Juni bis Anfang Oktober geöffnet!",
    "tourism": "alpine_hut"
  }
},
{
  "type": "node",
  "id": 3381662522,
  "lat": 46.7809972,
  "lon": 13.7949702,
  "tags": {
    "name": "Klamerhütte Sennerei",
    "tourism": "alpine_hut"
  }
},
{
  "type": "node",
  "id": 3381662523,
  "lat": 46.7815164,
  "lon": 13.7993028,
  "tags": {
    "ele": "1510",
    "name": "Wegerhütte",
    "tourism": "alpine_hut"
  }
},
{
  "type": "node",
  "id": 3420008216,
  "lat": 46.4871222,
  "lon": 14.0162268,
  "tags": {
    "ele": "1450",
    "name": "Rosenkogelhütte",
    "tourism": "alpine_hut"
  }
},
{
  "type": "node",
  "id": 3438677247,
  "lat": 47.1762425,
  "lon": 15.2331345,
  "tags": {
    "name": "Kleinschupfer",
    "tourism": "alpine_hut"
  }
},
{
  "type": "node",
  "id": 3439240816,
  "lat": 47.1750389,
  "lon": 15.2544838,
  "tags": {
    "ele": "996",
    "name": "Mühlbacherhütte",
    "tourism": "alpine_hut"
  }
},
{
  "type": "node",
  "id": 3479300542,
  "lat": 47.2925280,
  "lon": 11.3792723,
  "tags": {
    "addr:city": "Innsbruck",
    "addr:country": "AT",
    "addr:housenumber": "36",
    "addr:postcode": "6020",
    "addr:street": "Umbrückleralmweg",
    "amenity": "restaurant",
    "building": "yes",
    "cuisine": "regional",
    "delivery": "no",
    "ele": "1123",
    "name": "Umbrüggler Alm",
    "opening_hours": "Mo,We-Su 09:00-19:30",
    "operator": "Sonja Schütz",
    "outdoor_seating": "yes",
    "phone": "+43 664 3244 543",
    "tourism": "alpine_hut"
  }
},
{
  "type": "node",
  "id": 3497138378,
  "lat": 46.6990948,
  "lon": 13.3129050,
  "tags": {
    "ele": "1234",
    "name": "Naggler Alm",
    "operator": "Familie Knaller",
    "phone": "+4369910361000",
    "tourism": "alpine_hut",
    "website": "http://www.naggleralmut.at"
  }
},
{
  "type": "node",
  "id": 3610743864,
  "lat": 47.2038352,
  "lon": 15.1735400,
  "tags": {
    "addr:city": "Gratwein-Straßengel",
    "addr:country": "AT",
    "addr:housenumber": "32",
    "addr:place": "Gschnaidt",
    "addr:postcode": "8153",
    "at_bev:addr_date": "2016-10-02",
    "cuisine": "regional",
    "name": "Bockstaller Hütte (zum Holter Fritz)",
    "tourism": "alpine_hut"
  }
},
{
  "type": "node",
  "id": 3620693440,
  "lat": 47.2384761,
  "lon": 9.7266346,
  "tags": {
    "name": "Meßstetter Hütte",
    "tourism": "alpine_hut"
  }
},
{
  "type": "node",
  "id": 3651013112,
  "lat": 47.1559387,
  "lon": 13.4307908,
  "tags": {
    "name": "Bartlhütte",
    "tourism": "alpine_hut"
  }
},
{
  "type": "node",
  "id": 3666572493,
  "lat": 46.8286670,
  "lon": 10.9919142,
  "tags": {
    "addr:city": "Sölden",
    "addr:country": "AT",
    "addr:postcode": "6456",
    "capacity": "93",
    "ele": "2430",
    "internet_access": "no",
    "name": "Langtalereckhütte",
    "operator": "DAV Sektion Karlsruhe",
    "payment:maestro": "no",
    "payment:mastercard": "no",
    "phone": "+43 664 4245824",
    "shower": "yes",
    "tourism": "alpine_hut",
    "website": "http://www.alpenverein-karlsruhe.de/index.php?id=27",
    "wikidata": "Q1805422",
    "wikipedia": "de:Langtalereckhütte",
    "winter_room": "yes"
  }
},
{
  "type": "node",
  "id": 3740357364,
  "lat": 47.2322309,
  "lon": 14.1738654,
  "tags": {
    "name": "Greimhütte",
    "tourism": "alpine_hut"
  }
},
{
  "type": "node",
  "id": 3756950306,
  "lat": 47.4973176,
  "lon": 15.3249623,
  "tags": {
    "fixme": "Wirklich eine Hütte??",
    "name": "Tulzer Alm",
    "tourism": "alpine_hut"
  }
},
{
  "type": "node",
  "id": 3757197285,
  "lat": 47.8289794,
  "lon": 13.6054497,
  "tags": {
    "name": "Hochleckenhaus",
    "operator": "Österreichischer Alpenverein",
    "tourism": "alpine_hut"
  }
},
{
  "type": "node",
  "id": 3925578872,
  "lat": 46.8317813,
  "lon": 14.6746890,
  "tags": {
    "ele": "1542",
    "massif": "Lavanttaler Alpen",
    "name": "Alpenrose",
    "tourism": "alpine_hut"
  }
},
{
  "type": "node",
  "id": 4185378198,
  "lat": 47.4026380,
  "lon": 14.9155025,
  "tags": {
    "tourism": "alpine_hut"
  }
},
{
  "type": "node",
  "id": 4185378200,
  "lat": 47.4026129,
  "lon": 14.9154669,
  "tags": {
    "name": "Almhütte",
    "tourism": "alpine_hut"
  }
},
{
  "type": "node",
  "id": 4225407626,
  "lat": 47.8103344,
  "lon": 13.9859921,
  "tags": {
    "amenity": "restaurant",
    "ele": "1506m",
    "name": "Sepp Huber Hütte (Alpenverein)",
    "tourism": "alpine_hut"
  }
},
{
  "type": "node",
  "id": 4252158087,
  "lat": 47.3631536,
  "lon": 10.8294061,
  "tags": {
    "name": "AlpenRetreat",
    "tourism": "alpine_hut"
  }
},
{
  "type": "node",
  "id": 4281302340,
  "lat": 47.2461630,
  "lon": 13.4658610,
  "tags": {
    "amenity": "restaurant",
    "name": "Südwiener Hütte",
    "operator": "Sektion Oesterr. Gebirgsverein",
    "tourism": "alpine_hut"
  }
},
{
  "type": "node",
  "id": 4294814852,
  "lat": 47.2267787,
  "lon": 9.9313700,
  "tags": {
    "addr:city": "Sonntag",
    "addr:housenumber": "5",
    "addr:postcode": "6731",
    "addr:street": "Partnum",
    "contact:email": "info@huettemartina.at",
    "contact:mobile": "+43 664 73643700",
    "contact:phone": "+43 5554 5505",
    "name": "Hütte Martina",
    "tourism": "alpine_hut",
    "website": "http://www.huettemartina.at/"
  }
},
{
  "type": "node",
  "id": 4328123206,
  "lat": 47.4118356,
  "lon": 14.1789346,
  "tags": {
    "email": "schrabachalm@aon.at",
    "name": "Schrabachalm",
    "operator": "Birgit und Johann Ilsinger",
    "phone": "+436643889150",
    "tourism": "alpine_hut",
    "website": "http://www.schrabachalm.at"
  }
},
{
  "type": "node",
  "id": 4397682352,
  "lat": 46.9562952,
  "lon": 13.0214213,
  "tags": {
    "tourism": "alpine_hut"
  }
},
{
  "type": "node",
  "id": 4397709992,
  "lat": 46.9730428,
  "lon": 12.5189571,
  "tags": {
    "amenity": "restaurant",
    "beds": "16",
    "cuisine": "regional",
    "ele": "1848",
    "email": "zunigalm@tele2.at",
    "internet_access": "no",
    "name": "Zunigalm",
    "outdoor_seating": "yes",
    "phone": "+43 664 9059063",
    "rooms": "2",
    "tourism": "alpine_hut",
    "website": "http://www.hinterbichl.at/lodges/zunigalm.php"
  }
},
{
  "type": "node",
  "id": 4420347989,
  "lat": 47.4829110,
  "lon": 14.7126729,
  "tags": {
    "name": "Jagdhütte Zeiritz 1599m",
    "name:de": "Jagdhütte Zeiritz 1599m",
    "tourism": "alpine_hut"
  }
},
{
  "type": "node",
  "id": 4590779990,
  "lat": 47.1308591,
  "lon": 11.3207088,
  "tags": {
    "addr:street": "Außerrain",
    "internet_access": "wlan",
    "name": "pfurtschell 1",
    "name:de": "pfurtschell 1",
    "tourism": "alpine_hut"
  }
},
{
  "type": "node",
  "id": 4602600799,
  "lat": 47.1281070,
  "lon": 13.0444146,
  "tags": {
    "name": "Feldinghütte",
    "tourism": "alpine_hut"
  }
},
{
  "type": "node",
  "id": 4639767252,
  "lat": 47.0370986,
  "lon": 13.6800860,
  "tags": {
    "name": "Neue Bonner Hütte",
    "tourism": "alpine_hut"
  }
},
{
  "type": "node",
  "id": 4642797867,
  "lat": 47.4818189,
  "lon": 13.2965652,
  "tags": {
    "name": "Sameralm",
    "operator": "Universität Salzburg, Fachbereich Geographie",
    "tourism": "alpine_hut"
  }
},
{
  "type": "node",
  "id": 4659946341,
  "lat": 47.0180714,
  "lon": 13.3696879,
  "tags": {
    "access": "key",
    "contact:email": "oeav-villach@aon.at",
    "contact:phone": "+43 4242 28 95 84",
    "contact:website": "www.alpenverein.at/villach",
    "description:de": "16 Matratzenlager, ganzjährig geöffnet, Zugang mit Hüttenschlüssel des Österreichischen Alpenvereins",
    "ele": "2194",
    "massif": "Ankogelgruppe",
    "name": "Villacher Hütte",
    "note": "Koordinaten vom ÖAV zur Verfügung gestellt",
    "operator": "Österreichischer Alpenverein, Sektion Villach",
    "source": "Bergauf 01.2017",
    "tourism": "alpine_hut"
  }
},
{
  "type": "node",
  "id": 4684762786,
  "lat": 47.4148457,
  "lon": 12.2866674,
  "tags": {
    "addr:city": "Kirchberg in Tirol",
    "addr:housenumber": "17",
    "addr:postcode": "6365",
    "addr:street": "Gaisberg",
    "amenity": "restaurant",
    "capacity": "34",
    "cuisine": "austrian",
    "ele": "1504",
    "email": "kobingerhuette@aon.at",
    "name": "Kobingerhütte",
    "opening_hours": "May-Oct 14:00-10:00",
    "phone": "+43 664 3218553",
    "reservation": "recommended",
    "tourism": "alpine_hut",
    "website": "http://www.kitzbueheler-alpen.com/de/kirchberg/unterkuenfte/details/huette-schutzhuette/kobingerhuette.html"
  }
},
{
  "type": "node",
  "id": 4687022700,
  "lat": 47.3271074,
  "lon": 12.7303599,
  "tags": {
    "name": "Ederhütte",
    "name:de": "Ederhütte",
    "tourism": "alpine_hut"
  }
},
{
  "type": "node",
  "id": 4853837636,
  "lat": 47.4769133,
  "lon": 12.0900276,
  "tags": {
    "addr:city": "Wörgl",
    "addr:country": "AT",
    "addr:housenumber": "30",
    "addr:place": "Winkl",
    "addr:postcode": "6300",
    "addr:street": "Winkl",
    "alt_name": "Möslalm",
    "amenity": "restaurant",
    "at_bev:addr_date": "2016-10-02",
    "cuisine": "regional",
    "name": "Almgasthof Möslalm",
    "opening_hours": "We-Su 09:00-18:00",
    "phone": "+436648906000",
    "smoking": "yes",
    "tourism": "alpine_hut",
    "wheelchair": "no"
  }
},
{
  "type": "node",
  "id": 4855927662,
  "lat": 47.5982470,
  "lon": 15.3213923,
  "tags": {
    "name": "Kobenkogelhütte",
    "tourism": "alpine_hut"
  }
},
{
  "type": "node",
  "id": 4858362723,
  "lat": 47.4569217,
  "lon": 12.5402150,
  "tags": {
    "addr:city": "Fieberbrunn",
    "addr:country": "AT",
    "addr:housenumber": "56",
    "addr:place": "Almen",
    "addr:postcode": "6391",
    "addr:street": "Almen",
    "amenity": "restaurant",
    "at_bev:addr_date": "2016-10-02",
    "cuisine": "regional",
    "name": "Streuböden",
    "source": "bing",
    "tourism": "alpine_hut"
  }
}

  ]
}
