{
  "version": 0.6,
  "generator": "Overpass API",
  "osm3s": {
    "timestamp_osm_base": "2017-06-14T05:41:11Z",
    "timestamp_areas_base": "2017-06-14T05:27:12Z",
    "copyright": "The data included in this document is from www.openstreetmap.org. The data is made available under ODbL."
  },
  "elements": [

{
  "type": "node",
  "id": 30941606,
  "lat": 45.8168426,
  "lon": 6.7249451,
  "tags": {
    "addr:city": "Les Contamines-Montjoie",
    "addr:housenumber": "22",
    "addr:postcode": "74170",
    "addr:street": "Route du Plan du Moulin",
    "ele": "1164",
    "email": "chaletdescontamines@ffcam.fr",
    "name": "Chalet du CAF Contamines",
    "operator": "CAF",
    "phone": "+33 4 50 47 00 88",
    "tourism": "alpine_hut",
    "website": "http://chaletdescontamines.ffcam.fr/"
  }
},
{
  "type": "node",
  "id": 249831619,
  "lat": 45.5543571,
  "lon": 6.9216426,
  "tags": {
    "name": "Refuge Le Monal",
    "tourism": "alpine_hut"
  }
},
{
  "type": "node",
  "id": 272864187,
  "lat": 45.2643588,
  "lon": 6.4347110,
  "tags": {
    "ele": "1700",
    "name": "Baraque de Bonnant",
    "tourism": "alpine_hut"
  }
},
{
  "type": "node",
  "id": 279196636,
  "lat": 44.0957537,
  "lon": 7.3563627,
  "tags": {
    "name": "Madone de Fenestre",
    "tourism": "alpine_hut"
  }
},
{
  "type": "node",
  "id": 279452438,
  "lat": 44.9177196,
  "lon": 6.4156203,
  "tags": {
    "name": "Chalet Refuge du Pré de Madame Carle",
    "source": "http://www.refuges.info",
    "tourism": "alpine_hut"
  }
},
{
  "type": "node",
  "id": 283313303,
  "lat": 45.9055659,
  "lon": 6.8826998,
  "tags": {
    "ele": "2233",
    "name": "Refuge du Plan de L'Aiguille",
    "tourism": "alpine_hut",
    "wikidata": "Q2017305",
    "wikipedia": "fr:Refuge du Plan de l'Aiguille"
  }
},
{
  "type": "node",
  "id": 288877825,
  "lat": 45.7373243,
  "lon": 6.7791862,
  "tags": {
    "ele": "1870",
    "name": "Refuge des Mottets",
    "tourism": "alpine_hut"
  }
},
{
  "type": "node",
  "id": 292072731,
  "lat": 42.2367985,
  "lon": 8.9742146,
  "tags": {
    "ele": "1621",
    "name": "Bergerie de Vaccaghia",
    "tourism": "alpine_hut"
  }
},
{
  "type": "node",
  "id": 301010563,
  "lat": 44.8008901,
  "lon": 6.5143653,
  "tags": {
    "name": "Refuge de La Pousterle",
    "tourism": "alpine_hut"
  }
},
{
  "type": "node",
  "id": 309323770,
  "lat": 42.3530025,
  "lon": 8.9078123,
  "tags": {
    "tourism": "alpine_hut"
  }
},
{
  "type": "node",
  "id": 320917986,
  "lat": 45.7809910,
  "lon": 6.6918046,
  "tags": {
    "ele": "1873",
    "name": "Chalet/Refuge La Roselette",
    "tourism": "alpine_hut"
  }
},
{
  "type": "node",
  "id": 350736546,
  "lat": 45.1893180,
  "lon": 5.5846386,
  "tags": {
    "name": "Refuge des Feneys",
    "tourism": "alpine_hut"
  }
},
{
  "type": "node",
  "id": 382492843,
  "lat": 46.0015908,
  "lon": 6.9471058,
  "tags": {
    "ele": "1470",
    "name": "Refuge du Tour (CAF)",
    "source": "cadastre-dgi-fr source : Direction Générale des Impôts - Cadastre. Mise à jour : 2009",
    "tourism": "alpine_hut"
  }
},
{
  "type": "node",
  "id": 412523370,
  "lat": 42.4455915,
  "lon": 2.3572067,
  "tags": {
    "name": "Refuge Da Silva",
    "tourism": "alpine_hut"
  }
},
{
  "type": "node",
  "id": 415534359,
  "lat": 47.8079174,
  "lon": 7.1011544,
  "tags": {
    "name": "Gîte d'étape Thann",
    "tourism": "alpine_hut"
  }
},
{
  "type": "node",
  "id": 415755084,
  "lat": 47.9523388,
  "lon": 7.0192593,
  "tags": {
    "name": "Refuge du Hahnenbrunnen",
    "tourism": "alpine_hut"
  }
},
{
  "type": "node",
  "id": 415764897,
  "lat": 48.0532503,
  "lon": 7.0256727,
  "tags": {
    "ele": "1200",
    "name": "Refuge des Trois Fours",
    "operator": "Club alpin francais",
    "phone": "+33 3 89 77 32 59",
    "tourism": "alpine_hut",
    "website": "http://www.chaletrefuge3fours.ffcam.fr"
  }
},
{
  "type": "node",
  "id": 420770540,
  "lat": 42.4421933,
  "lon": 8.8541842,
  "tags": {
    "ele": "555",
    "fax": "+33 4 95 65 81 86",
    "name": "Auberge Bonifatu",
    "phone": "+33 4 95 65 09 98",
    "tourism": "alpine_hut",
    "website": "auberge-foret-bonifatu.com"
  }
},
{
  "type": "node",
  "id": 435925652,
  "lat": 45.1924497,
  "lon": 5.9673664,
  "tags": {
    "ele": "1952",
    "name": "Refuge Jean Collet",
    "tourism": "alpine_hut"
  }
},
{
  "type": "node",
  "id": 438353415,
  "lat": 44.0702733,
  "lon": 7.5128543,
  "tags": {
    "description": "http://www.neige-merveilles.com/",
    "name": "Gite Neige et Merveilles",
    "tourism": "alpine_hut"
  }
},
{
  "type": "node",
  "id": 438353417,
  "lat": 44.0684313,
  "lon": 7.4946951,
  "tags": {
    "name": "Grange de Valaure",
    "tourism": "alpine_hut"
  }
},
{
  "type": "node",
  "id": 438353421,
  "lat": 44.0574452,
  "lon": 7.4518778,
  "tags": {
    "ele": "2130",
    "internet_access": "no",
    "internet_access:fee": "no",
    "name": "Refuge des Merveilles",
    "tourism": "alpine_hut"
  }
},
{
  "type": "node",
  "id": 439653930,
  "lat": 42.2198092,
  "lon": 8.9807454,
  "tags": {
    "ele": "1601",
    "name": "Refuge de Manganu",
    "phone": "+33 4 95 51 79 00",
    "tourism": "alpine_hut"
  }
},
{
  "type": "node",
  "id": 440366447,
  "lat": 42.2888107,
  "lon": 8.8368588,
  "tags": {
    "name": "Bergerie de Piazze",
    "tourism": "alpine_hut"
  }
},
{
  "type": "node",
  "id": 440374694,
  "lat": 42.3498761,
  "lon": 8.9238140,
  "tags": {
    "ele": "1623",
    "name": "Bergerie de Tilarba",
    "tourism": "alpine_hut"
  }
},
{
  "type": "node",
  "id": 440388442,
  "lat": 42.3806300,
  "lon": 9.0101357,
  "tags": {
    "name": "Bergerie d´Urcula",
    "tourism": "alpine_hut"
  }
},
{
  "type": "node",
  "id": 440444684,
  "lat": 42.3157041,
  "lon": 8.8405839,
  "tags": {
    "ele": "1097",
    "name": "Refuge de Puscaghia",
    "tourism": "alpine_hut"
  }
},
{
  "type": "node",
  "id": 440473262,
  "lat": 42.2785980,
  "lon": 8.7654645,
  "tags": {
    "ele": "961",
    "name": "Bergerie de Corgola",
    "tourism": "alpine_hut"
  }
},
{
  "type": "node",
  "id": 440473299,
  "lat": 42.2730262,
  "lon": 8.7529670,
  "tags": {
    "name": "Bergerie de Larata",
    "tourism": "alpine_hut"
  }
},
{
  "type": "node",
  "id": 440903535,
  "lat": 45.6482732,
  "lon": 6.6638269,
  "tags": {
    "capacity": "30",
    "ele": "2520",
    "name": "Refuge de Presset",
    "name:it": "Rifugio de Presset",
    "tourism": "alpine_hut",
    "wikidata": "Q3423178",
    "wikipedia": "fr:Refuge de Presset"
  }
},
{
  "type": "node",
  "id": 442398683,
  "lat": 45.0657425,
  "lon": 5.9627256,
  "tags": {
    "ele": "2007",
    "name": "Chalet communal",
    "tourism": "alpine_hut"
  }
},
{
  "type": "node",
  "id": 447801565,
  "lat": 44.9058046,
  "lon": 6.3146750,
  "tags": {
    "c2c:id": "104128",
    "ele": "1909",
    "name": "Refuge du Carrelet",
    "source": "camp to camp",
    "tourism": "alpine_hut"
  }
},
{
  "type": "node",
  "id": 447801569,
  "lat": 44.8700285,
  "lon": 6.3320198,
  "tags": {
    "c2c:id": "104103",
    "capacity": "120",
    "ele": "2577",
    "name": "Refuge de la Pilatte",
    "operator": "Club Alpin Français",
    "source": "camp to camp; http://refugelapilatte.ffcam.fr/",
    "tourism": "alpine_hut"
  }
},
{
  "type": "node",
  "id": 451703414,
  "lat": 45.3919079,
  "lon": 6.7905185,
  "tags": {
    "ele": "2524",
    "name": "Refuge du Col de la Vanoise (Felix Faure)",
    "tourism": "alpine_hut"
  }
},
{
  "type": "node",
  "id": 451703415,
  "lat": 45.4165054,
  "lon": 6.7329286,
  "tags": {
    "name": "Refuge du Grand Bec",
    "tourism": "alpine_hut"
  }
},
{
  "type": "node",
  "id": 451703419,
  "lat": 45.3895634,
  "lon": 6.7527105,
  "tags": {
    "name": "Refuge des Barmettes",
    "tourism": "alpine_hut"
  }
},
{
  "type": "node",
  "id": 469828410,
  "lat": 42.7826787,
  "lon": 1.2694007,
  "tags": {
    "name": "Gite de Bidous (L'escolan)",
    "tourism": "alpine_hut",
    "website": "http://lescolan.com/"
  }
},
{
  "type": "node",
  "id": 472309571,
  "lat": 44.7360991,
  "lon": 6.4433145,
  "tags": {
    "ele": "1680",
    "name": "Les Enflous",
    "tourism": "alpine_hut"
  }
},
{
  "type": "node",
  "id": 472309574,
  "lat": 44.7376101,
  "lon": 6.4443039,
  "tags": {
    "name": "Gîte/refuge L'école de Dormillouse",
    "tourism": "alpine_hut"
  }
},
{
  "type": "node",
  "id": 473213371,
  "lat": 45.8391236,
  "lon": 6.7599346,
  "tags": {
    "ele": "1564",
    "name": "Auberge de Miage",
    "tourism": "alpine_hut"
  }
},
{
  "type": "node",
  "id": 473213507,
  "lat": 45.7784449,
  "lon": 6.7142514,
  "tags": {
    "addr:city": "Les Contamines-Montjoie",
    "addr:postcode": "74170",
    "addr:street": "Chemin du Col du Bonhomme",
    "name": "Chalet - Refuge de Nant Borrant",
    "tourism": "alpine_hut"
  }
},
{
  "type": "node",
  "id": 474976108,
  "lat": 42.7199090,
  "lon": 0.0123302,
  "tags": {
    "capacity": "60",
    "ele": "2027",
    "name": "Refuge des Espuguettes",
    "operator": "Parc National des Pyrénées",
    "tourism": "alpine_hut"
  }
},
{
  "type": "node",
  "id": 478182138,
  "lat": 45.2490845,
  "lon": 6.0784950,
  "tags": {
    "ele": "2135",
    "name": "Refuge des 7 Laux",
    "tourism": "alpine_hut"
  }
},
{
  "type": "node",
  "id": 479392592,
  "lat": 42.7793901,
  "lon": -0.1241508,
  "tags": {
    "capacity": "31",
    "drinking_water": "yes",
    "ele": "2651",
    "name": "Refuge de Bayssellance",
    "opening_hours": "29/05 - 30/09",
    "operator": "Club Alpin de Bordeaux",
    "shower": "yes",
    "tourism": "alpine_hut",
    "website": "http://refugebayssellance.ffcam.fr/",
    "wikidata": "Q3423105",
    "wikipedia": "fr:Refuge Bayssellance",
    "winter_room": "yes"
  }
},
{
  "type": "node",
  "id": 482739672,
  "lat": 42.7226795,
  "lon": 0.4199078,
  "tags": {
    "ele": "1690",
    "name": "Refuge de la Soula",
    "tourism": "alpine_hut"
  }
},
{
  "type": "node",
  "id": 483570297,
  "lat": 42.7038337,
  "lon": 0.5081315,
  "tags": {
    "capacity": "80",
    "ele": "2570",
    "name": "Refuge du Portillon (Jean Arlaud)",
    "opening_hours": "15 mai - 30 oct",
    "operator": "Club Alpin Français",
    "phone": "+33561793815",
    "reservation": "recommended",
    "shower": "yes",
    "tourism": "alpine_hut",
    "winter_room": "yes"
  }
},
{
  "type": "node",
  "id": 484896953,
  "lat": 44.9529649,
  "lon": 6.0975082,
  "tags": {
    "access": "yes",
    "capacity": "70",
    "description": "Manned refuge providing food and bunks from Jun-Sep, also accessible in winter",
    "drinking_water": "yes",
    "ele": "2112",
    "matress": "yes",
    "name": "Refuge de la Muzelle",
    "shower": "yes",
    "toilets": "yes",
    "tourism": "alpine_hut"
  }
},
{
  "type": "node",
  "id": 503688752,
  "lat": 45.9241143,
  "lon": 6.9552410,
  "tags": {
    "ele": "2841",
    "name": "Refuge de la Charpoua",
    "operator": "Compagnie des guides de Chamonix",
    "tourism": "alpine_hut",
    "wikidata": "Q3423197",
    "wikipedia": "fr:Refuge de la Charpoua"
  }
},
{
  "type": "node",
  "id": 503688807,
  "lat": 45.8949992,
  "lon": 6.9807628,
  "tags": {
    "ele": "2431",
    "name": "Refuge de Leschaux",
    "tourism": "alpine_hut",
    "wikidata": "Q1578333",
    "wikipedia": "fr:Refuge de Leschaux"
  }
},
{
  "type": "node",
  "id": 506075082,
  "lat": 42.8510822,
  "lon": 1.1746415,
  "tags": {
    "name": "Gite d'Aunac",
    "tourism": "alpine_hut"
  }
},
{
  "type": "node",
  "id": 513372065,
  "lat": 42.8540835,
  "lon": 1.7950874,
  "tags": {
    "name": "Cabane de la Taulat",
    "tourism": "alpine_hut"
  }
},
{
  "type": "node",
  "id": 515101875,
  "lat": 42.8289517,
  "lon": 1.8016564,
  "tags": {
    "name": "Jasse de Pratmau",
    "tourism": "alpine_hut"
  }
},
{
  "type": "node",
  "id": 519720561,
  "lat": 42.5718211,
  "lon": 2.4710972,
  "tags": {
    "name": "Mas Malet",
    "tourism": "alpine_hut"
  }
},
{
  "type": "node",
  "id": 519720623,
  "lat": 42.5506229,
  "lon": 2.4901795,
  "tags": {
    "name": "La Mouline",
    "tourism": "alpine_hut"
  }
},
{
  "type": "node",
  "id": 527834300,
  "lat": 42.6257067,
  "lon": 2.1647298,
  "tags": {
    "name": "Refuge des Estanyols",
    "tourism": "alpine_hut"
  }
},
{
  "type": "node",
  "id": 536431939,
  "lat": 42.4606413,
  "lon": 2.1756704,
  "tags": {
    "name": "Refuge de l'Orri",
    "tourism": "alpine_hut"
  }
},
{
  "type": "node",
  "id": 540391015,
  "lat": 44.7004568,
  "lon": 7.0514305,
  "tags": {
    "ele": "2460",
    "name": "Refuge Viso",
    "tourism": "alpine_hut",
    "website": "http://clubalpin.briancon.free.fr/viso.html",
    "wikidata": "Q3935674",
    "wikipedia": "it:Rifugio Viso"
  }
},
{
  "type": "node",
  "id": 556356004,
  "lat": 46.1879595,
  "lon": 5.8702031,
  "tags": {
    "amenity": "shelter",
    "ele": "1446",
    "name": "La Poutouille",
    "tourism": "alpine_hut"
  }
},
{
  "type": "node",
  "id": 582269214,
  "lat": 45.0112896,
  "lon": 6.3245596,
  "tags": {
    "access": "public",
    "capacity": "18",
    "drinking_water": "no",
    "ele": "3450",
    "heating": "no",
    "mattress": "yes",
    "name": "Refuge de l'Aigle",
    "operator": "Club Alpin Français de Briançon",
    "shower": "no",
    "toilets": "yes",
    "tourism": "alpine_hut",
    "wikidata": "Q3423190",
    "wikipedia": "fr:Refuge de l'Aigle"
  }
},
{
  "type": "node",
  "id": 588367152,
  "lat": 42.6031953,
  "lon": 2.2359092,
  "tags": {
    "name": "Les Corts d'Avall",
    "tourism": "alpine_hut"
  }
},
{
  "type": "node",
  "id": 590067786,
  "lat": 42.6185707,
  "lon": 2.2396096,
  "tags": {
    "name": "Refuge de la Mouline",
    "name:ca": "Refugi de la Molina",
    "tourism": "alpine_hut"
  }
},
{
  "type": "node",
  "id": 605643071,
  "lat": 42.5288414,
  "lon": 2.4015948,
  "tags": {
    "amenity": "toilets",
    "name": "Refuge de Saint-Martin du Canigou",
    "tourism": "alpine_hut"
  }
},
{
  "type": "node",
  "id": 606374063,
  "lat": 45.3969460,
  "lon": 6.8822055,
  "tags": {
    "ele": "2487",
    "name": "Refuge de la Leisse",
    "tourism": "alpine_hut",
    "url": "http://www.vanoise-refugelaleisse.com/"
  }
},
{
  "type": "node",
  "id": 611845738,
  "lat": 45.3534696,
  "lon": 6.7240279,
  "tags": {
    "name": "Refuge de la Valette",
    "tourism": "alpine_hut"
  }
},
{
  "type": "node",
  "id": 611858810,
  "lat": 45.3510598,
  "lon": 6.6871480,
  "tags": {
    "tourism": "alpine_hut"
  }
},
{
  "type": "node",
  "id": 622567141,
  "lat": 46.6251038,
  "lon": 6.1866994,
  "tags": {
    "ele": "1370",
    "name": "La Jaique",
    "tourism": "alpine_hut"
  }
},
{
  "type": "node",
  "id": 633499249,
  "lat": 42.8519137,
  "lon": -0.1472555,
  "tags": {
    "name": "Chalet du Clot",
    "tourism": "alpine_hut"
  }
},
{
  "type": "node",
  "id": 634094875,
  "lat": 46.4250830,
  "lon": 6.0312220,
  "tags": {
    "name": "Chalet de la frasse",
    "tourism": "alpine_hut"
  }
},
{
  "type": "node",
  "id": 652148448,
  "lat": 42.9749478,
  "lon": -0.6017420,
  "tags": {
    "name": "Despourrins",
    "tourism": "alpine_hut"
  }
},
{
  "type": "node",
  "id": 669919828,
  "lat": 42.9105258,
  "lon": -0.6190864,
  "tags": {
    "name": "Gîte d'Etape de Lhers",
    "tourism": "alpine_hut"
  }
},
{
  "type": "node",
  "id": 687026480,
  "lat": 46.9764261,
  "lon": 4.6435522,
  "tags": {
    "amenity": "shelter",
    "name": "CAF - Refuge de Vauchignon",
    "source": "data.gouv.fr:Le ministère des droits des femmes, de la ville, de la jeunesse et des sports - 2014",
    "tourism": "alpine_hut"
  }
},
{
  "type": "node",
  "id": 778113936,
  "lat": 41.9624898,
  "lon": 9.2590277,
  "tags": {
    "name": "Catastaghju",
    "shelter": "yes",
    "tourism": "alpine_hut"
  }
},
{
  "type": "node",
  "id": 794867614,
  "lat": 45.9687813,
  "lon": 6.5874396,
  "tags": {
    "amenity": "shelter",
    "name": "Refuge de Doran",
    "source": "data.gouv.fr:Le ministère des droits des femmes, de la ville, de la jeunesse et des sports - 2014",
    "tourism": "alpine_hut"
  }
},
{
  "type": "node",
  "id": 794867822,
  "lat": 45.9790540,
  "lon": 6.6705520,
  "tags": {
    "amenity": "shelter",
    "ele": "1597",
    "name": "Refuge de Véran",
    "source": "data.gouv.fr:Le ministère des droits des femmes, de la ville, de la jeunesse et des sports - 2014",
    "tourism": "alpine_hut",
    "wikidata": "Q3423188",
    "wikipedia": "fr:Refuge de Véran"
  }
},
{
  "type": "node",
  "id": 794868203,
  "lat": 45.9488140,
  "lon": 6.5926110,
  "tags": {
    "amenity": "shelter",
    "name": "Refuge de Tornieux",
    "source": "data.gouv.fr:Le ministère des droits des femmes, de la ville, de la jeunesse et des sports - 2014",
    "tourism": "alpine_hut"
  }
},
{
  "type": "node",
  "id": 838082710,
  "lat": 45.1234353,
  "lon": 6.5998085,
  "tags": {
    "ele": "2500",
    "name": "Refuge du Mont Thabor",
    "tourism": "alpine_hut",
    "wikidata": "Q3423247",
    "wikipedia": "fr:Refuge du Mont-Thabor"
  }
},
{
  "type": "node",
  "id": 842156059,
  "lat": 43.6914173,
  "lon": 2.6738768,
  "tags": {
    "name": "Refuge de Picotalen",
    "tourism": "alpine_hut"
  }
},
{
  "type": "node",
  "id": 848826073,
  "lat": 44.8745084,
  "lon": 6.3836091,
  "tags": {
    "ele": "2626",
    "name": "Ancien Refuge du Sélé Refuge d'Hiver",
    "tourism": "alpine_hut"
  }
},
{
  "type": "node",
  "id": 860574827,
  "lat": 45.0362280,
  "lon": 4.0599092,
  "tags": {
    "name": "Gite d'Eape Muncipial",
    "tourism": "alpine_hut"
  }
},
{
  "type": "node",
  "id": 864499590,
  "lat": 45.4301948,
  "lon": 6.5308563,
  "tags": {
    "amenity": "shelter",
    "name": "Refuge de la Traie",
    "source": "data.gouv.fr:Le ministère des droits des femmes, de la ville, de la jeunesse et des sports - 2014",
    "tourism": "alpine_hut"
  }
},
{
  "type": "node",
  "id": 866396156,
  "lat": 45.3374536,
  "lon": 6.6324748,
  "tags": {
    "name": "Refuge du Saut",
    "tourism": "alpine_hut"
  }
},
{
  "type": "node",
  "id": 866809246,
  "lat": 45.4014612,
  "lon": 6.9919534,
  "tags": {
    "name": "Refuge du Fond des Fours",
    "tourism": "alpine_hut"
  }
},
{
  "type": "node",
  "id": 868650513,
  "lat": 45.5706842,
  "lon": 6.5152232,
  "tags": {
    "name": "Chalet de Lachat",
    "tourism": "alpine_hut"
  }
},
{
  "type": "node",
  "id": 870030342,
  "lat": 45.4473423,
  "lon": 6.7815938,
  "tags": {
    "name": "Le Laisonnay",
    "tourism": "alpine_hut"
  }
},
{
  "type": "node",
  "id": 873767648,
  "lat": 47.8322921,
  "lon": 6.9064098,
  "tags": {
    "amenity": "restaurant",
    "cuisine": "alsatian",
    "ele": "830",
    "email": "contact@auberge-refuge-neuweiher.fr",
    "name": "Auberge du refuge du Neuweiher",
    "opening_hours": "Apr 1 - Nov 11",
    "phone": "+33 389 820209",
    "tourism": "alpine_hut",
    "website": "www.auberge-refuge-neuweiher.fr"
  }
},
{
  "type": "node",
  "id": 879971268,
  "lat": 48.3751730,
  "lon": 7.3740375,
  "tags": {
    "name": "Refuge Gruckert",
    "tourism": "alpine_hut"
  }
},
{
  "type": "node",
  "id": 884218516,
  "lat": 42.9957513,
  "lon": -0.8099860,
  "tags": {
    "ele": "630",
    "name": "Auberge Elichalt",
    "tourism": "alpine_hut"
  }
},
{
  "type": "node",
  "id": 885629370,
  "lat": 42.3553226,
  "lon": 9.4487192,
  "tags": {
    "ele": "600",
    "name": "Gile d'etape",
    "tourism": "alpine_hut"
  }
},
{
  "type": "node",
  "id": 899112706,
  "lat": 42.6996187,
  "lon": 0.6421952,
  "tags": {
    "ele": "2239",
    "name": "Refuge de Vénasque",
    "tourism": "alpine_hut"
  }
},
{
  "type": "node",
  "id": 905119166,
  "lat": 45.4805675,
  "lon": 6.8388298,
  "tags": {
    "name": "Refuge Entre-le-Lac",
    "tourism": "alpine_hut"
  }
},
{
  "type": "node",
  "id": 909309129,
  "lat": 42.6757698,
  "lon": 2.2604490,
  "tags": {
    "tourism": "alpine_hut"
  }
},
{
  "type": "node",
  "id": 914408806,
  "lat": 45.4629423,
  "lon": 6.7919690,
  "tags": {
    "name": "Refuge de Plaisance",
    "tourism": "alpine_hut"
  }
},
{
  "type": "node",
  "id": 914474084,
  "lat": 45.6534051,
  "lon": 6.4059592,
  "tags": {
    "tourism": "alpine_hut"
  }
},
{
  "type": "node",
  "id": 937013041,
  "lat": 43.5679141,
  "lon": 2.8019930,
  "tags": {
    "ele": "981",
    "name": "Refuge du Camp Blanc",
    "tourism": "alpine_hut"
  }
},
{
  "type": "node",
  "id": 957015586,
  "lat": 43.0007100,
  "lon": -0.2157460,
  "tags": {
    "amenity": "bar",
    "name": "Refuge du Haugarou",
    "tourism": "alpine_hut"
  }
},
{
  "type": "node",
  "id": 963677950,
  "lat": 42.5016914,
  "lon": 2.4077997,
  "tags": {
    "name": "Mariailles",
    "note": "217",
    "source": "Association \"Refuges et cabanes des Pyrénées\"",
    "tourism": "alpine_hut"
  }
},
{
  "type": "node",
  "id": 963757492,
  "lat": 42.6219164,
  "lon": 2.0111841,
  "tags": {
    "name": "Refuge des Camporells",
    "note": "80",
    "source": "Association \"Refuges et cabanes des Pyrénées\"",
    "tourism": "alpine_hut"
  }
},
{
  "type": "node",
  "id": 963763000,
  "lat": 42.7550775,
  "lon": 1.8635796,
  "tags": {
    "ele": "1600",
    "name": "Refuge Chioula",
    "note": "344",
    "source": "Association \"Refuges et cabanes des Pyrénées\"",
    "tourism": "alpine_hut"
  }
},
{
  "type": "node",
  "id": 963811473,
  "lat": 42.8582106,
  "lon": -0.2888318,
  "tags": {
    "ele": "2072",
    "name": "Refuge de Larribet",
    "note": "194",
    "operator": "CAF",
    "phone": "+33 5 62 42 13 67",
    "tourism": "alpine_hut",
    "website": "http://refugedelarribet.ffcam.fr/"
  }
},
{
  "type": "node",
  "id": 968203016,
  "lat": 42.7973791,
  "lon": 1.0724123,
  "tags": {
    "name": "Refuge des Estagnous - castillonais",
    "ref": "129",
    "source": "Association \"Refuges et cabanes des Pyrénées\"",
    "tourism": "alpine_hut"
  }
},
{
  "type": "node",
  "id": 968203416,
  "lat": 42.7210772,
  "lon": 0.6550131,
  "tags": {
    "name": "Hospice de France",
    "note": "167",
    "source": "Association \"Refuges et cabanes des Pyrénées\"",
    "tourism": "alpine_hut"
  }
},
{
  "type": "node",
  "id": 968204819,
  "lat": 42.9343460,
  "lon": 0.7606410,
  "tags": {
    "amenity": "shelter",
    "ele": "1470",
    "name": "Gîte de Larreix - luchonais",
    "note": "677",
    "operator": "Commune de Sengouagnet",
    "reservation": "required",
    "source": "Association \"Refuges et cabanes des Pyrénées\"",
    "tourism": "alpine_hut"
  }
},
{
  "type": "node",
  "id": 990113898,
  "lat": 43.7220839,
  "lon": 3.5360715,
  "tags": {
    "name": "Maison forestière des Plôs",
    "operator": "Office National des Forêts",
    "tourism": "alpine_hut"
  }
},
{
  "type": "node",
  "id": 1000814895,
  "lat": 44.8701616,
  "lon": 5.4212344,
  "tags": {
    "ele": "981",
    "name": "Gîte des Liottards",
    "tourism": "alpine_hut"
  }
},
{
  "type": "node",
  "id": 1015841158,
  "lat": 44.8099443,
  "lon": 6.3148140,
  "tags": {
    "capacity": "44",
    "ele": "2020",
    "name": "Refuge de Chabournéou",
    "tourism": "alpine_hut"
  }
},
{
  "type": "node",
  "id": 1015846988,
  "lat": 44.8415031,
  "lon": 6.2045455,
  "tags": {
    "ele": "2344",
    "name": "Refuge de l'Olan",
    "tourism": "alpine_hut"
  }
},
{
  "type": "node",
  "id": 1015862286,
  "lat": 44.8446321,
  "lon": 6.1465931,
  "tags": {
    "ele": "1980",
    "name": "Refuge des Souffles",
    "tourism": "alpine_hut"
  }
},
{
  "type": "node",
  "id": 1026461883,
  "lat": 45.3460882,
  "lon": 6.8374955,
  "tags": {
    "name": "Refuge du Plan du Lac",
    "tourism": "alpine_hut"
  }
},
{
  "type": "node",
  "id": 1026480430,
  "lat": 45.1634837,
  "lon": 6.8650927,
  "tags": {
    "name": "Refuge d'Ambin",
    "tourism": "alpine_hut"
  }
},
{
  "type": "node",
  "id": 1029231070,
  "lat": 44.8343948,
  "lon": 6.3612020,
  "tags": {
    "capacity": "22",
    "ele": "2083",
    "name": "Refuge des Bans",
    "source": "bing aerial",
    "tourism": "alpine_hut"
  }
},
{
  "type": "node",
  "id": 1064369101,
  "lat": 48.6327923,
  "lon": 7.2901391,
  "tags": {
    "name": "Refuge du Grand Tétras",
    "source": "cadastre-dgi-fr source : Direction Générale des Impôts - Cadastre. Mise à jour : 2009",
    "tourism": "alpine_hut"
  }
},
{
  "type": "node",
  "id": 1072616451,
  "lat": 46.7471516,
  "lon": 6.3520730,
  "tags": {
    "ele": "1303",
    "name": "Chalet du Gros Morond",
    "operator": "CAF",
    "tourism": "alpine_hut"
  }
},
{
  "type": "node",
  "id": 1133934708,
  "lat": 45.2038803,
  "lon": 6.1753673,
  "tags": {
    "ele": "2430",
    "name": "Refuge de l'Étendard",
    "tourism": "alpine_hut"
  }
},
{
  "type": "node",
  "id": 1135608646,
  "lat": 45.0269656,
  "lon": 6.2710800,
  "tags": {
    "ele": "2506",
    "food": "yes",
    "name": "Refuge Évariste Chancel",
    "toilets": "yes",
    "tourism": "alpine_hut"
  }
},
{
  "type": "node",
  "id": 1135691098,
  "lat": 45.1892659,
  "lon": 5.9355356,
  "tags": {
    "ele": "1735",
    "name": "Refuge du Pré du Mollard",
    "tourism": "alpine_hut"
  }
},
{
  "type": "node",
  "id": 1140556838,
  "lat": 45.1182130,
  "lon": 6.3752459,
  "tags": {
    "ele": "2260",
    "name": "Refuge des Aiguilles d'Arves",
    "operator": "CAF",
    "tourism": "alpine_hut",
    "wikidata": "Q3423219",
    "wikipedia": "fr:Refuge des Aiguilles d'Arves"
  }
},
{
  "type": "node",
  "id": 1141437883,
  "lat": 42.8244091,
  "lon": 0.2075389,
  "tags": {
    "name": "Refuge-auberge de l'Oule",
    "note": "293",
    "tourism": "alpine_hut"
  }
},
{
  "type": "node",
  "id": 1141437891,
  "lat": 42.8532231,
  "lon": 0.2097148,
  "tags": {
    "name": "Refuge de Bastan",
    "note": "50",
    "tourism": "alpine_hut"
  }
},
{
  "type": "node",
  "id": 1141437931,
  "lat": 42.8262519,
  "lon": 0.1692271,
  "tags": {
    "name": "Refuge Hotel d'Oredon",
    "note": "952",
    "tourism": "alpine_hut"
  }
},
{
  "type": "node",
  "id": 1215114639,
  "lat": 48.6875786,
  "lon": -0.9735076,
  "tags": {
    "name": "Gîte d'Etape",
    "tourism": "alpine_hut"
  }
},
{
  "type": "node",
  "id": 1241687884,
  "lat": 42.6691937,
  "lon": 2.2528265,
  "tags": {
    "name": "Refuge Pastoral du Callau",
    "tourism": "alpine_hut"
  }
},
{
  "type": "node",
  "id": 1287532822,
  "lat": 44.1157514,
  "lon": 7.2796747,
  "tags": {
    "tourism": "alpine_hut"
  }
},
{
  "type": "node",
  "id": 1311563250,
  "lat": 48.1616733,
  "lon": 7.1271435,
  "tags": {
    "name": "Refuge de l'Étang du Devin",
    "phone": "+33 3 89 47 20 29",
    "tourism": "alpine_hut"
  }
},
{
  "type": "node",
  "id": 1325754511,
  "lat": 45.0295722,
  "lon": 5.9799349,
  "tags": {
    "email": "giteleschuss@wanadoo.fr",
    "name": "Le Schuss",
    "phone": "+33 4 76 80 46 60",
    "tourism": "alpine_hut",
    "website": "http://www.giteleschuss.com/"
  }
},
{
  "type": "node",
  "id": 1331256236,
  "lat": 45.0706895,
  "lon": 6.6226840,
  "tags": {
    "addr:city": "Névache",
    "addr:postcode": "05100",
    "contact:email": "info@iremagi.it",
    "contact:phone": "+33 4 96 11 29 20",
    "contact:website": "http://www.iremagi.it/",
    "ele": "1768",
    "name": "Rifugio I Re Magi",
    "name:fr": "Refuge I Re Magi",
    "tourism": "alpine_hut"
  }
},
{
  "type": "node",
  "id": 1331256238,
  "lat": 45.0696670,
  "lon": 6.6231152,
  "tags": {
    "addr:city": "Névache",
    "addr:postcode": "05100",
    "capacity": "34",
    "contact:email": "terzoalpini@terzoalpini.com",
    "contact:phone": "+33 1 22 90 20 71",
    "contact:website": "http://www.terzoalpini.com/",
    "name": "Rifugio Terzo Alpini",
    "name:fr": "Refuge Terzo Alpini",
    "operator": "Club Alpino Italiano",
    "tourism": "alpine_hut"
  }
},
{
  "type": "node",
  "id": 1344471481,
  "lat": 46.6327859,
  "lon": 6.1598680,
  "tags": {
    "name": "La Grande-Verrière",
    "tourism": "alpine_hut"
  }
},
{
  "type": "node",
  "id": 1376495302,
  "lat": 45.6256814,
  "lon": 6.9412002,
  "tags": {
    "name": "Refuge du Ruitor",
    "tourism": "alpine_hut",
    "website": "http://ruitor.com/"
  }
},
{
  "type": "node",
  "id": 1379657911,
  "lat": 44.6449734,
  "lon": 6.4521741,
  "tags": {
    "capacity": "31",
    "ele": "1575",
    "name": "Gîte Auberge des Charançons",
    "phone": "+33 4 92 24 22 98",
    "tourism": "alpine_hut"
  }
},
{
  "type": "node",
  "id": 1379768801,
  "lat": 41.9368100,
  "lon": 9.1604420,
  "tags": {
    "name": "Refuge de Bella Vista",
    "tourism": "alpine_hut"
  }
},
{
  "type": "node",
  "id": 1386644116,
  "lat": 45.6024926,
  "lon": 6.9588701,
  "tags": {
    "ele": "2029",
    "name": "Refuge de l'Archeboc",
    "tourism": "alpine_hut"
  }
},
{
  "type": "node",
  "id": 1387485835,
  "lat": 45.0156921,
  "lon": 6.7433437,
  "tags": {
    "name": "Bivacco Ugo Blanchetti",
    "tourism": "alpine_hut"
  }
},
{
  "type": "node",
  "id": 1390840650,
  "lat": 42.3603243,
  "lon": 9.3331292,
  "tags": {
    "name": "Calleruccio",
    "tourism": "alpine_hut"
  }
},
{
  "type": "node",
  "id": 1390840654,
  "lat": 42.3839661,
  "lon": 9.3230378,
  "tags": {
    "name": "Favalta",
    "tourism": "alpine_hut"
  }
},
{
  "type": "node",
  "id": 1390840688,
  "lat": 42.3664169,
  "lon": 9.3298025,
  "tags": {
    "name": "Prato",
    "tourism": "alpine_hut"
  }
},
{
  "type": "node",
  "id": 1412667899,
  "lat": 44.6061301,
  "lon": 1.8956751,
  "tags": {
    "tourism": "alpine_hut"
  }
},
{
  "type": "node",
  "id": 1421769850,
  "lat": 48.8811126,
  "lon": 2.0084937,
  "tags": {
    "tourism": "alpine_hut"
  }
},
{
  "type": "node",
  "id": 1438724461,
  "lat": 44.1393316,
  "lon": 7.0466916,
  "tags": {
    "contact:phone": "+33 4 93 02 83 99",
    "ele": "1883",
    "name": "Longon",
    "tourism": "alpine_hut"
  }
},
{
  "type": "node",
  "id": 1447670301,
  "lat": 45.8522707,
  "lon": 5.7767127,
  "tags": {
    "name": "Gite d´Etape Le Cabiolon",
    "tourism": "alpine_hut"
  }
},
{
  "type": "node",
  "id": 1542589152,
  "lat": 45.3480040,
  "lon": 6.7020939,
  "tags": {
    "name": "Refuge Le Repoju",
    "tourism": "alpine_hut"
  }
},
{
  "type": "node",
  "id": 1542595788,
  "lat": 44.8414224,
  "lon": 6.2361367,
  "tags": {
    "ele": "2560",
    "name": "Refuge de Chalance",
    "tourism": "alpine_hut"
  }
},
{
  "type": "node",
  "id": 1542605861,
  "lat": 44.8292336,
  "lon": 6.2756012,
  "tags": {
    "ele": "1399",
    "name": "Refuge du Clot ou Xavier Blanc",
    "tourism": "alpine_hut"
  }
},
{
  "type": "node",
  "id": 1542784590,
  "lat": 45.0435980,
  "lon": 6.1828807,
  "tags": {
    "name": "Refuge des Clots",
    "tourism": "alpine_hut"
  }
},
{
  "type": "node",
  "id": 1542788831,
  "lat": 45.0308555,
  "lon": 5.8569368,
  "tags": {
    "name": "Gite de l'Alpe du Grand Serre",
    "tourism": "alpine_hut"
  }
},
{
  "type": "node",
  "id": 1542801541,
  "lat": 45.3188183,
  "lon": 6.8174540,
  "tags": {
    "name": "Refuge du Lac Blanc",
    "tourism": "alpine_hut"
  }
},
{
  "type": "node",
  "id": 1542875582,
  "lat": 45.4595486,
  "lon": 6.7443977,
  "tags": {
    "name": "Refuge du Bois",
    "tourism": "alpine_hut"
  }
},
{
  "type": "node",
  "id": 1571934672,
  "lat": 43.8640380,
  "lon": 6.8891120,
  "tags": {
    "name": "Abdoun",
    "tourism": "alpine_hut"
  }
},
{
  "type": "node",
  "id": 1659212855,
  "lat": 45.1480204,
  "lon": 5.8858827,
  "tags": {
    "addr:city": "Saint-Martin-d'Uriage",
    "addr:postcode": "38410",
    "ele": "1265",
    "name": "Cabane à Bonnet",
    "toilets": "yes",
    "tourism": "alpine_hut"
  }
},
{
  "type": "node",
  "id": 1673608451,
  "lat": 42.5671744,
  "lon": 2.2751254,
  "tags": {
    "name": "Refuge des Coumeilles Hautes",
    "name:ca": "Refugi de les Comelles Altes",
    "tourism": "alpine_hut"
  }
},
{
  "type": "node",
  "id": 1700149650,
  "lat": 45.2826131,
  "lon": 5.5980562,
  "tags": {
    "internet_access": "no",
    "name": "Cabane de Renardiere",
    "tourism": "alpine_hut"
  }
},
{
  "type": "node",
  "id": 1717810637,
  "lat": 43.5302234,
  "lon": 5.6187855,
  "tags": {
    "name": "Refuge Baudino",
    "tourism": "alpine_hut"
  }
},
{
  "type": "node",
  "id": 1725337565,
  "lat": 45.9463101,
  "lon": 7.0047617,
  "tags": {
    "ele": "2771",
    "name": "Refuge d'Argentière",
    "tourism": "alpine_hut",
    "wikidata": "Q795094",
    "wikipedia": "fr:Refuge d'Argentière"
  }
},
{
  "type": "node",
  "id": 1733281440,
  "lat": 43.7525268,
  "lon": 3.7181411,
  "tags": {
    "name": "Gite d'étape de Roussières",
    "tourism": "alpine_hut"
  }
},
{
  "type": "node",
  "id": 1778434321,
  "lat": 42.9626476,
  "lon": -0.4781941,
  "tags": {
    "access": "yes",
    "description": "Occupation limité à une nuit avec priorité aux Bergers",
    "name": "Cabane de Besse",
    "reservation": "no",
    "tourism": "alpine_hut"
  }
},
{
  "type": "node",
  "id": 1778445058,
  "lat": 43.0440090,
  "lon": -0.4827489,
  "tags": {
    "capacity": "6",
    "description": "Cabane en bon état, en 2 parties dont 1 fermée. Petite table, banc et tabouret.Couchage à l'étage sur plancher de bois",
    "drinking_water": "yes",
    "ele": "1300",
    "name": "Cabane des Bordes",
    "reservation": "no",
    "shower": "no",
    "tourism": "alpine_hut"
  }
},
{
  "type": "node",
  "id": 1804285761,
  "lat": 44.6322264,
  "lon": 6.5960724,
  "tags": {
    "tourism": "alpine_hut"
  }
},
{
  "type": "node",
  "id": 1812804843,
  "lat": 45.8155102,
  "lon": 6.2982197,
  "tags": {
    "name": "Les Paz d'Zeures",
    "tourism": "alpine_hut"
  }
},
{
  "type": "node",
  "id": 1843943131,
  "lat": 45.5182022,
  "lon": 6.8047852,
  "tags": {
    "name": "Refuge de Rosuel",
    "tourism": "alpine_hut"
  }
},
{
  "type": "node",
  "id": 1865772969,
  "lat": 47.8309857,
  "lon": 7.0710063,
  "tags": {
    "tourism": "alpine_hut"
  }
},
{
  "type": "node",
  "id": 1865953369,
  "lat": 47.8301146,
  "lon": 7.0428626,
  "tags": {
    "name": "Vogesapfad husla",
    "tourism": "alpine_hut"
  }
},
{
  "type": "node",
  "id": 1876042654,
  "lat": 42.2779628,
  "lon": 8.8310309,
  "tags": {
    "name": "Abri forestier bocca u Saltu",
    "tourism": "alpine_hut"
  }
},
{
  "type": "node",
  "id": 1885203941,
  "lat": 47.9905493,
  "lon": 6.9267521,
  "tags": {
    "name": "Chalet de l'Union",
    "source": "survey",
    "tourism": "alpine_hut"
  }
},
{
  "type": "node",
  "id": 1894564426,
  "lat": 44.7664504,
  "lon": 6.9837351,
  "tags": {
    "addr:city": "Ristolas",
    "addr:postcode": "05460",
    "email": "gitedelamonta@gmail.com",
    "name": "Refuge de la Monta",
    "phone": "+33 4 92 46 71 35",
    "tourism": "alpine_hut",
    "website": "http://www.gitedelamonta.com"
  }
},
{
  "type": "node",
  "id": 1920072983,
  "lat": 45.0308238,
  "lon": 6.3626003,
  "tags": {
    "addr:city": "Villar-d'Arêne",
    "addr:country": "FR",
    "addr:postcode": "05480",
    "name": "Le Pas de l'Ane",
    "shower": "yes",
    "tourism": "alpine_hut"
  }
},
{
  "type": "node",
  "id": 1923357119,
  "lat": 45.2647319,
  "lon": 6.1140180,
  "tags": {
    "name": "Refuge de la Combe madame",
    "tourism": "alpine_hut"
  }
},
{
  "type": "node",
  "id": 1983493536,
  "lat": 42.6203673,
  "lon": 2.2386734,
  "tags": {
    "tourism": "alpine_hut"
  }
},
{
  "type": "node",
  "id": 2012837318,
  "lat": 42.5095890,
  "lon": 2.2556851,
  "tags": {
    "ele": "1473",
    "name": "En Goudeil",
    "operator": "ONF",
    "tourism": "alpine_hut"
  }
},
{
  "type": "node",
  "id": 2071132790,
  "lat": 43.0187311,
  "lon": 1.7896402,
  "tags": {
    "addr:city": "Dun",
    "addr:postcode": "09600",
    "capacity": "25",
    "ele": "384",
    "name": "Ferme Équestre La Bayche",
    "operator": "Laurent Levoyer",
    "place": "farm",
    "tourism": "alpine_hut",
    "website": "http://www.equipyrene.org/fr/index.php"
  }
},
{
  "type": "node",
  "id": 2087515854,
  "lat": 48.2848502,
  "lon": -4.5091657,
  "tags": {
    "TYPE": "ETS 5E CAT AVEC LOCAL SOMMEIL",
    "name": "Point Accueil Plaisance et gîte d'Etape",
    "tourism": "alpine_hut"
  }
},
{
  "type": "node",
  "id": 2095650808,
  "lat": 43.3533014,
  "lon": 2.5813253,
  "tags": {
    "name": "ventajou",
    "tourism": "alpine_hut"
  }
},
{
  "type": "node",
  "id": 2107414612,
  "lat": 45.2976644,
  "lon": 6.8264281,
  "tags": {
    "name": "Abri forestier du Suffet",
    "tourism": "alpine_hut"
  }
},
{
  "type": "node",
  "id": 2135190273,
  "lat": 43.0408066,
  "lon": -0.4846207,
  "tags": {
    "drinking_water": "yes",
    "ele": "1458",
    "name": "Cabane de Crambots",
    "reservation": "no",
    "shower": "no",
    "tourism": "alpine_hut"
  }
},
{
  "type": "node",
  "id": 2173233610,
  "lat": 46.2145450,
  "lon": 5.8981538,
  "tags": {
    "ele": "1461",
    "name": "Le Gralet",
    "tourism": "alpine_hut"
  }
},
{
  "type": "node",
  "id": 2208755982,
  "lat": 48.4889746,
  "lon": 7.2906009,
  "tags": {
    "name": "Le Muckenbach",
    "operator": "Les Amis de la Nature",
    "tourism": "alpine_hut",
    "website": "http://www.muckenbach.org/"
  }
},
{
  "type": "node",
  "id": 2235078156,
  "lat": 45.1151244,
  "lon": 5.8481142,
  "tags": {
    "ele": "1187",
    "name": "Recoud",
    "tourism": "alpine_hut"
  }
},
{
  "type": "node",
  "id": 2263078847,
  "lat": 44.7354769,
  "lon": 5.8955398,
  "tags": {
    "capacity": "24",
    "ele": "1030",
    "email": "gites-st-disdier@wanadoo.fr",
    "name": "Gîte de Saint-Disdier",
    "phone": "+33 4 92 58 84 84",
    "tourism": "alpine_hut",
    "website": "http://www.gite-devoluy.com/accueil.htm"
  }
},
{
  "type": "node",
  "id": 2295830458,
  "lat": 44.9343151,
  "lon": 1.6987854,
  "tags": {
    "name": "Federation des Oeuvres Laiques du Lot (FOL)",
    "tourism": "alpine_hut"
  }
},
{
  "type": "node",
  "id": 2317371872,
  "lat": 44.7652925,
  "lon": 6.3275537,
  "tags": {
    "capacity": "60",
    "ele": "1805",
    "name": "Refuge du Pré la Chaumette",
    "tourism": "alpine_hut"
  }
},
{
  "type": "node",
  "id": 2344390513,
  "lat": 42.9984035,
  "lon": -0.2866427,
  "tags": {
    "email": "champagneerick@gmail.com",
    "name": "Gite d'étape La Petite Jeanne",
    "phone": "+33 5 47 92 15 01",
    "source": "http://lapetitejeanne.fr/",
    "tourism": "alpine_hut",
    "website": "http://lapetitejeanne.fr/"
  }
},
{
  "type": "node",
  "id": 2345259714,
  "lat": 42.5280193,
  "lon": 2.5653606,
  "tags": {
    "tourism": "alpine_hut"
  }
},
{
  "type": "node",
  "id": 2350982277,
  "lat": 45.7882715,
  "lon": 2.8610965,
  "tags": {
    "capacity": "18",
    "description": "Gite d'étape",
    "fee:2013": "11€",
    "name": "Gite d'Étape",
    "tourism": "alpine_hut"
  }
},
{
  "type": "node",
  "id": 2377146011,
  "lat": 45.3384970,
  "lon": 6.4548439,
  "tags": {
    "name": "Chalet de Varlossière",
    "tourism": "alpine_hut"
  }
},
{
  "type": "node",
  "id": 2381632010,
  "lat": 44.4018476,
  "lon": 6.4090633,
  "tags": {
    "name": "La cabane du lac",
    "tourism": "alpine_hut"
  }
},
{
  "type": "node",
  "id": 2401371906,
  "lat": 45.8241251,
  "lon": 6.2622956,
  "tags": {
    "name": "Refuge du Pré Verel",
    "tourism": "alpine_hut"
  }
},
{
  "type": "node",
  "id": 2420548303,
  "lat": 45.0965358,
  "lon": 2.7238299,
  "tags": {
    "internet_access": "no",
    "name": "Refuge de Meije Coste",
    "tourism": "alpine_hut"
  }
},
{
  "type": "node",
  "id": 2448190990,
  "lat": 45.0877405,
  "lon": 6.1476980,
  "tags": {
    "name": "Refuge du Col de Sarenne",
    "tourism": "alpine_hut",
    "website": "http://www.refuge7.com/"
  }
},
{
  "type": "node",
  "id": 2464586953,
  "lat": 44.8826535,
  "lon": 6.4056790,
  "tags": {
    "c2c:id": "104154",
    "ele": "2700",
    "name": "Refuge du Pelvoux",
    "source": "cadastre-dgi-fr source : Direction Générale des Impôts - Cadastre. Mise à jour : 2009",
    "tourism": "alpine_hut"
  }
},
{
  "type": "node",
  "id": 2464586957,
  "lat": 44.8733266,
  "lon": 6.3905106,
  "tags": {
    "c2c:id": "104171",
    "ele": "2511",
    "name": "Refuge du Sélé",
    "source": "cadastre-dgi-fr source : Direction Générale des Impôts - Cadastre. Mise à jour : 2009",
    "tourism": "alpine_hut"
  }
},
{
  "type": "node",
  "id": 2476248954,
  "lat": 44.7979140,
  "lon": 6.9284960,
  "tags": {
    "addr:city": "Abriès",
    "addr:housename": "Gîte Ancolie bleue",
    "addr:postcode": "05460",
    "addr:street": "Chemin de la Sellette",
    "name": "Ancolie bleue",
    "phone": "+33 4 92 20 54 42",
    "tourism": "alpine_hut",
    "website": "http://ancolie-bleue-queyras.com"
  }
},
{
  "type": "node",
  "id": 2513644651,
  "lat": 49.0412050,
  "lon": -0.4262356,
  "tags": {
    "name": "Chalet des Granges",
    "tourism": "alpine_hut"
  }
},
{
  "type": "node",
  "id": 2523993174,
  "lat": 45.3511046,
  "lon": 6.4680345,
  "tags": {
    "name": "Refuge de Gitamelon",
    "tourism": "alpine_hut"
  }
},
{
  "type": "node",
  "id": 2539474331,
  "lat": 42.9218373,
  "lon": -0.1822037,
  "tags": {
    "email": "lesviellettes@gmail.com",
    "name": "Gîte d'Étape les Viellettes",
    "phone": "+33 9 60 40 65 17",
    "tourism": "alpine_hut",
    "website": "http://www.gitelesviellettes.com/"
  }
},
{
  "type": "node",
  "id": 2565539240,
  "lat": 45.3401631,
  "lon": 5.8103621,
  "tags": {
    "name": "Gite d'étape des 4 chemins",
    "tourism": "alpine_hut"
  }
},
{
  "type": "node",
  "id": 2567573002,
  "lat": 47.7796942,
  "lon": 6.8606539,
  "tags": {
    "name": "Abri col Chantoiseau",
    "tourism": "alpine_hut"
  }
},
{
  "type": "node",
  "id": 2567578519,
  "lat": 47.7650419,
  "lon": 6.8976580,
  "tags": {
    "name": "Abri col des 7 Chemins",
    "tourism": "alpine_hut"
  }
},
{
  "type": "node",
  "id": 2669358995,
  "lat": 43.0860691,
  "lon": 0.2801951,
  "tags": {
    "name": "Le Moulin des Baronnies",
    "tourism": "alpine_hut"
  }
},
{
  "type": "node",
  "id": 2788722282,
  "lat": 44.9955828,
  "lon": 6.3854121,
  "tags": {
    "ele": "2106",
    "name": "Chalet-Refuge de Chamoissière",
    "note": "ces tags sont appliqués au \"building\" désormais",
    "tourism": "alpine_hut",
    "was:tourism": "alpine_hut"
  }
},
{
  "type": "node",
  "id": 2853904836,
  "lat": 42.6780457,
  "lon": 2.1829854,
  "tags": {
    "name": "Refuge Pastoral du Madres",
    "tourism": "alpine_hut"
  }
},
{
  "type": "node",
  "id": 2939297903,
  "lat": 45.6135935,
  "lon": 6.6078173,
  "tags": {
    "amenity": "shelter",
    "name": "Refuge le Cormet",
    "source": "data.gouv.fr:Le ministère des droits des femmes, de la ville, de la jeunesse et des sports - 2014",
    "tourism": "alpine_hut"
  }
},
{
  "type": "node",
  "id": 2940263651,
  "lat": 45.9599953,
  "lon": 6.8872948,
  "tags": {
    "amenity": "shelter",
    "name": "La Flégère",
    "source": "data.gouv.fr:Le ministère des droits des femmes, de la ville, de la jeunesse et des sports - 2014",
    "tourism": "alpine_hut"
  }
},
{
  "type": "node",
  "id": 2940263658,
  "lat": 45.9221919,
  "lon": 6.8295951,
  "tags": {
    "amenity": "shelter",
    "ele": "2136",
    "name": "Refuge de Bellachat",
    "source": "data.gouv.fr:Le ministère des droits des femmes, de la ville, de la jeunesse et des sports - 2014",
    "tourism": "alpine_hut"
  }
},
{
  "type": "node",
  "id": 2940630401,
  "lat": 48.6305887,
  "lon": 7.2607633,
  "tags": {
    "tourism": "alpine_hut"
  }
},
{
  "type": "node",
  "id": 2950530402,
  "lat": 45.3827238,
  "lon": 4.5803861,
  "tags": {
    "ele": "1400",
    "internet_access": "no",
    "internet_access:fee": "no",
    "name": "Chalet bourguisan",
    "operator": "privé",
    "phone": "+33 4 77 39 60 40",
    "tourism": "alpine_hut",
    "website": "http://www.refuges.info/point/3738/cabane-non-gardee/Pilat-Velay-Vivarais/Chalet-Bourguisan-G-Duclos/",
    "wheelchair": "no"
  }
},
{
  "type": "node",
  "id": 2953142890,
  "lat": 44.8447218,
  "lon": 6.8159399,
  "tags": {
    "access": "yes",
    "capacity": "62",
    "ele": "2040",
    "name": "Refuge des Fonts de Cervières",
    "phone": "+33 4 92 21 32 82",
    "tourism": "alpine_hut",
    "website": "http://www.alpes-guide.com/sources/services/detail.asp?cle=19667"
  }
},
{
  "type": "node",
  "id": 2953189023,
  "lat": 44.7609611,
  "lon": 6.8223218,
  "tags": {
    "ele": "1390",
    "email": "contact@gitelesastragales.fr",
    "fax": "+33 6 07 95 12 16",
    "internet_access": "wlan",
    "internet_access:fee": "no",
    "name": "Gîte d'Étape Les Astragales",
    "phone": "+33 4 92 46 70 82",
    "tourism": "alpine_hut",
    "website": "www.gitelesastragales.fr"
  }
},
{
  "type": "node",
  "id": 2979270215,
  "lat": 43.3236832,
  "lon": -1.0344301,
  "tags": {
    "name": "Les Franciscains",
    "tourism": "alpine_hut"
  }
},
{
  "type": "node",
  "id": 2995484999,
  "lat": 43.0499000,
  "lon": -1.2113341,
  "tags": {
    "name": "Cabane d'Orgambide",
    "tourism": "alpine_hut"
  }
},
{
  "type": "node",
  "id": 3009882506,
  "lat": 43.0013315,
  "lon": 1.1376437,
  "tags": {
    "name": "Halte Jacquaire",
    "tourism": "alpine_hut"
  }
},
{
  "type": "node",
  "id": 3009934191,
  "lat": 42.9396374,
  "lon": 0.8668419,
  "tags": {
    "name": "Gite Etape Chez Jo",
    "tourism": "alpine_hut"
  }
},
{
  "type": "node",
  "id": 3010001458,
  "lat": 43.0664676,
  "lon": 0.1467799,
  "tags": {
    "name": "Halte Jacquaire Accueil Notre-Dame",
    "tourism": "alpine_hut"
  }
},
{
  "type": "node",
  "id": 3026990596,
  "lat": 45.6944111,
  "lon": 2.1200299,
  "tags": {
    "tourism": "alpine_hut"
  }
},
{
  "type": "node",
  "id": 3073427053,
  "lat": 45.3573898,
  "lon": 6.5941261,
  "tags": {
    "name": "Chalet du Plan",
    "tourism": "alpine_hut"
  }
},
{
  "type": "node",
  "id": 3124642032,
  "lat": 43.4274656,
  "lon": 2.5233937,
  "tags": {
    "tourism": "alpine_hut"
  }
},
{
  "type": "node",
  "id": 3157591143,
  "lat": 48.4046295,
  "lon": 7.3313867,
  "tags": {
    "name": "Gîte d'Étape",
    "tourism": "alpine_hut"
  }
},
{
  "type": "node",
  "id": 3215381592,
  "lat": 46.0603718,
  "lon": 3.7816488,
  "tags": {
    "contact:phone": "0470564099",
    "description": "Gite d'Étape",
    "name": "La Bourbonnière",
    "tourism": "alpine_hut"
  }
},
{
  "type": "node",
  "id": 3306466282,
  "lat": 43.4782076,
  "lon": 2.6581210,
  "tags": {
    "name": "Gîte d'Étape",
    "tourism": "alpine_hut"
  }
},
{
  "type": "node",
  "id": 3309570503,
  "lat": 42.9684998,
  "lon": 2.6758075,
  "tags": {
    "name": "Le Maou",
    "tourism": "alpine_hut"
  }
},
{
  "type": "node",
  "id": 3587761897,
  "lat": 46.5768924,
  "lon": 6.1035636,
  "tags": {
    "access": "customers",
    "addr:city": "Chapelle-des-Bois",
    "addr:housenumber": "12",
    "addr:postcode": "25240",
    "addr:street": "Sur les lacs",
    "capacity": "31",
    "ele": "1141",
    "name": "Chez l'Aimé",
    "reservation": "required",
    "source": "survey;website",
    "tourism": "alpine_hut",
    "website": "http://chez-l-aime.magix.net/website"
  }
},
{
  "type": "node",
  "id": 3600508634,
  "lat": 48.7109747,
  "lon": -0.8311737,
  "tags": {
    "name": "Gîte d'Etape",
    "tourism": "alpine_hut"
  }
},
{
  "type": "node",
  "id": 3621497238,
  "lat": 45.2439890,
  "lon": 6.9401606,
  "tags": {
    "addr:city": "Lanslebourg",
    "addr:postcode": "73480",
    "contact:email": "info@giteletoet.com",
    "contact:phone": "+33 04 79 05 95 67",
    "contact:website": "http://giteletoet.com/",
    "name": "Le Toët",
    "tourism": "alpine_hut"
  }
},
{
  "type": "node",
  "id": 3657811578,
  "lat": 48.9742106,
  "lon": -0.2509117,
  "tags": {
    "name": "Gîte du Suvez",
    "tourism": "alpine_hut"
  }
},
{
  "type": "node",
  "id": 3657815447,
  "lat": 49.0113163,
  "lon": -0.4211165,
  "tags": {
    "name": "La Grange d'Espins",
    "tourism": "alpine_hut"
  }
},
{
  "type": "node",
  "id": 3657817268,
  "lat": 48.9377878,
  "lon": -0.6790767,
  "tags": {
    "name": "La Ferme d'Escure",
    "tourism": "alpine_hut"
  }
},
{
  "type": "node",
  "id": 3657827768,
  "lat": 48.7907349,
  "lon": -1.0097642,
  "tags": {
    "name": "Gîte d'Etape",
    "tourism": "alpine_hut"
  }
},
{
  "type": "node",
  "id": 3657834097,
  "lat": 49.0793408,
  "lon": -0.4014264,
  "tags": {
    "name": "La Colinerie",
    "tourism": "alpine_hut"
  }
},
{
  "type": "node",
  "id": 3811126365,
  "lat": 47.8026928,
  "lon": 7.0815198,
  "tags": {
    "name": "Zuber",
    "tourism": "alpine_hut"
  }
},
{
  "type": "node",
  "id": 4099043194,
  "lat": 43.6723500,
  "lon": 2.6823498,
  "tags": {
    "name": "Refuge de Martinou",
    "tourism": "alpine_hut"
  }
},
{
  "type": "node",
  "id": 4104819711,
  "lat": 43.7044594,
  "lon": 5.6584307,
  "tags": {
    "amenity": "shelter",
    "name": "Gîte d'étape",
    "source": "data.gouv.fr:Le ministère des droits des femmes, de la ville, de la jeunesse et des sports - 2014",
    "tourism": "alpine_hut"
  }
},
{
  "type": "node",
  "id": 4140222155,
  "lat": 42.2865715,
  "lon": 8.8932005,
  "tags": {
    "capacity": "70",
    "name": "Gîte Castel De Vergio",
    "tourism": "alpine_hut"
  }
},
{
  "type": "node",
  "id": 4187775060,
  "lat": 48.9382897,
  "lon": 7.4586730,
  "tags": {
    "name": "Gïte d'étape du Kiesbächel",
    "source": "data.gouv.fr:Le ministère des droits des femmes, de la ville, de la jeunesse et des sports - 2014",
    "tourism": "alpine_hut"
  }
},
{
  "type": "node",
  "id": 4271946985,
  "lat": 42.3680813,
  "lon": 8.9607063,
  "tags": {
    "name": "Refuge de l'Erco",
    "tourism": "alpine_hut"
  }
},
{
  "type": "node",
  "id": 4343789589,
  "lat": 43.7557678,
  "lon": 2.9156717,
  "tags": {
    "name": "Le Presbytère",
    "tourism": "alpine_hut"
  }
},
{
  "type": "node",
  "id": 4347078145,
  "lat": 42.8307874,
  "lon": 1.0328991,
  "tags": {
    "name": "Gîte d'étape \"La Maison du Valier\"",
    "tourism": "alpine_hut"
  }
},
{
  "type": "node",
  "id": 4357427589,
  "lat": 42.6906056,
  "lon": 2.1012047,
  "tags": {
    "name:es": "hayedo querigut",
    "tourism": "alpine_hut"
  }
},
{
  "type": "node",
  "id": 4369471489,
  "lat": 43.2290977,
  "lon": 5.6143383,
  "tags": {
    "description": "vieux refuge à l'abandons, il y a juste 4 murs, un toit et une terrasse, permet surtout de s'abriter des intempéries ou faire une pause en cas de forte chaleur",
    "tourism": "alpine_hut"
  }
},
{
  "type": "node",
  "id": 4373798389,
  "lat": 44.4560444,
  "lon": 3.9298166,
  "tags": {
    "internet_access": "wlan",
    "name": "Hôtel du Lac",
    "stars": "2",
    "tourism": "alpine_hut"
  }
},
{
  "type": "node",
  "id": 4394676189,
  "lat": 42.0341120,
  "lon": 9.1647404,
  "tags": {
    "name": "Bergerie de Ghjalcone",
    "name:fr": "Bergerie de Ghjalcone",
    "tourism": "alpine_hut"
  }
},
{
  "type": "node",
  "id": 4404046771,
  "lat": 42.9938489,
  "lon": 0.8580953,
  "tags": {
    "tourism": "alpine_hut"
  }
},
{
  "type": "node",
  "id": 4412088165,
  "lat": 47.4709189,
  "lon": 5.9663538,
  "tags": {
    "tourism": "alpine_hut"
  }
},
{
  "type": "node",
  "id": 4415673489,
  "lat": 43.1845266,
  "lon": 5.6184500,
  "tags": {
    "tourism": "alpine_hut"
  }
},
{
  "type": "node",
  "id": 4471829025,
  "lat": 42.4720301,
  "lon": 2.5075145,
  "tags": {
    "name": "Refuge de la Devesa",
    "tourism": "alpine_hut"
  }
},
{
  "type": "node",
  "id": 4591471991,
  "lat": 45.8939686,
  "lon": 6.4033974,
  "tags": {
    "name": "Le Piste Bleue",
    "name:fr": "Le Piste Bleue",
    "tourism": "alpine_hut"
  }
},
{
  "type": "node",
  "id": 4601446646,
  "lat": 45.2238737,
  "lon": 6.7754468,
  "tags": {
    "name": "Les Glaciers",
    "tourism": "alpine_hut"
  }
},
{
  "type": "node",
  "id": 4803839448,
  "lat": 43.0138902,
  "lon": 0.2388757,
  "tags": {
    "name": "Cabane de Cot Dessus",
    "tourism": "alpine_hut"
  }
},
{
  "type": "node",
  "id": 4870187352,
  "lat": 45.6341386,
  "lon": 3.8682152,
  "tags": {
    "capacity": "15",
    "name": "Refuge du Garnier",
    "phone": "04 77 76 83 86",
    "tourism": "alpine_hut"
  }
},
{
  "type": "node",
  "id": 4880039128,
  "lat": 44.7809565,
  "lon": 6.5199405,
  "tags": {
    "description": "altitude 1725m",
    "name": "Refuge du Kern",
    "tourism": "alpine_hut"
  }
},
{
  "type": "node",
  "id": 4888006987,
  "lat": 45.0078878,
  "lon": 5.9675758,
  "tags": {
    "name": "Gîte Le Chamois",
    "tourism": "alpine_hut"
  }
},
{
  "type": "node",
  "id": 4894746722,
  "lat": 49.0356047,
  "lon": 7.6909379,
  "tags": {
    "name": "Maison du randonneur",
    "name:en": "Wanderer's refuge",
    "name:fr": "Maison du randonneur",
    "opening_hours": "24/7",
    "operator": "you can get the key at rue principal 22 of 17.",
    "tourism": "alpine_hut"
  }
},
{
  "type": "node",
  "id": 4908188545,
  "lat": 44.1081549,
  "lon": 7.4465435,
  "tags": {
    "ele": "2233",
    "name": "Refuge de Valmasque",
    "tourism": "alpine_hut"
  }
},
{
  "type": "node",
  "id": 4908192143,
  "lat": 44.0861164,
  "lon": 7.4806875,
  "tags": {
    "ele": "2018",
    "name": "Refuge de Fontanalbe",
    "tourism": "alpine_hut"
  }
}

  ]
}
